Address,Date time,Minimum Temperature,Maximum Temperature,Temperature,Dew Point,Relative Humidity,Heat Index,Wind Speed,Wind Gust,Wind Direction,Wind Chill,Precipitation,Precipitation Cover,Snow Depth,Visibility,Cloud Cover,Sea Level Pressure,Weather Type,Latitude,Longitude,Resolved Address,Name,Info,Conditions
"50.0826,8.2493","03/31/2020 00:00:00",4.5,4.5,4.5,-3.5,56.16,,9.6,,356.0,2.1,0.0,,0.0,15.0,0.0,1026.5,"",50.0826,8.2493,"50.0826,8.2493","50.0826,8.2493","","Clear"
"50.0826,8.2493","03/31/2020 01:00:00",4.2,4.2,4.2,-3.2,58.73,,1.5,,340.0,,0.0,,0.0,13.5,0.0,1026.5,"",50.0826,8.2493,"50.0826,8.2493","50.0826,8.2493","","Clear"
"50.0826,8.2493","03/31/2020 02:00:00",3.9,3.9,3.9,-2.9,61.24,,5.8,,38.0,2.6,0.0,,0.0,12.7,0.0,1026.5,"",50.0826,8.2493,"50.0826,8.2493","50.0826,8.2493","","Clear"
"50.0826,8.2493","03/31/2020 03:00:00",3.9,3.9,3.9,-2.8,61.67,,6.5,,12.0,2.4,0.0,,0.0,12.0,0.0,1026.5,"",50.0826,8.2493,"50.0826,8.2493","50.0826,8.2493","","Clear"
"50.0826,8.2493","03/31/2020 04:00:00",3.7,3.7,3.7,-2.2,65.48,,9.3,,23.0,1.2,0.0,,0.0,11.4,0.0,1026.4,"",50.0826,8.2493,"50.0826,8.2493","50.0826,8.2493","","Clear"
"50.0826,8.2493","03/31/2020 05:00:00",3.2,3.2,3.2,-1.8,69.3,,10.4,,30.0,0.5,0.0,,0.0,11.5,0.0,1026.4,"",50.0826,8.2493,"50.0826,8.2493","50.0826,8.2493","","Clear"
"50.0826,8.2493","03/31/2020 06:00:00",2.8,2.8,2.8,-1.7,72.41,,13.9,,47.0,-0.8,0.0,,0.0,11.0,0.0,1026.7,"",50.0826,8.2493,"50.0826,8.2493","50.0826,8.2493","","Clear"
"50.0826,8.2493","03/31/2020 07:00:00",2.4,2.4,2.4,-1.5,75.86,,3.0,,40.0,,0.0,,0.0,11.0,0.0,1027.5,"",50.0826,8.2493,"50.0826,8.2493","50.0826,8.2493","","Clear"
"50.0826,8.2493","03/31/2020 08:00:00",2.9,2.9,2.9,-1.3,74.1,,19.0,,50.0,-1.5,0.0,,0.0,11.3,0.0,1028.2,"",50.0826,8.2493,"50.0826,8.2493","50.0826,8.2493","","Clear"
"50.0826,8.2493","03/31/2020 09:00:00",3.2,3.2,3.2,-1.9,69.13,,18.5,,50.0,-1.0,0.0,,0.0,11.5,0.0,1028.9,"",50.0826,8.2493,"50.0826,8.2493","50.0826,8.2493","","Clear"
"50.0826,8.2493","03/31/2020 10:00:00",4.1,4.1,4.1,-2.7,61.48,,22.4,,58.0,-0.4,0.0,,0.0,13.7,0.0,1029.3,"",50.0826,8.2493,"50.0826,8.2493","50.0826,8.2493","","Clear"
"50.0826,8.2493","03/31/2020 11:00:00",5.0,5.0,5.0,-3.2,55.14,,27.0,,49.0,0.4,0.0,,0.0,15.3,0.0,1029.5,"",50.0826,8.2493,"50.0826,8.2493","50.0826,8.2493","","Clear"
"50.0826,8.2493","03/31/2020 12:00:00",5.3,5.3,5.3,-5.8,44.62,,18.6,,40.0,1.7,0.0,,0.0,16.5,1.2,1029.5,"",50.0826,8.2493,"50.0826,8.2493","50.0826,8.2493","","Clear"
"50.0826,8.2493","03/31/2020 13:00:00",6.7,6.7,6.7,-6.1,39.64,,21.4,,50.0,3.1,0.0,,0.0,10.0,0.0,1029.2,"",50.0826,8.2493,"50.0826,8.2493","50.0826,8.2493","","Clear"
"50.0826,8.2493","03/31/2020 14:00:00",7.0,7.0,7.0,-6.7,37.21,,19.7,,66.0,3.6,0.0,,0.0,10.0,0.0,1028.8,"",50.0826,8.2493,"50.0826,8.2493","50.0826,8.2493","","Clear"
"50.0826,8.2493","03/31/2020 15:00:00",7.5,7.5,7.5,-6.9,35.22,,22.8,,72.0,4.0,0.0,,0.0,12.9,0.0,1028.1,"",50.0826,8.2493,"50.0826,8.2493","50.0826,8.2493","","Clear"
"50.0826,8.2493","03/31/2020 16:00:00",7.7,7.7,7.7,-7.5,33.31,,18.3,,80.0,4.7,0.0,,0.0,10.0,0.0,1027.8,"",50.0826,8.2493,"50.0826,8.2493","50.0826,8.2493","","Clear"
"50.0826,8.2493","03/31/2020 17:00:00",8.2,8.2,8.2,-7.2,33.02,,12.2,,57.0,6.1,0.0,,0.0,10.0,1.1,1027.4,"",50.0826,8.2493,"50.0826,8.2493","50.0826,8.2493","","Clear"
"50.0826,8.2493","03/31/2020 18:00:00",7.7,7.7,7.7,-7.7,32.84,,17.9,,38.0,4.7,0.0,,0.0,10.0,1.1,1027.1,"",50.0826,8.2493,"50.0826,8.2493","50.0826,8.2493","","Clear"
"50.0826,8.2493","03/31/2020 19:00:00",6.7,6.7,6.7,-7.7,34.83,,19.8,,57.0,3.3,0.0,,0.0,10.0,1.1,1027.1,"",50.0826,8.2493,"50.0826,8.2493","50.0826,8.2493","","Clear"
"50.0826,8.2493","03/31/2020 20:00:00",5.1,5.1,5.1,-7.7,39.13,,16.1,,47.0,1.7,0.0,,0.0,10.0,1.1,1027.9,"",50.0826,8.2493,"50.0826,8.2493","50.0826,8.2493","","Clear"
"50.0826,8.2493","03/31/2020 21:00:00",3.9,3.9,3.9,-7.6,42.69,,11.9,,42.0,1.0,0.0,,0.0,10.0,1.1,1027.9,"",50.0826,8.2493,"50.0826,8.2493","50.0826,8.2493","","Clear"
"50.0826,8.2493","03/31/2020 22:00:00",3.0,3.0,3.0,-7.6,45.9,,13.6,,71.0,-0.5,0.0,,0.0,13.5,0.0,1027.9,"",50.0826,8.2493,"50.0826,8.2493","50.0826,8.2493","","Clear"
"50.0826,8.2493","03/31/2020 23:00:00",1.8,1.8,1.8,-7.5,49.77,,13.2,,72.0,-1.8,0.0,,0.0,10.0,0.0,1027.6,"",50.0826,8.2493,"50.0826,8.2493","50.0826,8.2493","","Clear"
"50.0826,8.2493","04/01/2020 00:00:00",1.5,1.5,1.5,-7.8,50.02,,11.8,,55.0,-1.9,0.0,,0.0,10.0,0.0,1027.3,"",50.0826,8.2493,"50.0826,8.2493","50.0826,8.2493","","Clear"
"50.0826,8.2493","04/01/2020 01:00:00",0.7,0.7,0.7,-7.8,52.92,,10.0,,55.0,-2.5,0.0,,0.0,10.0,0.0,1027.0,"",50.0826,8.2493,"50.0826,8.2493","50.0826,8.2493","","Clear"
"50.0826,8.2493","04/01/2020 02:00:00",0.5,0.5,0.5,-8.3,51.72,,6.8,,49.0,-1.7,0.0,,0.0,10.0,0.0,1026.3,"",50.0826,8.2493,"50.0826,8.2493","50.0826,8.2493","","Clear"
"50.0826,8.2493","04/01/2020 03:00:00",0.4,0.4,0.4,-8.6,51.17,,10.1,,57.0,-2.9,0.0,,0.0,10.0,0.0,1026.2,"",50.0826,8.2493,"50.0826,8.2493","50.0826,8.2493","","Clear"
"50.0826,8.2493","04/01/2020 04:00:00",-0.4,-0.4,-0.4,-8.5,54.29,,6.9,,48.0,-2.8,0.0,,0.0,10.0,0.0,1025.9,"",50.0826,8.2493,"50.0826,8.2493","50.0826,8.2493","","Clear"
"50.0826,8.2493","04/01/2020 05:00:00",-0.8,-0.8,-0.8,-8.7,55.1,,8.3,,28.0,-3.8,0.0,,0.0,10.0,0.0,1025.2,"",50.0826,8.2493,"50.0826,8.2493","50.0826,8.2493","","Clear"
"50.0826,8.2493","04/01/2020 06:00:00",-1.3,-1.3,-1.3,-8.5,57.92,,2.0,,63.0,,0.0,,0.0,10.0,1.2,1024.9,"",50.0826,8.2493,"50.0826,8.2493","50.0826,8.2493","","Clear"
"50.0826,8.2493","04/01/2020 07:00:00",-1.8,-1.8,-1.8,-8.5,60.4,,1.8,,74.0,,0.0,,0.0,10.0,0.0,1024.6,"",50.0826,8.2493,"50.0826,8.2493","50.0826,8.2493","","Clear"
"50.0826,8.2493","04/01/2020 08:00:00",-0.8,-0.8,-0.8,-8.3,57.18,,5.7,,79.0,-2.9,0.0,,0.0,10.0,0.0,1024.6,"",50.0826,8.2493,"50.0826,8.2493","50.0826,8.2493","","Clear"
"50.0826,8.2493","04/01/2020 09:00:00",1.6,1.6,1.6,-8.0,48.69,,1.4,,100.0,,0.0,,0.0,10.0,0.0,1024.6,"",50.0826,8.2493,"50.0826,8.2493","50.0826,8.2493","","Clear"
"50.0826,8.2493","04/01/2020 10:00:00",3.4,3.4,3.4,-8.4,41.64,,10.5,,85.0,0.7,0.0,,0.0,10.0,0.0,1024.2,"",50.0826,8.2493,"50.0826,8.2493","50.0826,8.2493","","Clear"
"50.0826,8.2493","04/01/2020 11:00:00",5.1,5.1,5.1,-8.4,37.07,,0.9,,327.0,,0.0,,0.0,13.2,0.0,1024.2,"",50.0826,8.2493,"50.0826,8.2493","50.0826,8.2493","","Clear"
"50.0826,8.2493","04/01/2020 12:00:00",6.1,6.1,6.1,-8.4,34.63,,5.4,,110.0,5.2,0.0,,0.0,13.0,0.0,1023.5,"",50.0826,8.2493,"50.0826,8.2493","50.0826,8.2493","","Clear"
"50.0826,8.2493","04/01/2020 13:00:00",7.1,7.1,7.1,-7.6,34.4,,8.8,,106.0,5.4,0.0,,0.0,13.4,1.1,1022.5,"",50.0826,8.2493,"50.0826,8.2493","50.0826,8.2493","","Clear"
"50.0826,8.2493","04/01/2020 14:00:00",8.2,8.2,8.2,-6.7,34.14,,10.3,,115.0,6.5,0.0,,0.0,10.0,1.1,1021.1,"",50.0826,8.2493,"50.0826,8.2493","50.0826,8.2493","","Clear"
"50.0826,8.2493","04/01/2020 15:00:00",8.8,8.8,8.8,-7.0,32.14,,10.2,,73.0,7.1,0.0,,0.0,10.0,1.1,1020.1,"",50.0826,8.2493,"50.0826,8.2493","50.0826,8.2493","","Clear"
"50.0826,8.2493","04/01/2020 16:00:00",9.8,9.8,9.8,-5.8,32.9,,0.9,,53.0,,0.0,,0.0,12.9,1.1,1019.4,"",50.0826,8.2493,"50.0826,8.2493","50.0826,8.2493","","Clear"
"50.0826,8.2493","04/01/2020 17:00:00",9.9,9.9,9.9,-7.0,29.87,,5.4,,184.0,9.5,0.0,,0.0,10.0,0.0,1018.7,"",50.0826,8.2493,"50.0826,8.2493","50.0826,8.2493","","Clear"
"50.0826,8.2493","04/01/2020 18:00:00",10.1,10.1,10.1,-6.4,30.76,,1.2,,6.0,,0.0,,0.0,10.0,0.0,1018.0,"",50.0826,8.2493,"50.0826,8.2493","50.0826,8.2493","","Clear"
"50.0826,8.2493","04/01/2020 19:00:00",9.5,9.5,9.5,-6.7,31.34,,1.2,,94.0,,0.0,,0.0,10.0,0.0,1017.8,"",50.0826,8.2493,"50.0826,8.2493","50.0826,8.2493","","Clear"
"50.0826,8.2493","04/01/2020 20:00:00",7.9,7.9,7.9,-6.1,36.58,,5.9,,89.0,7.1,0.0,,0.0,13.5,0.0,1017.4,"",50.0826,8.2493,"50.0826,8.2493","50.0826,8.2493","","Clear"
"50.0826,8.2493","04/01/2020 21:00:00",5.9,5.9,5.9,-6.4,40.86,,0.7,,223.0,,0.0,,0.0,10.0,0.0,1017.7,"",50.0826,8.2493,"50.0826,8.2493","50.0826,8.2493","","Clear"
"50.0826,8.2493","04/01/2020 22:00:00",4.1,4.1,4.1,-5.6,49.29,,0.9,,270.0,,0.0,,0.0,13.2,0.0,1017.4,"",50.0826,8.2493,"50.0826,8.2493","50.0826,8.2493","","Clear"
"50.0826,8.2493","04/01/2020 23:00:00",2.5,2.5,2.5,-5.4,55.79,,0.9,,275.0,,0.0,,0.0,13.5,0.0,1017.4,"",50.0826,8.2493,"50.0826,8.2493","50.0826,8.2493","","Clear"
"50.0826,8.2493","04/02/2020 00:00:00",1.5,1.5,1.5,-5.4,59.83,,0.9,,228.0,,0.0,,0.0,16.6,0.0,1016.7,"",50.0826,8.2493,"50.0826,8.2493","50.0826,8.2493","","Clear"
"50.0826,8.2493","04/02/2020 01:00:00",1.7,1.7,1.7,-5.6,58.59,,0.7,,350.0,,0.0,,0.0,16.2,0.0,1016.7,"",50.0826,8.2493,"50.0826,8.2493","50.0826,8.2493","","Clear"
"50.0826,8.2493","04/02/2020 02:00:00",1.0,1.0,1.0,-5.5,61.73,,0.9,,10.0,,0.0,,0.0,16.4,0.0,1016.4,"",50.0826,8.2493,"50.0826,8.2493","50.0826,8.2493","","Clear"
"50.0826,8.2493","04/02/2020 03:00:00",2.0,2.0,2.0,-5.6,57.47,,0.5,,314.0,,0.0,,0.0,16.0,0.0,1016.0,"",50.0826,8.2493,"50.0826,8.2493","50.0826,8.2493","","Clear"
"50.0826,8.2493","04/02/2020 04:00:00",2.0,2.0,2.0,-5.7,56.85,,5.4,,314.0,0.5,0.0,,0.0,13.3,0.0,1015.9,"",50.0826,8.2493,"50.0826,8.2493","50.0826,8.2493","","Clear"
"50.0826,8.2493","04/02/2020 05:00:00",-0.3,-0.3,-0.3,-5.8,66.35,,4.9,,288.0,-1.9,0.0,,0.0,15.8,0.0,1015.8,"",50.0826,8.2493,"50.0826,8.2493","50.0826,8.2493","","Clear"
"50.0826,8.2493","04/02/2020 06:00:00",0.4,0.4,0.4,-5.6,63.93,,0.4,,280.0,,0.0,,0.0,15.5,0.0,1015.7,"",50.0826,8.2493,"50.0826,8.2493","50.0826,8.2493","","Clear"
"50.0826,8.2493","04/02/2020 07:00:00",-0.1,-0.1,-0.1,-5.2,68.53,,0.4,,350.0,,0.0,,0.0,15.8,1.1,1015.4,"",50.0826,8.2493,"50.0826,8.2493","50.0826,8.2493","","Clear"
"50.0826,8.2493","04/02/2020 08:00:00",0.1,0.1,0.1,-4.7,70.16,,0.6,,127.0,,0.0,,0.0,15.3,1.1,1015.7,"",50.0826,8.2493,"50.0826,8.2493","50.0826,8.2493","","Clear"
"50.0826,8.2493","04/02/2020 09:00:00",2.8,2.8,2.8,-4.0,61.01,,0.7,,51.0,,0.0,,0.0,12.3,1.1,1015.7,"",50.0826,8.2493,"50.0826,8.2493","50.0826,8.2493","","Clear"
"50.0826,8.2493","04/02/2020 10:00:00",5.5,5.5,5.5,-3.6,51.97,,0.7,,5.0,,0.0,,0.0,14.3,1.1,1015.3,"",50.0826,8.2493,"50.0826,8.2493","50.0826,8.2493","","Clear"
"50.0826,8.2493","04/02/2020 11:00:00",7.5,7.5,7.5,-3.5,45.73,,0.9,,347.0,,0.0,,0.0,14.7,1.1,1015.0,"",50.0826,8.2493,"50.0826,8.2493","50.0826,8.2493","","Clear"
"50.0826,8.2493","04/02/2020 12:00:00",9.0,9.0,9.0,-2.9,43.32,,7.2,,216.0,8.0,0.0,,0.0,12.8,1.1,1014.6,"",50.0826,8.2493,"50.0826,8.2493","50.0826,8.2493","","Clear"
"50.0826,8.2493","04/02/2020 13:00:00",10.1,10.1,10.1,-3.2,39.09,,8.9,,232.0,,0.0,,0.0,15.3,1.1,1014.2,"",50.0826,8.2493,"50.0826,8.2493","50.0826,8.2493","","Clear"
"50.0826,8.2493","04/02/2020 14:00:00",11.1,11.1,11.1,-3.6,35.59,,1.7,,280.0,,0.0,,0.0,15.1,1.1,1013.2,"",50.0826,8.2493,"50.0826,8.2493","50.0826,8.2493","","Clear"
"50.0826,8.2493","04/02/2020 15:00:00",12.0,12.0,12.0,-3.1,34.58,,11.2,,219.0,,0.0,,0.0,14.5,1.1,1012.1,"",50.0826,8.2493,"50.0826,8.2493","50.0826,8.2493","","Clear"
"50.0826,8.2493","04/02/2020 16:00:00",13.0,13.0,13.0,-2.7,33.41,,12.8,,260.0,,0.0,,0.0,15.5,1.1,1011.4,"",50.0826,8.2493,"50.0826,8.2493","50.0826,8.2493","","Clear"
"50.0826,8.2493","04/02/2020 17:00:00",13.1,13.1,13.1,-3.5,31.46,,12.8,,252.0,,0.0,,0.0,14.5,1.1,1010.8,"",50.0826,8.2493,"50.0826,8.2493","50.0826,8.2493","","Clear"
"50.0826,8.2493","04/02/2020 18:00:00",13.1,13.1,13.1,-3.7,30.92,,16.3,,245.0,,0.0,,0.0,14.9,1.1,1010.4,"",50.0826,8.2493,"50.0826,8.2493","50.0826,8.2493","","Clear"
"50.0826,8.2493","04/02/2020 19:00:00",12.4,12.4,12.4,-4.5,30.36,,14.6,,287.0,,0.0,,0.0,14.4,1.2,1010.4,"",50.0826,8.2493,"50.0826,8.2493","50.0826,8.2493","","Clear"
"50.0826,8.2493","04/02/2020 20:00:00",9.7,9.7,9.7,-1.7,44.99,,16.2,,338.0,7.4,0.0,,0.0,13.5,0.0,1010.8,"",50.0826,8.2493,"50.0826,8.2493","50.0826,8.2493","","Clear"
"50.0826,8.2493","04/02/2020 21:00:00",7.9,7.9,7.9,-1.0,53.2,,11.7,,345.0,5.8,0.0,,0.0,12.6,0.0,1011.5,"",50.0826,8.2493,"50.0826,8.2493","50.0826,8.2493","","Clear"
"50.0826,8.2493","04/02/2020 22:00:00",7.1,7.1,7.1,-1.6,54.09,,14.4,,327.0,4.4,0.0,,0.0,12.7,0.0,1012.1,"",50.0826,8.2493,"50.0826,8.2493","50.0826,8.2493","","Clear"
"50.0826,8.2493","04/02/2020 23:00:00",6.2,6.2,6.2,-1.6,57.17,,8.9,,311.0,4.4,0.0,,0.0,12.9,0.0,1012.5,"",50.0826,8.2493,"50.0826,8.2493","50.0826,8.2493","","Clear"
"50.0826,8.2493","04/03/2020 00:00:00",5.7,5.7,5.7,-1.4,59.99,,9.8,,308.0,3.6,0.0,,0.0,12.6,0.0,1013.1,"",50.0826,8.2493,"50.0826,8.2493","50.0826,8.2493","","Clear"
"50.0826,8.2493","04/03/2020 01:00:00",4.9,4.9,4.9,-1.2,64.65,,8.4,,267.0,3.0,0.0,,0.0,12.4,1.1,1013.4,"",50.0826,8.2493,"50.0826,8.2493","50.0826,8.2493","","Clear"
"50.0826,8.2493","04/03/2020 02:00:00",2.9,2.9,2.9,-1.5,72.7,,9.4,,292.0,0.3,0.0,,0.0,12.0,1.1,1013.2,"",50.0826,8.2493,"50.0826,8.2493","50.0826,8.2493","","Clear"
"50.0826,8.2493","04/03/2020 03:00:00",2.1,2.1,2.1,-1.5,77.06,,9.4,,284.0,-0.7,0.0,,0.0,11.8,1.1,1013.4,"",50.0826,8.2493,"50.0826,8.2493","50.0826,8.2493","","Clear"
"50.0826,8.2493","04/03/2020 04:00:00",2.0,2.0,2.0,-1.5,77.48,,9.9,,300.0,-0.8,0.0,,0.0,11.6,0.0,1013.4,"",50.0826,8.2493,"50.0826,8.2493","50.0826,8.2493","","Clear"
"50.0826,8.2493","04/03/2020 05:00:00",2.5,2.5,2.5,-1.3,76.43,,6.5,,283.0,0.6,0.0,,0.0,12.4,0.0,1013.8,"",50.0826,8.2493,"50.0826,8.2493","50.0826,8.2493","","Clear"
"50.0826,8.2493","04/03/2020 06:00:00",3.2,3.2,3.2,-0.4,77.13,,1.6,,239.0,,0.0,,0.0,12.7,0.0,1014.0,"",50.0826,8.2493,"50.0826,8.2493","50.0826,8.2493","","Clear"
"50.0826,8.2493","04/03/2020 07:00:00",3.4,3.4,3.4,-0.3,76.77,,1.9,,244.0,,0.0,,0.0,12.0,0.0,1014.0,"",50.0826,8.2493,"50.0826,8.2493","50.0826,8.2493","","Clear"
"50.0826,8.2493","04/03/2020 08:00:00",3.6,3.6,3.6,-0.1,76.55,,1.8,,244.0,,0.0,,0.0,11.9,0.0,1014.8,"",50.0826,8.2493,"50.0826,8.2493","50.0826,8.2493","","Clear"
"50.0826,8.2493","04/03/2020 09:00:00",4.6,4.6,4.6,0.1,72.61,,2.1,,254.0,,0.0,,0.0,11.6,0.0,1015.5,"",50.0826,8.2493,"50.0826,8.2493","50.0826,8.2493","","Clear"
"50.0826,8.2493","04/03/2020 10:00:00",6.2,6.2,6.2,0.9,68.89,,6.3,,176.0,5.0,0.0,,0.0,11.2,0.0,1016.1,"",50.0826,8.2493,"50.0826,8.2493","50.0826,8.2493","","Clear"
"50.0826,8.2493","04/03/2020 11:00:00",9.1,9.1,9.1,2.3,62.45,,8.4,,191.0,7.9,0.0,,0.0,11.6,0.0,1016.1,"",50.0826,8.2493,"50.0826,8.2493","50.0826,8.2493","","Clear"
"50.0826,8.2493","04/03/2020 12:00:00",10.7,10.7,10.7,2.3,56.13,,8.5,,241.0,,0.0,,0.0,13.8,30.0,1016.4,"",50.0826,8.2493,"50.0826,8.2493","50.0826,8.2493","","Partially cloudy"
"50.0826,8.2493","04/03/2020 13:00:00",10.5,10.5,10.5,-0.4,46.71,,18.8,,273.0,,0.0,,0.0,13.8,0.0,1016.4,"",50.0826,8.2493,"50.0826,8.2493","50.0826,8.2493","","Clear"
"50.0826,8.2493","04/03/2020 14:00:00",11.2,11.2,11.2,-0.8,43.54,,22.6,,279.0,,0.0,,0.0,14.2,0.0,1016.8,"",50.0826,8.2493,"50.0826,8.2493","50.0826,8.2493","","Clear"
"50.0826,8.2493","04/03/2020 15:00:00",10.5,10.5,10.5,0.2,48.93,,18.4,,278.0,,0.0,,0.0,14.2,0.0,1016.9,"",50.0826,8.2493,"50.0826,8.2493","50.0826,8.2493","","Clear"
"50.0826,8.2493","04/03/2020 16:00:00",10.5,10.5,10.5,0.5,49.84,,14.9,,271.0,,0.0,,0.0,14.5,0.0,1017.2,"",50.0826,8.2493,"50.0826,8.2493","50.0826,8.2493","","Clear"
"50.0826,8.2493","04/03/2020 17:00:00",10.2,10.2,10.2,0.5,50.93,,13.2,,270.0,,0.0,,0.0,14.7,0.0,1017.6,"",50.0826,8.2493,"50.0826,8.2493","50.0826,8.2493","","Clear"
"50.0826,8.2493","04/03/2020 18:00:00",10.2,10.2,10.2,0.8,52.23,,13.3,,295.0,,0.0,,0.0,15.2,0.0,1017.6,"",50.0826,8.2493,"50.0826,8.2493","50.0826,8.2493","","Clear"
"50.0826,8.2493","04/03/2020 19:00:00",10.1,10.1,10.1,-0.4,48.2,,15.8,,287.0,,0.0,,0.0,15.3,0.0,1018.2,"",50.0826,8.2493,"50.0826,8.2493","50.0826,8.2493","","Clear"
"50.0826,8.2493","04/03/2020 20:00:00",9.6,9.6,9.6,-0.9,47.85,,13.9,,297.0,7.6,0.0,,0.0,15.3,0.0,1018.5,"",50.0826,8.2493,"50.0826,8.2493","50.0826,8.2493","","Clear"
"50.0826,8.2493","04/03/2020 21:00:00",8.8,8.8,8.8,-1.0,50.22,,11.1,,316.0,7.1,0.0,,0.0,14.8,0.0,1019.5,"",50.0826,8.2493,"50.0826,8.2493","50.0826,8.2493","","Clear"
"50.0826,8.2493","04/03/2020 22:00:00",8.2,8.2,8.2,-0.5,54.33,,12.8,,342.0,6.0,0.0,,0.0,14.7,0.0,1020.2,"",50.0826,8.2493,"50.0826,8.2493","50.0826,8.2493","","Clear"
"50.0826,8.2493","04/03/2020 23:00:00",7.1,7.1,7.1,-0.9,56.97,,5.9,,319.0,6.2,0.0,,0.0,14.4,0.0,1020.8,"",50.0826,8.2493,"50.0826,8.2493","50.0826,8.2493","","Clear"
"50.0826,8.2493","04/04/2020 00:00:00",5.3,5.3,5.3,-1.5,61.52,,5.4,,293.0,4.3,0.0,,0.0,14.5,1.1,1021.2,"",50.0826,8.2493,"50.0826,8.2493","50.0826,8.2493","","Clear"
"50.0826,8.2493","04/04/2020 01:00:00",3.8,3.8,3.8,-1.6,67.54,,1.1,,259.0,,0.0,,0.0,14.7,1.1,1021.6,"",50.0826,8.2493,"50.0826,8.2493","50.0826,8.2493","","Clear"
"50.0826,8.2493","04/04/2020 02:00:00",3.9,3.9,3.9,-2.0,65.71,,1.1,,274.0,,0.0,,0.0,14.8,0.0,1021.9,"",50.0826,8.2493,"50.0826,8.2493","50.0826,8.2493","","Clear"
"50.0826,8.2493","04/04/2020 03:00:00",2.4,2.4,2.4,-2.3,70.9,,1.0,,269.0,,0.0,,0.0,15.3,0.0,1022.0,"",50.0826,8.2493,"50.0826,8.2493","50.0826,8.2493","","Clear"
"50.0826,8.2493","04/04/2020 04:00:00",2.7,2.7,2.7,-2.2,70.2,,5.7,,337.0,1.2,0.0,,0.0,14.3,0.0,1022.3,"",50.0826,8.2493,"50.0826,8.2493","50.0826,8.2493","","Clear"
"50.0826,8.2493","04/04/2020 05:00:00",2.4,2.4,2.4,-2.2,72.08,,7.4,,342.0,0.2,0.0,,0.0,13.2,1.1,1023.0,"",50.0826,8.2493,"50.0826,8.2493","50.0826,8.2493","","Clear"
"50.0826,8.2493","04/04/2020 06:00:00",2.0,2.0,2.0,-2.0,74.98,,7.6,,311.0,-0.3,0.0,,0.0,12.4,1.1,1023.3,"",50.0826,8.2493,"50.0826,8.2493","50.0826,8.2493","","Clear"
"50.0826,8.2493","04/04/2020 07:00:00",0.8,0.8,0.8,-2.4,79.15,,5.3,,329.0,-0.8,0.0,,0.0,12.7,1.1,1023.7,"",50.0826,8.2493,"50.0826,8.2493","50.0826,8.2493","","Clear"
"50.0826,8.2493","04/04/2020 08:00:00",2.3,2.3,2.3,-2.1,72.79,,8.7,,357.0,-0.3,0.0,,0.0,13.8,1.1,1024.4,"",50.0826,8.2493,"50.0826,8.2493","50.0826,8.2493","","Clear"
"50.0826,8.2493","04/04/2020 09:00:00",5.3,5.3,5.3,-1.2,63.14,,7.2,,36.0,3.7,0.0,,0.0,12.8,0.0,1025.0,"",50.0826,8.2493,"50.0826,8.2493","50.0826,8.2493","","Clear"
"50.0826,8.2493","04/04/2020 10:00:00",6.8,6.8,6.8,-0.7,58.63,,1.6,,75.0,,0.0,,0.0,11.3,1.2,1025.3,"",50.0826,8.2493,"50.0826,8.2493","50.0826,8.2493","","Clear"
"50.0826,8.2493","04/04/2020 11:00:00",8.0,8.0,8.0,0.3,58.1,,10.5,,104.0,6.2,0.0,,0.0,11.7,1.1,1025.7,"",50.0826,8.2493,"50.0826,8.2493","50.0826,8.2493","","Clear"
"50.0826,8.2493","04/04/2020 12:00:00",9.7,9.7,9.7,-0.5,49.24,,7.5,,172.0,8.7,0.0,,0.0,12.0,1.2,1025.7,"",50.0826,8.2493,"50.0826,8.2493","50.0826,8.2493","","Clear"
"50.0826,8.2493","04/04/2020 13:00:00",10.5,10.5,10.5,0.0,48.06,,10.3,,106.0,,0.0,,0.0,12.4,2.2,1025.7,"",50.0826,8.2493,"50.0826,8.2493","50.0826,8.2493","","Clear"
"50.0826,8.2493","04/04/2020 14:00:00",11.5,11.5,11.5,-0.5,43.34,,10.4,,146.0,,0.0,,0.0,13.4,1.2,1025.0,"",50.0826,8.2493,"50.0826,8.2493","50.0826,8.2493","","Clear"
"50.0826,8.2493","04/04/2020 15:00:00",12.2,12.2,12.2,-0.6,41.21,,1.9,,75.0,,0.0,,0.0,14.2,1.1,1024.7,"",50.0826,8.2493,"50.0826,8.2493","50.0826,8.2493","","Clear"
"50.0826,8.2493","04/04/2020 16:00:00",13.2,13.2,13.2,-1.1,37.07,,1.4,,59.0,,0.0,,0.0,14.8,1.1,1024.3,"",50.0826,8.2493,"50.0826,8.2493","50.0826,8.2493","","Clear"
"50.0826,8.2493","04/04/2020 17:00:00",13.6,13.6,13.6,-1.3,35.65,,1.3,,29.0,,0.0,,0.0,13.6,1.1,1024.0,"",50.0826,8.2493,"50.0826,8.2493","50.0826,8.2493","","Clear"
"50.0826,8.2493","04/04/2020 18:00:00",13.5,13.5,13.5,-1.7,34.83,,7.9,,52.0,,0.0,,0.0,14.9,1.1,1023.9,"",50.0826,8.2493,"50.0826,8.2493","50.0826,8.2493","","Clear"
"50.0826,8.2493","04/04/2020 19:00:00",13.3,13.3,13.3,-1.3,36.24,,7.9,,56.0,,0.0,,0.0,14.3,1.1,1023.7,"",50.0826,8.2493,"50.0826,8.2493","50.0826,8.2493","","Clear"
"50.0826,8.2493","04/04/2020 20:00:00",11.4,11.4,11.4,-1.1,41.95,,10.1,,53.0,,0.0,,0.0,15.3,1.1,1024.0,"",50.0826,8.2493,"50.0826,8.2493","50.0826,8.2493","","Clear"
"50.0826,8.2493","04/04/2020 21:00:00",9.7,9.7,9.7,-1.4,45.79,,2.6,,59.0,,0.0,,0.0,14.9,1.1,1024.2,"",50.0826,8.2493,"50.0826,8.2493","50.0826,8.2493","","Clear"
"50.0826,8.2493","04/04/2020 22:00:00",8.9,8.9,8.9,-1.1,49.51,,8.6,,89.0,7.7,0.0,,0.0,14.7,1.1,1024.6,"",50.0826,8.2493,"50.0826,8.2493","50.0826,8.2493","","Clear"
"50.0826,8.2493","04/04/2020 23:00:00",8.2,8.2,8.2,-0.6,53.83,,11.6,,98.0,6.2,0.0,,0.0,14.5,0.0,1024.6,"",50.0826,8.2493,"50.0826,8.2493","50.0826,8.2493","","Clear"
"50.0826,8.2493","04/05/2020 00:00:00",8.1,8.1,8.1,-0.5,54.7,,10.2,,87.0,6.3,0.0,,0.0,14.8,0.0,1024.8,"",50.0826,8.2493,"50.0826,8.2493","50.0826,8.2493","","Clear"
"50.0826,8.2493","04/05/2020 01:00:00",8.1,8.1,8.1,-0.5,54.55,,10.6,,86.0,6.3,0.0,,0.0,14.4,0.0,1024.8,"",50.0826,8.2493,"50.0826,8.2493","50.0826,8.2493","","Clear"
"50.0826,8.2493","04/05/2020 02:00:00",8.1,8.1,8.1,-0.6,54.43,,14.9,,86.0,5.6,0.0,,0.0,14.4,0.0,1024.9,"",50.0826,8.2493,"50.0826,8.2493","50.0826,8.2493","","Clear"
"50.0826,8.2493","04/05/2020 03:00:00",7.8,7.8,7.8,-0.5,55.55,,14.1,,85.0,5.4,0.0,,0.0,14.8,0.0,1024.5,"",50.0826,8.2493,"50.0826,8.2493","50.0826,8.2493","","Clear"
"50.0826,8.2493","04/05/2020 04:00:00",7.8,7.8,7.8,-0.4,56.33,,16.8,,86.0,5.0,0.0,,0.0,14.5,0.0,1024.5,"",50.0826,8.2493,"50.0826,8.2493","50.0826,8.2493","","Clear"
"50.0826,8.2493","04/05/2020 05:00:00",7.5,7.5,7.5,-0.7,56.24,,17.4,,95.0,4.5,0.0,,0.0,14.8,0.0,1024.5,"",50.0826,8.2493,"50.0826,8.2493","50.0826,8.2493","","Clear"
"50.0826,8.2493","04/05/2020 06:00:00",6.8,6.8,6.8,-0.6,59.16,,18.5,,86.0,3.6,0.0,,0.0,14.8,1.1,1024.5,"",50.0826,8.2493,"50.0826,8.2493","50.0826,8.2493","","Clear"
"50.0826,8.2493","04/05/2020 07:00:00",6.6,6.6,6.6,-0.6,60.02,,20.6,,90.0,3.1,0.0,,0.0,14.1,1.1,1024.9,"",50.0826,8.2493,"50.0826,8.2493","50.0826,8.2493","","Clear"
"50.0826,8.2493","04/05/2020 08:00:00",7.1,7.1,7.1,-0.3,59.35,,20.7,,91.0,3.7,0.0,,0.0,13.9,0.0,1025.6,"",50.0826,8.2493,"50.0826,8.2493","50.0826,8.2493","","Clear"
"50.0826,8.2493","04/05/2020 09:00:00",8.8,8.8,8.8,-0.4,52.73,,28.8,,99.0,5.1,0.0,,0.0,14.4,0.0,1025.6,"",50.0826,8.2493,"50.0826,8.2493","50.0826,8.2493","","Clear"
"50.0826,8.2493","04/05/2020 10:00:00",10.2,10.2,10.2,0.1,49.33,,24.4,,102.0,,0.0,,0.0,14.0,0.0,1025.9,"",50.0826,8.2493,"50.0826,8.2493","50.0826,8.2493","","Clear"
"50.0826,8.2493","04/05/2020 11:00:00",12.3,12.3,12.3,0.5,44.35,,23.0,,110.0,,0.0,,0.0,13.4,0.0,1025.5,"",50.0826,8.2493,"50.0826,8.2493","50.0826,8.2493","","Clear"
"50.0826,8.2493","04/05/2020 12:00:00",13.8,13.8,13.8,0.2,39.47,,23.2,,110.0,,0.0,,0.0,13.8,0.0,1024.8,"",50.0826,8.2493,"50.0826,8.2493","50.0826,8.2493","","Clear"
"50.0826,8.2493","04/05/2020 13:00:00",15.1,15.1,15.1,-0.6,34.28,,21.6,,120.0,,0.0,,0.0,14.4,0.0,1024.0,"",50.0826,8.2493,"50.0826,8.2493","50.0826,8.2493","","Clear"
"50.0826,8.2493","04/05/2020 14:00:00",16.2,16.2,16.2,0.2,33.71,,17.7,,126.0,,0.0,,0.0,15.7,0.0,1023.3,"",50.0826,8.2493,"50.0826,8.2493","50.0826,8.2493","","Clear"
"50.0826,8.2493","04/05/2020 15:00:00",17.1,17.1,17.1,0.0,31.44,,15.7,,117.0,,0.0,,0.0,15.1,0.0,1022.6,"",50.0826,8.2493,"50.0826,8.2493","50.0826,8.2493","","Clear"
"50.0826,8.2493","04/05/2020 16:00:00",17.6,17.6,17.6,0.2,30.9,,18.7,,106.0,,0.0,,0.0,14.9,0.0,1021.9,"",50.0826,8.2493,"50.0826,8.2493","50.0826,8.2493","","Clear"
"50.0826,8.2493","04/05/2020 17:00:00",17.9,17.9,17.9,-0.5,28.91,,17.3,,111.0,,0.0,,0.0,14.9,0.0,1021.2,"",50.0826,8.2493,"50.0826,8.2493","50.0826,8.2493","","Clear"
"50.0826,8.2493","04/05/2020 18:00:00",17.8,17.8,17.8,-0.8,28.27,,18.7,,129.0,,0.0,,0.0,15.8,0.0,1020.6,"",50.0826,8.2493,"50.0826,8.2493","50.0826,8.2493","","Clear"
"50.0826,8.2493","04/05/2020 19:00:00",17.1,17.1,17.1,-1.2,28.84,,20.8,,111.0,,0.0,,0.0,15.8,0.0,1020.2,"",50.0826,8.2493,"50.0826,8.2493","50.0826,8.2493","","Clear"
"50.0826,8.2493","04/05/2020 20:00:00",15.0,15.0,15.0,-1.1,33.13,,15.8,,102.0,,0.0,,0.0,15.4,0.0,1020.4,"",50.0826,8.2493,"50.0826,8.2493","50.0826,8.2493","","Clear"
"50.0826,8.2493","04/05/2020 21:00:00",13.1,13.1,13.1,-0.9,38.03,,14.0,,101.0,,0.0,,0.0,15.4,0.0,1020.7,"",50.0826,8.2493,"50.0826,8.2493","50.0826,8.2493","","Clear"
"50.0826,8.2493","04/05/2020 22:00:00",12.4,12.4,12.4,-1.0,39.44,,11.0,,92.0,,0.0,,0.0,15.8,0.0,1020.7,"",50.0826,8.2493,"50.0826,8.2493","50.0826,8.2493","","Clear"
"50.0826,8.2493","04/05/2020 23:00:00",11.9,11.9,11.9,-1.0,40.65,,10.9,,98.0,,0.0,,0.0,15.8,0.0,1020.3,"",50.0826,8.2493,"50.0826,8.2493","50.0826,8.2493","","Clear"
"50.0826,8.2493","04/06/2020 00:00:00",10.9,10.9,10.9,-1.1,43.43,,11.0,,101.0,,0.0,,0.0,15.7,0.0,1020.2,"",50.0826,8.2493,"50.0826,8.2493","50.0826,8.2493","","Clear"
"50.0826,8.2493","04/06/2020 01:00:00",10.5,10.5,10.5,-1.2,44.4,,13.7,,94.0,,0.0,,0.0,15.9,0.0,1020.2,"",50.0826,8.2493,"50.0826,8.2493","50.0826,8.2493","","Clear"
"50.0826,8.2493","04/06/2020 02:00:00",10.1,10.1,10.1,-1.1,45.7,,10.5,,77.0,,0.0,,0.0,16.3,0.0,1020.2,"",50.0826,8.2493,"50.0826,8.2493","50.0826,8.2493","","Clear"
"50.0826,8.2493","04/06/2020 03:00:00",9.8,9.8,9.8,-1.2,46.23,,12.2,,79.0,8.1,0.0,,0.0,14.2,0.0,1019.9,"",50.0826,8.2493,"50.0826,8.2493","50.0826,8.2493","","Clear"
"50.0826,8.2493","04/06/2020 04:00:00",8.8,8.8,8.8,-1.2,49.72,,11.5,,92.0,6.9,0.0,,0.0,14.8,0.0,1019.9,"",50.0826,8.2493,"50.0826,8.2493","50.0826,8.2493","","Clear"
"50.0826,8.2493","04/06/2020 05:00:00",8.4,8.4,8.4,-1.2,50.7,,1.8,,104.0,,0.0,,0.0,15.3,0.0,1020.3,"",50.0826,8.2493,"50.0826,8.2493","50.0826,8.2493","","Clear"
"50.0826,8.2493","04/06/2020 06:00:00",7.4,7.4,7.4,-1.2,54.58,,1.8,,83.0,,0.0,,0.0,15.4,0.0,1020.6,"",50.0826,8.2493,"50.0826,8.2493","50.0826,8.2493","","Clear"
"50.0826,8.2493","04/06/2020 07:00:00",7.0,7.0,7.0,-1.1,56.33,,1.6,,83.0,,0.0,,0.0,15.5,0.0,1021.0,"",50.0826,8.2493,"50.0826,8.2493","50.0826,8.2493","","Clear"
"50.0826,8.2493","04/06/2020 08:00:00",7.0,7.0,7.0,-0.1,60.65,,1.7,,134.0,,0.0,,0.0,15.2,0.0,1021.8,"",50.0826,8.2493,"50.0826,8.2493","50.0826,8.2493","","Clear"
"50.0826,8.2493","04/06/2020 09:00:00",10.2,10.2,10.2,1.4,54.48,,1.5,,174.0,,0.0,,0.0,14.9,0.0,1022.4,"",50.0826,8.2493,"50.0826,8.2493","50.0826,8.2493","","Clear"
"50.0826,8.2493","04/06/2020 10:00:00",12.2,12.2,12.2,0.9,46.14,,1.6,,210.0,,0.0,,0.0,15.0,0.0,1023.1,"",50.0826,8.2493,"50.0826,8.2493","50.0826,8.2493","","Clear"
"50.0826,8.2493","04/06/2020 11:00:00",13.6,13.6,13.6,1.2,42.65,,7.7,,196.0,,0.0,,0.0,14.3,0.0,1023.3,"",50.0826,8.2493,"50.0826,8.2493","50.0826,8.2493","","Clear"
"50.0826,8.2493","04/06/2020 12:00:00",15.6,15.6,15.6,2.2,40.44,,6.1,,220.0,,0.0,,0.0,14.2,0.0,1023.0,"",50.0826,8.2493,"50.0826,8.2493","50.0826,8.2493","","Clear"
"50.0826,8.2493","04/06/2020 13:00:00",17.6,17.6,17.6,2.5,36.41,,13.4,,237.0,,0.0,,0.0,14.8,0.0,1022.8,"",50.0826,8.2493,"50.0826,8.2493","50.0826,8.2493","","Clear"
"50.0826,8.2493","04/06/2020 14:00:00",19.5,19.5,19.5,3.9,35.68,,16.3,,194.0,,0.0,,0.0,12.8,0.0,1022.8,"",50.0826,8.2493,"50.0826,8.2493","50.0826,8.2493","","Clear"
"50.0826,8.2493","04/06/2020 15:00:00",20.7,20.7,20.7,3.2,31.54,,19.4,,235.0,,0.0,,0.0,14.5,0.0,1022.4,"",50.0826,8.2493,"50.0826,8.2493","50.0826,8.2493","","Clear"
"50.0826,8.2493","04/06/2020 16:00:00",21.6,21.6,21.6,2.3,28.04,,24.1,,235.0,,0.0,,0.0,15.3,0.0,1022.1,"",50.0826,8.2493,"50.0826,8.2493","50.0826,8.2493","","Clear"
"50.0826,8.2493","04/06/2020 17:00:00",21.5,21.5,21.5,0.3,24.3,,19.8,,242.0,,0.0,,0.0,15.2,0.0,1022.5,"",50.0826,8.2493,"50.0826,8.2493","50.0826,8.2493","","Clear"
"50.0826,8.2493","04/06/2020 18:00:00",21.4,21.4,21.4,-1.7,21.24,,19.9,,234.0,,0.0,,0.0,15.6,0.0,1022.2,"",50.0826,8.2493,"50.0826,8.2493","50.0826,8.2493","","Clear"
"50.0826,8.2493","04/06/2020 19:00:00",20.3,20.3,20.3,-1.0,23.77,,14.5,,242.0,,0.0,,0.0,16.5,0.0,1022.6,"",50.0826,8.2493,"50.0826,8.2493","50.0826,8.2493","","Clear"
"50.0826,8.2493","04/06/2020 20:00:00",17.5,17.5,17.5,-0.6,29.27,,12.4,,252.0,,0.0,,0.0,13.4,0.0,1023.1,"",50.0826,8.2493,"50.0826,8.2493","50.0826,8.2493","","Clear"
"50.0826,8.2493","04/06/2020 21:00:00",15.8,15.8,15.8,-0.9,31.87,,13.7,,295.0,,0.0,,0.0,10.0,0.0,1024.0,"",50.0826,8.2493,"50.0826,8.2493","50.0826,8.2493","","Clear"
"50.0826,8.2493","04/06/2020 22:00:00",15.0,15.0,15.0,-0.8,33.94,,8.8,,314.0,,0.0,,0.0,13.4,0.0,1024.6,"",50.0826,8.2493,"50.0826,8.2493","50.0826,8.2493","","Clear"
"50.0826,8.2493","04/06/2020 23:00:00",12.4,12.4,12.4,0.2,42.99,,9.1,,320.0,,0.0,,0.0,16.1,0.0,1025.0,"",50.0826,8.2493,"50.0826,8.2493","50.0826,8.2493","","Clear"
"50.0826,8.2493","04/07/2020 00:00:00",11.2,11.2,11.2,0.6,48.19,,0.9,,239.0,,0.0,,0.0,16.1,1.1,1025.7,"",50.0826,8.2493,"50.0826,8.2493","50.0826,8.2493","","Clear"
"50.0826,8.2493","04/07/2020 01:00:00",11.6,11.6,11.6,0.6,46.51,,1.0,,254.0,,0.0,,0.0,16.1,1.1,1025.9,"",50.0826,8.2493,"50.0826,8.2493","50.0826,8.2493","","Clear"
"50.0826,8.2493","04/07/2020 02:00:00",11.3,11.3,11.3,1.6,51.43,,8.8,,339.0,,0.0,,0.0,16.0,1.1,1027.0,"",50.0826,8.2493,"50.0826,8.2493","50.0826,8.2493","","Clear"
"50.0826,8.2493","04/07/2020 03:00:00",12.4,12.4,12.4,3.1,53.1,,11.8,,21.0,,0.0,,0.0,42.2,6.7,1027.6,"",50.0826,8.2493,"50.0826,8.2493","50.0826,8.2493","","Clear"
"50.0826,8.2493","04/07/2020 04:00:00",11.9,11.9,11.9,4.0,58.11,,10.7,,340.0,,0.0,,0.0,15.3,1.1,1027.2,"",50.0826,8.2493,"50.0826,8.2493","50.0826,8.2493","","Clear"
"50.0826,8.2493","04/07/2020 05:00:00",10.5,10.5,10.5,4.3,65.07,,6.2,,94.0,,0.0,,0.0,16.1,1.2,1028.2,"",50.0826,8.2493,"50.0826,8.2493","50.0826,8.2493","","Clear"
"50.0826,8.2493","04/07/2020 06:00:00",10.5,10.5,10.5,4.2,64.83,,7.5,,53.0,,0.0,,0.0,12.8,0.0,1028.6,"",50.0826,8.2493,"50.0826,8.2493","50.0826,8.2493","","Clear"
"50.0826,8.2493","04/07/2020 07:00:00",10.3,10.3,10.3,4.4,66.78,,7.7,,349.0,,0.0,,0.0,12.8,1.1,1029.3,"",50.0826,8.2493,"50.0826,8.2493","50.0826,8.2493","","Clear"
"50.0826,8.2493","04/07/2020 08:00:00",9.9,9.9,9.9,4.7,70.11,,1.1,,86.0,,0.0,,0.0,15.5,1.1,1029.8,"",50.0826,8.2493,"50.0826,8.2493","50.0826,8.2493","","Clear"
"50.0826,8.2493","04/07/2020 09:00:00",12.7,12.7,12.7,5.8,62.88,,1.2,,85.0,,0.0,,0.0,14.3,1.1,1030.4,"",50.0826,8.2493,"50.0826,8.2493","50.0826,8.2493","","Clear"
"50.0826,8.2493","04/07/2020 10:00:00",14.9,14.9,14.9,6.3,56.65,,1.7,,50.0,,0.0,,0.0,15.2,1.1,1030.3,"",50.0826,8.2493,"50.0826,8.2493","50.0826,8.2493","","Clear"
"50.0826,8.2493","04/07/2020 11:00:00",16.6,16.6,16.6,6.9,52.73,,1.8,,70.0,,0.0,,0.0,12.8,0.0,1030.7,"",50.0826,8.2493,"50.0826,8.2493","50.0826,8.2493","","Clear"
"50.0826,8.2493","04/07/2020 12:00:00",18.9,18.9,18.9,7.5,47.55,,12.8,,54.0,,0.0,,0.0,14.8,1.2,1030.3,"",50.0826,8.2493,"50.0826,8.2493","50.0826,8.2493","","Clear"
"50.0826,8.2493","04/07/2020 13:00:00",20.1,20.1,20.1,6.8,41.94,,14.3,,72.0,,0.0,,0.0,15.4,1.2,1029.9,"",50.0826,8.2493,"50.0826,8.2493","50.0826,8.2493","","Clear"
"50.0826,8.2493","04/07/2020 14:00:00",20.5,20.5,20.5,5.4,37.32,,10.9,,73.0,,0.0,,0.0,13.9,0.0,1029.6,"",50.0826,8.2493,"50.0826,8.2493","50.0826,8.2493","","Clear"
"50.0826,8.2493","04/07/2020 15:00:00",21.3,21.3,21.3,5.5,35.84,,12.4,,68.0,,0.0,,0.0,14.4,0.0,1028.9,"",50.0826,8.2493,"50.0826,8.2493","50.0826,8.2493","","Clear"
"50.0826,8.2493","04/07/2020 16:00:00",21.5,21.5,21.5,5.0,34.11,,12.8,,91.0,,0.0,,0.0,15.6,0.0,1028.5,"",50.0826,8.2493,"50.0826,8.2493","50.0826,8.2493","","Clear"
"50.0826,8.2493","04/07/2020 17:00:00",21.5,21.5,21.5,4.5,32.72,,7.7,,75.0,,0.0,,0.0,15.8,1.2,1028.2,"",50.0826,8.2493,"50.0826,8.2493","50.0826,8.2493","","Clear"
"50.0826,8.2493","04/07/2020 18:00:00",21.6,21.6,21.6,4.3,32.11,,10.3,,42.0,,0.0,,0.0,16.4,1.2,1027.5,"",50.0826,8.2493,"50.0826,8.2493","50.0826,8.2493","","Clear"
"50.0826,8.2493","04/07/2020 19:00:00",20.4,20.4,20.4,5.6,37.83,,16.4,,47.0,,0.0,,0.0,16.6,0.0,1027.2,"",50.0826,8.2493,"50.0826,8.2493","50.0826,8.2493","","Clear"
"50.0826,8.2493","04/07/2020 20:00:00",19.0,19.0,19.0,6.2,43.22,,12.2,,30.0,,0.0,,0.0,13.7,1.1,1027.6,"",50.0826,8.2493,"50.0826,8.2493","50.0826,8.2493","","Clear"
"50.0826,8.2493","04/07/2020 21:00:00",17.0,17.0,17.0,6.4,49.49,,11.0,,22.0,,0.0,,0.0,16.1,1.1,1027.6,"",50.0826,8.2493,"50.0826,8.2493","50.0826,8.2493","","Clear"
"50.0826,8.2493","04/07/2020 22:00:00",16.5,16.5,16.5,7.4,54.92,,3.3,,35.0,,0.0,,0.0,15.8,1.1,1027.9,"",50.0826,8.2493,"50.0826,8.2493","50.0826,8.2493","","Clear"
"50.0826,8.2493","04/07/2020 23:00:00",16.0,16.0,16.0,6.9,54.8,,10.7,,33.0,,0.0,,0.0,15.5,0.0,1027.8,"",50.0826,8.2493,"50.0826,8.2493","50.0826,8.2493","","Clear"
"50.0826,8.2493","04/08/2020 00:00:00",15.9,15.9,15.9,7.0,55.3,,21.6,,53.0,,0.0,,0.0,15.1,0.0,1027.5,"",50.0826,8.2493,"50.0826,8.2493","50.0826,8.2493","","Clear"
"50.0826,8.2493","04/08/2020 01:00:00",15.2,15.2,15.2,6.8,57.48,,15.1,,42.0,,0.0,,0.0,14.7,0.0,1027.7,"",50.0826,8.2493,"50.0826,8.2493","50.0826,8.2493","","Clear"
"50.0826,8.2493","04/08/2020 02:00:00",14.8,14.8,14.8,6.6,58.0,,7.5,,352.0,,0.0,,0.0,14.5,0.0,1027.7,"",50.0826,8.2493,"50.0826,8.2493","50.0826,8.2493","","Clear"
"50.0826,8.2493","04/08/2020 03:00:00",13.8,13.8,13.8,6.5,61.29,,9.3,,43.0,,0.0,,0.0,13.9,0.0,1027.1,"",50.0826,8.2493,"50.0826,8.2493","50.0826,8.2493","","Clear"
"50.0826,8.2493","04/08/2020 04:00:00",13.2,13.2,13.2,6.2,62.49,,9.2,,44.0,,0.0,,0.0,13.8,0.0,1027.1,"",50.0826,8.2493,"50.0826,8.2493","50.0826,8.2493","","Clear"
"50.0826,8.2493","04/08/2020 05:00:00",11.6,11.6,11.6,5.5,66.0,,2.7,,64.0,,0.0,,0.0,14.1,0.0,1026.8,"",50.0826,8.2493,"50.0826,8.2493","50.0826,8.2493","","Clear"
"50.0826,8.2493","04/08/2020 06:00:00",11.6,11.6,11.6,5.3,65.43,,6.9,,4.0,,0.0,,0.0,14.4,0.0,1026.5,"",50.0826,8.2493,"50.0826,8.2493","50.0826,8.2493","","Clear"
"50.0826,8.2493","04/08/2020 07:00:00",10.7,10.7,10.7,5.0,68.12,,6.4,,41.0,,0.0,,0.0,13.4,0.0,1026.4,"",50.0826,8.2493,"50.0826,8.2493","50.0826,8.2493","","Clear"
"50.0826,8.2493","04/08/2020 08:00:00",9.8,9.8,9.8,5.0,71.92,,2.0,,99.0,,0.0,,0.0,13.6,0.0,1026.9,"",50.0826,8.2493,"50.0826,8.2493","50.0826,8.2493","","Clear"
"50.0826,8.2493","04/08/2020 09:00:00",13.9,13.9,13.9,5.9,58.82,,1.8,,69.0,,0.0,,0.0,13.6,0.0,1026.9,"",50.0826,8.2493,"50.0826,8.2493","50.0826,8.2493","","Clear"
"50.0826,8.2493","04/08/2020 10:00:00",16.4,16.4,16.4,5.0,46.84,,1.8,,84.0,,0.0,,0.0,13.4,0.0,1026.4,"",50.0826,8.2493,"50.0826,8.2493","50.0826,8.2493","","Clear"
"50.0826,8.2493","04/08/2020 11:00:00",17.9,17.9,17.9,4.0,39.7,,1.6,,100.0,,0.0,,0.0,14.0,0.0,1026.0,"",50.0826,8.2493,"50.0826,8.2493","50.0826,8.2493","","Clear"
"50.0826,8.2493","04/08/2020 12:00:00",19.4,19.4,19.4,3.1,34.04,,1.1,,99.0,,0.0,,0.0,13.8,1.1,1025.7,"",50.0826,8.2493,"50.0826,8.2493","50.0826,8.2493","","Clear"
"50.0826,8.2493","04/08/2020 13:00:00",20.3,20.3,20.3,3.3,32.65,,1.1,,129.0,,0.0,,0.0,14.1,1.1,1025.0,"",50.0826,8.2493,"50.0826,8.2493","50.0826,8.2493","","Clear"
"50.0826,8.2493","04/08/2020 14:00:00",21.2,21.2,21.2,2.6,29.26,,1.0,,83.0,,0.0,,0.0,14.9,2.2,1024.6,"",50.0826,8.2493,"50.0826,8.2493","50.0826,8.2493","","Clear"
"50.0826,8.2493","04/08/2020 15:00:00",22.0,22.0,22.0,1.6,26.04,,1.6,,130.0,,0.0,,0.0,14.4,2.2,1024.0,"",50.0826,8.2493,"50.0826,8.2493","50.0826,8.2493","","Clear"
"50.0826,8.2493","04/08/2020 16:00:00",22.2,22.2,22.2,1.4,25.17,,1.0,,90.0,,0.0,,0.0,14.0,1.1,1023.3,"",50.0826,8.2493,"50.0826,8.2493","50.0826,8.2493","","Clear"
"50.0826,8.2493","04/08/2020 17:00:00",22.1,22.1,22.1,1.1,24.99,,5.4,,212.0,,0.0,,0.0,14.7,2.2,1022.7,"",50.0826,8.2493,"50.0826,8.2493","50.0826,8.2493","","Clear"
"50.0826,8.2493","04/08/2020 18:00:00",21.7,21.7,21.7,1.2,25.68,,5.9,,140.0,,0.0,,0.0,12.7,2.2,1022.3,"",50.0826,8.2493,"50.0826,8.2493","50.0826,8.2493","","Clear"
"50.0826,8.2493","04/08/2020 19:00:00",20.5,20.5,20.5,1.2,27.63,,8.9,,177.0,,0.0,,0.0,25.4,13.0,1022.1,"",50.0826,8.2493,"50.0826,8.2493","50.0826,8.2493","","Clear"
"50.0826,8.2493","04/08/2020 20:00:00",18.5,18.5,18.5,2.8,35.0,,5.9,,230.0,,0.0,,0.0,15.4,1.1,1022.6,"",50.0826,8.2493,"50.0826,8.2493","50.0826,8.2493","","Clear"
"50.0826,8.2493","04/08/2020 21:00:00",16.4,16.4,16.4,2.3,38.61,,5.3,,86.0,,0.0,,0.0,15.0,1.1,1022.8,"",50.0826,8.2493,"50.0826,8.2493","50.0826,8.2493","","Clear"
"50.0826,8.2493","04/08/2020 22:00:00",14.4,14.4,14.4,2.6,44.91,,1.0,,216.0,,0.0,,0.0,15.4,0.0,1022.8,"",50.0826,8.2493,"50.0826,8.2493","50.0826,8.2493","","Clear"
"50.0826,8.2493","04/08/2020 23:00:00",12.7,12.7,12.7,2.5,49.87,,0.9,,256.0,,0.0,,0.0,15.2,0.0,1022.8,"",50.0826,8.2493,"50.0826,8.2493","50.0826,8.2493","","Clear"
"50.0826,8.2493","04/09/2020 00:00:00",11.3,11.3,11.3,2.5,54.7,,5.4,,261.0,,0.0,,0.0,15.2,1.1,1022.8,"",50.0826,8.2493,"50.0826,8.2493","50.0826,8.2493","","Clear"
"50.0826,8.2493","04/09/2020 01:00:00",11.1,11.1,11.1,2.7,56.07,,0.8,,230.0,,0.0,,0.0,14.8,1.1,1022.8,"",50.0826,8.2493,"50.0826,8.2493","50.0826,8.2493","","Clear"
"50.0826,8.2493","04/09/2020 02:00:00",10.1,10.1,10.1,2.5,59.11,,5.4,,294.0,,0.0,,0.0,14.9,1.2,1022.8,"",50.0826,8.2493,"50.0826,8.2493","50.0826,8.2493","","Clear"
"50.0826,8.2493","04/09/2020 03:00:00",10.2,10.2,10.2,2.4,58.2,,5.4,,157.0,,0.0,,0.0,14.7,50.0,1022.4,"",50.0826,8.2493,"50.0826,8.2493","50.0826,8.2493","","Partially cloudy"
"50.0826,8.2493","04/09/2020 04:00:00",10.0,10.0,10.0,2.2,58.59,,7.2,,76.0,9.2,0.0,,0.0,14.8,30.0,1022.5,"",50.0826,8.2493,"50.0826,8.2493","50.0826,8.2493","","Partially cloudy"
"50.0826,8.2493","04/09/2020 05:00:00",9.3,9.3,9.3,2.8,64.19,,5.3,,347.0,8.8,0.0,,0.0,14.6,0.0,1022.5,"",50.0826,8.2493,"50.0826,8.2493","50.0826,8.2493","","Clear"
"50.0826,8.2493","04/09/2020 06:00:00",10.3,10.3,10.3,2.9,59.94,,0.7,,243.0,,0.0,,0.0,14.0,0.0,1022.5,"",50.0826,8.2493,"50.0826,8.2493","50.0826,8.2493","","Clear"
"50.0826,8.2493","04/09/2020 07:00:00",9.1,9.1,9.1,2.8,65.02,,0.7,,259.0,,0.0,,0.0,13.4,50.0,1022.8,"",50.0826,8.2493,"50.0826,8.2493","50.0826,8.2493","","Partially cloudy"
"50.0826,8.2493","04/09/2020 08:00:00",10.0,10.0,10.0,4.3,67.69,,0.8,,77.0,,0.0,,0.0,13.2,0.0,1023.2,"",50.0826,8.2493,"50.0826,8.2493","50.0826,8.2493","","Clear"
"50.0826,8.2493","04/09/2020 09:00:00",13.0,13.0,13.0,4.2,55.1,,0.7,,283.0,,0.0,,0.0,13.6,26.1,1023.6,"",50.0826,8.2493,"50.0826,8.2493","50.0826,8.2493","","Partially cloudy"
"50.0826,8.2493","04/09/2020 10:00:00",15.2,15.2,15.2,4.6,49.28,,0.7,,46.0,,0.0,,0.0,13.8,1.1,1024.3,"",50.0826,8.2493,"50.0826,8.2493","50.0826,8.2493","","Clear"
"50.0826,8.2493","04/09/2020 11:00:00",17.5,17.5,17.5,5.7,46.11,,0.8,,26.0,,0.0,,0.0,13.6,1.2,1024.3,"",50.0826,8.2493,"50.0826,8.2493","50.0826,8.2493","","Clear"
"50.0826,8.2493","04/09/2020 12:00:00",19.2,19.2,19.2,5.9,41.74,,0.9,,36.0,,0.0,,0.0,13.2,1.2,1024.2,"",50.0826,8.2493,"50.0826,8.2493","50.0826,8.2493","","Clear"
"50.0826,8.2493","04/09/2020 13:00:00",20.5,20.5,20.5,6.1,39.03,,5.4,,131.0,,0.0,,0.0,12.7,1.2,1023.9,"",50.0826,8.2493,"50.0826,8.2493","50.0826,8.2493","","Clear"
"50.0826,8.2493","04/09/2020 14:00:00",21.5,21.5,21.5,5.4,35.04,,6.9,,202.0,,0.0,,0.0,13.6,30.0,1023.5,"",50.0826,8.2493,"50.0826,8.2493","50.0826,8.2493","","Partially cloudy"
"50.0826,8.2493","04/09/2020 15:00:00",22.3,22.3,22.3,5.2,32.94,,7.0,,110.0,,0.0,,0.0,13.6,1.2,1022.8,"",50.0826,8.2493,"50.0826,8.2493","50.0826,8.2493","","Clear"
"50.0826,8.2493","04/09/2020 16:00:00",22.4,22.4,22.4,4.0,29.98,,1.5,,26.0,,0.0,,0.0,13.8,0.0,1022.4,"",50.0826,8.2493,"50.0826,8.2493","50.0826,8.2493","","Clear"
"50.0826,8.2493","04/09/2020 17:00:00",22.4,22.4,22.4,4.9,31.88,,1.1,,360.0,,0.0,,0.0,13.3,0.0,1022.1,"",50.0826,8.2493,"50.0826,8.2493","50.0826,8.2493","","Clear"
"50.0826,8.2493","04/09/2020 18:00:00",21.7,21.7,21.7,4.5,32.42,,7.8,,44.0,,0.0,,0.0,13.7,0.0,1022.1,"",50.0826,8.2493,"50.0826,8.2493","50.0826,8.2493","","Clear"
"50.0826,8.2493","04/09/2020 19:00:00",21.0,21.0,21.0,5.3,35.89,,8.7,,54.0,,0.0,,0.0,13.4,30.0,1022.2,"",50.0826,8.2493,"50.0826,8.2493","50.0826,8.2493","","Partially cloudy"
"50.0826,8.2493","04/09/2020 20:00:00",19.7,19.7,19.7,6.1,41.15,,9.5,,12.0,,0.0,,0.0,13.3,30.0,1022.7,"",50.0826,8.2493,"50.0826,8.2493","50.0826,8.2493","","Partially cloudy"
"50.0826,8.2493","04/09/2020 21:00:00",18.6,18.6,18.6,6.9,46.44,,11.5,,30.0,,0.0,,0.0,12.9,28.5,1023.5,"",50.0826,8.2493,"50.0826,8.2493","50.0826,8.2493","","Partially cloudy"
"50.0826,8.2493","04/09/2020 22:00:00",17.1,17.1,17.1,7.1,51.88,,13.0,,22.0,,0.0,,0.0,13.9,0.0,1023.7,"",50.0826,8.2493,"50.0826,8.2493","50.0826,8.2493","","Clear"
"50.0826,8.2493","04/09/2020 23:00:00",15.9,15.9,15.9,6.2,52.24,,11.1,,31.0,,0.0,,0.0,14.1,0.0,1024.1,"",50.0826,8.2493,"50.0826,8.2493","50.0826,8.2493","","Clear"
"50.0826,8.2493","04/10/2020 00:00:00",15.2,15.2,15.2,5.6,52.76,,8.2,,348.0,,0.0,,0.0,14.2,1.1,1024.4,"",50.0826,8.2493,"50.0826,8.2493","50.0826,8.2493","","Clear"
"50.0826,8.2493","04/10/2020 01:00:00",14.4,14.4,14.4,4.5,51.45,,7.6,,326.0,,0.0,,0.0,13.9,1.1,1024.7,"Smoke Or Haze",50.0826,8.2493,"50.0826,8.2493","50.0826,8.2493","","Clear"
"50.0826,8.2493","04/10/2020 02:00:00",13.7,13.7,13.7,4.3,52.99,,10.9,,351.0,,0.0,,0.0,15.7,1.1,1024.3,"",50.0826,8.2493,"50.0826,8.2493","50.0826,8.2493","","Clear"
"50.0826,8.2493","04/10/2020 03:00:00",13.0,13.0,13.0,4.1,55.02,,2.9,,44.0,,0.0,,0.0,12.8,1.1,1024.3,"",50.0826,8.2493,"50.0826,8.2493","50.0826,8.2493","","Clear"
"50.0826,8.2493","04/10/2020 04:00:00",12.5,12.5,12.5,3.9,56.04,,9.2,,25.0,,0.0,,0.0,15.7,1.1,1024.3,"",50.0826,8.2493,"50.0826,8.2493","50.0826,8.2493","","Clear"
"50.0826,8.2493","04/10/2020 05:00:00",12.1,12.1,12.1,4.1,57.84,,10.9,,7.0,,0.0,,0.0,15.6,0.0,1024.4,"",50.0826,8.2493,"50.0826,8.2493","50.0826,8.2493","","Clear"
"50.0826,8.2493","04/10/2020 06:00:00",11.5,11.5,11.5,4.0,60.26,,2.4,,50.0,,0.0,,0.0,15.2,1.1,1024.7,"",50.0826,8.2493,"50.0826,8.2493","50.0826,8.2493","","Clear"
"50.0826,8.2493","04/10/2020 07:00:00",10.6,10.6,10.6,4.2,64.36,,7.2,,360.0,,0.0,,0.0,14.4,1.1,1025.1,"",50.0826,8.2493,"50.0826,8.2493","50.0826,8.2493","","Clear"
"50.0826,8.2493","04/10/2020 08:00:00",10.5,10.5,10.5,5.3,70.01,,6.8,,2.0,,0.0,,0.0,15.3,0.0,1025.2,"",50.0826,8.2493,"50.0826,8.2493","50.0826,8.2493","","Clear"
"50.0826,8.2493","04/10/2020 09:00:00",13.7,13.7,13.7,5.8,58.88,,2.8,,60.0,,0.0,,0.0,15.8,0.0,1025.4,"",50.0826,8.2493,"50.0826,8.2493","50.0826,8.2493","","Clear"
"50.0826,8.2493","04/10/2020 10:00:00",16.1,16.1,16.1,5.5,49.62,,13.0,,84.0,,0.0,,0.0,10.9,0.0,1025.7,"Smoke Or Haze",50.0826,8.2493,"50.0826,8.2493","50.0826,8.2493","","Clear"
"50.0826,8.2493","04/10/2020 11:00:00",17.4,17.4,17.4,5.6,45.78,,9.7,,69.0,,0.0,,0.0,15.6,0.0,1025.7,"",50.0826,8.2493,"50.0826,8.2493","50.0826,8.2493","","Clear"
"50.0826,8.2493","04/10/2020 12:00:00",18.6,18.6,18.6,4.7,39.82,,14.4,,72.0,,0.0,,0.0,13.7,0.0,1025.4,"",50.0826,8.2493,"50.0826,8.2493","50.0826,8.2493","","Clear"
"50.0826,8.2493","04/10/2020 13:00:00",19.7,19.7,19.7,3.7,34.58,,17.3,,83.0,,0.0,,0.0,10.0,0.0,1025.0,"",50.0826,8.2493,"50.0826,8.2493","50.0826,8.2493","","Clear"
"50.0826,8.2493","04/10/2020 14:00:00",20.3,20.3,20.3,4.0,34.06,,12.9,,86.0,,0.0,,0.0,10.0,0.0,1024.3,"",50.0826,8.2493,"50.0826,8.2493","50.0826,8.2493","","Clear"
"50.0826,8.2493","04/10/2020 15:00:00",20.6,20.6,20.6,4.2,34.11,,7.6,,78.0,,0.0,,0.0,10.0,0.0,1023.3,"",50.0826,8.2493,"50.0826,8.2493","50.0826,8.2493","","Clear"
"50.0826,8.2493","04/10/2020 16:00:00",21.3,21.3,21.3,4.0,32.2,,7.8,,95.0,,0.0,,0.0,10.0,0.0,1023.0,"",50.0826,8.2493,"50.0826,8.2493","50.0826,8.2493","","Clear"
"50.0826,8.2493","04/10/2020 17:00:00",21.2,21.2,21.2,4.2,32.77,,12.8,,59.0,,0.0,,0.0,10.0,0.0,1022.3,"",50.0826,8.2493,"50.0826,8.2493","50.0826,8.2493","","Clear"
"50.0826,8.2493","04/10/2020 18:00:00",21.3,21.3,21.3,3.7,31.59,,12.3,,359.0,,0.0,,0.0,10.0,0.0,1022.0,"",50.0826,8.2493,"50.0826,8.2493","50.0826,8.2493","","Clear"
"50.0826,8.2493","04/10/2020 19:00:00",20.9,20.9,20.9,3.4,31.59,,9.3,,355.0,,0.0,,0.0,10.0,0.0,1022.0,"",50.0826,8.2493,"50.0826,8.2493","50.0826,8.2493","","Clear"
"50.0826,8.2493","04/10/2020 20:00:00",18.5,18.5,18.5,4.3,39.12,,10.5,,50.0,,0.0,,0.0,10.0,0.0,1022.1,"",50.0826,8.2493,"50.0826,8.2493","50.0826,8.2493","","Clear"
"50.0826,8.2493","04/10/2020 21:00:00",16.9,16.9,16.9,3.7,41.35,,17.8,,31.0,,0.0,,0.0,10.0,0.0,1023.1,"",50.0826,8.2493,"50.0826,8.2493","50.0826,8.2493","","Clear"
"50.0826,8.2493","04/10/2020 22:00:00",15.1,15.1,15.1,2.8,43.54,,12.8,,31.0,,0.0,,0.0,10.0,0.0,1023.4,"",50.0826,8.2493,"50.0826,8.2493","50.0826,8.2493","","Clear"
"50.0826,8.2493","04/10/2020 23:00:00",13.8,13.8,13.8,2.0,44.95,,15.7,,48.0,,0.0,,0.0,10.0,1.2,1023.7,"",50.0826,8.2493,"50.0826,8.2493","50.0826,8.2493","","Clear"
"50.0826,8.2493","04/11/2020 00:00:00",13.1,13.1,13.1,1.3,44.66,,10.6,,24.0,,0.0,,0.0,10.0,1.2,1024.1,"",50.0826,8.2493,"50.0826,8.2493","50.0826,8.2493","","Clear"
"50.0826,8.2493","04/11/2020 01:00:00",12.5,12.5,12.5,0.0,42.31,,8.8,,352.0,,0.0,,0.0,10.0,0.0,1024.2,"",50.0826,8.2493,"50.0826,8.2493","50.0826,8.2493","","Clear"
"50.0826,8.2493","04/11/2020 02:00:00",11.9,11.9,11.9,-1.9,38.46,,10.9,,16.0,,0.0,,0.0,10.0,30.0,1024.4,"",50.0826,8.2493,"50.0826,8.2493","50.0826,8.2493","","Partially cloudy"
"50.0826,8.2493","04/11/2020 03:00:00",10.5,10.5,10.5,-2.1,41.49,,9.0,,9.0,,0.0,,0.0,10.0,1.1,1024.4,"",50.0826,8.2493,"50.0826,8.2493","50.0826,8.2493","","Clear"
"50.0826,8.2493","04/11/2020 04:00:00",9.8,9.8,9.8,-2.3,42.52,,7.1,,360.0,9.0,0.0,,0.0,10.0,1.2,1024.4,"",50.0826,8.2493,"50.0826,8.2493","50.0826,8.2493","","Clear"
"50.0826,8.2493","04/11/2020 05:00:00",8.3,8.3,8.3,-1.5,49.98,,7.1,,1.0,7.2,0.0,,0.0,10.0,0.0,1024.6,"",50.0826,8.2493,"50.0826,8.2493","50.0826,8.2493","","Clear"
"50.0826,8.2493","04/11/2020 06:00:00",7.5,7.5,7.5,-1.8,51.79,,2.3,,65.0,,0.0,,0.0,10.0,0.0,1024.6,"",50.0826,8.2493,"50.0826,8.2493","50.0826,8.2493","","Clear"
"50.0826,8.2493","04/11/2020 07:00:00",6.7,6.7,6.7,-1.7,54.86,,2.3,,60.0,,0.0,,0.0,10.0,0.0,1024.9,"",50.0826,8.2493,"50.0826,8.2493","50.0826,8.2493","","Clear"
"50.0826,8.2493","04/11/2020 08:00:00",8.7,8.7,8.7,-1.3,49.42,,1.9,,64.0,,0.0,,0.0,10.0,0.0,1025.2,"",50.0826,8.2493,"50.0826,8.2493","50.0826,8.2493","","Clear"
"50.0826,8.2493","04/11/2020 09:00:00",11.4,11.4,11.4,-1.1,41.92,,13.1,,62.0,,0.0,,0.0,13.1,0.0,1025.3,"",50.0826,8.2493,"50.0826,8.2493","50.0826,8.2493","","Clear"
"50.0826,8.2493","04/11/2020 10:00:00",13.2,13.2,13.2,0.6,42.14,,11.0,,72.0,,0.0,,0.0,13.4,1.2,1025.3,"",50.0826,8.2493,"50.0826,8.2493","50.0826,8.2493","","Clear"
"50.0826,8.2493","04/11/2020 11:00:00",14.8,14.8,14.8,1.5,40.48,,12.3,,81.0,,0.0,,0.0,10.0,0.0,1025.6,"",50.0826,8.2493,"50.0826,8.2493","50.0826,8.2493","","Clear"
"50.0826,8.2493","04/11/2020 12:00:00",16.4,16.4,16.4,1.9,37.47,,10.3,,77.0,,0.0,,0.0,10.0,0.0,1025.2,"",50.0826,8.2493,"50.0826,8.2493","50.0826,8.2493","","Clear"
"50.0826,8.2493","04/11/2020 13:00:00",18.0,18.0,18.0,2.3,34.91,,10.7,,106.0,,0.0,,0.0,10.0,0.0,1024.5,"",50.0826,8.2493,"50.0826,8.2493","50.0826,8.2493","","Clear"
"50.0826,8.2493","04/11/2020 14:00:00",19.1,19.1,19.1,1.6,31.22,,5.6,,106.0,,0.0,,0.0,12.3,0.0,1023.8,"",50.0826,8.2493,"50.0826,8.2493","50.0826,8.2493","","Clear"
"50.0826,8.2493","04/11/2020 15:00:00",19.9,19.9,19.9,1.3,28.91,,1.3,,64.0,,0.0,,0.0,10.0,1.1,1023.1,"",50.0826,8.2493,"50.0826,8.2493","50.0826,8.2493","","Clear"
"50.0826,8.2493","04/11/2020 16:00:00",20.8,20.8,20.8,2.5,29.83,,12.4,,91.0,,0.0,,0.0,13.0,1.1,1022.4,"",50.0826,8.2493,"50.0826,8.2493","50.0826,8.2493","","Clear"
"50.0826,8.2493","04/11/2020 17:00:00",20.6,20.6,20.6,0.5,26.09,,9.3,,84.0,,0.0,,0.0,13.5,1.2,1022.2,"",50.0826,8.2493,"50.0826,8.2493","50.0826,8.2493","","Clear"
"50.0826,8.2493","04/11/2020 18:00:00",20.8,20.8,20.8,1.7,28.14,,1.2,,141.0,,0.0,,0.0,10.0,1.1,1021.5,"",50.0826,8.2493,"50.0826,8.2493","50.0826,8.2493","","Clear"
"50.0826,8.2493","04/11/2020 19:00:00",20.0,20.0,20.0,1.4,28.87,,5.5,,70.0,,0.0,,0.0,10.0,2.2,1021.5,"",50.0826,8.2493,"50.0826,8.2493","50.0826,8.2493","","Clear"
"50.0826,8.2493","04/11/2020 20:00:00",18.4,18.4,18.4,0.4,29.86,,9.8,,55.0,,0.0,,0.0,10.0,1.1,1021.1,"",50.0826,8.2493,"50.0826,8.2493","50.0826,8.2493","","Clear"
"50.0826,8.2493","04/11/2020 21:00:00",15.8,15.8,15.8,1.1,36.82,,6.1,,22.0,,0.0,,0.0,10.0,1.1,1021.5,"",50.0826,8.2493,"50.0826,8.2493","50.0826,8.2493","","Clear"
"50.0826,8.2493","04/11/2020 22:00:00",13.6,13.6,13.6,1.4,43.55,,5.7,,5.0,,0.0,,0.0,10.0,0.0,1021.2,"",50.0826,8.2493,"50.0826,8.2493","50.0826,8.2493","","Clear"
"50.0826,8.2493","04/11/2020 23:00:00",11.7,11.7,11.7,1.6,49.93,,1.4,,74.0,,0.0,,0.0,10.0,1.1,1021.2,"",50.0826,8.2493,"50.0826,8.2493","50.0826,8.2493","","Clear"
"50.0826,8.2493","04/12/2020 00:00:00",11.3,11.3,11.3,1.6,51.02,,1.1,,110.0,,0.0,,0.0,10.0,26.1,1021.2,"",50.0826,8.2493,"50.0826,8.2493","50.0826,8.2493","","Partially cloudy"
"50.0826,8.2493","04/12/2020 01:00:00",10.1,10.1,10.1,1.4,54.69,,6.0,,325.0,,0.0,,0.0,10.0,26.1,1021.2,"",50.0826,8.2493,"50.0826,8.2493","50.0826,8.2493","","Partially cloudy"
"50.0826,8.2493","04/12/2020 02:00:00",10.6,10.6,10.6,0.9,51.18,,1.5,,114.0,,0.0,,0.0,10.0,1.1,1020.8,"",50.0826,8.2493,"50.0826,8.2493","50.0826,8.2493","","Clear"
"50.0826,8.2493","04/12/2020 03:00:00",10.1,10.1,10.1,0.9,52.64,,1.3,,123.0,,0.0,,0.0,10.0,1.1,1020.1,"",50.0826,8.2493,"50.0826,8.2493","50.0826,8.2493","","Clear"
"50.0826,8.2493","04/12/2020 04:00:00",9.6,9.6,9.6,1.4,56.36,,1.5,,113.0,,0.0,,0.0,10.0,0.0,1019.8,"",50.0826,8.2493,"50.0826,8.2493","50.0826,8.2493","","Clear"
"50.0826,8.2493","04/12/2020 05:00:00",10.0,10.0,10.0,1.3,54.65,,1.4,,108.0,,0.0,,0.0,10.0,0.0,1019.2,"",50.0826,8.2493,"50.0826,8.2493","50.0826,8.2493","","Clear"
"50.0826,8.2493","04/12/2020 06:00:00",9.6,9.6,9.6,1.9,58.53,,1.5,,292.0,,0.0,,0.0,10.0,0.0,1019.1,"",50.0826,8.2493,"50.0826,8.2493","50.0826,8.2493","","Clear"
"50.0826,8.2493","04/12/2020 07:00:00",9.0,9.0,9.0,2.1,62.09,,1.4,,148.0,,0.0,,0.0,10.0,0.0,1018.8,"",50.0826,8.2493,"50.0826,8.2493","50.0826,8.2493","","Clear"
"50.0826,8.2493","04/12/2020 08:00:00",9.8,9.8,9.8,3.1,62.81,,1.4,,148.0,,0.0,,0.0,10.0,0.0,1018.8,"",50.0826,8.2493,"50.0826,8.2493","50.0826,8.2493","","Clear"
"50.0826,8.2493","04/12/2020 09:00:00",11.4,11.4,11.4,4.3,61.69,,0.7,,204.0,,0.0,,0.0,10.0,0.0,1018.8,"",50.0826,8.2493,"50.0826,8.2493","50.0826,8.2493","","Clear"
"50.0826,8.2493","04/12/2020 10:00:00",14.3,14.3,14.3,3.4,47.9,,5.1,,126.0,,0.0,,0.0,12.6,1.2,1018.1,"",50.0826,8.2493,"50.0826,8.2493","50.0826,8.2493","","Clear"
"50.0826,8.2493","04/12/2020 11:00:00",16.3,16.3,16.3,3.9,43.44,,1.1,,220.0,,0.0,,0.0,12.9,0.0,1017.8,"",50.0826,8.2493,"50.0826,8.2493","50.0826,8.2493","","Clear"
"50.0826,8.2493","04/12/2020 12:00:00",18.2,18.2,18.2,5.8,44.18,,1.3,,210.0,,0.0,,0.0,13.7,0.0,1017.1,"",50.0826,8.2493,"50.0826,8.2493","50.0826,8.2493","","Clear"
"50.0826,8.2493","04/12/2020 13:00:00",19.7,19.7,19.7,6.5,42.08,,1.3,,260.0,,0.0,,0.0,16.2,0.0,1016.4,"",50.0826,8.2493,"50.0826,8.2493","50.0826,8.2493","","Clear"
"50.0826,8.2493","04/12/2020 14:00:00",21.1,21.1,21.1,6.5,38.69,,1.8,,215.0,,0.0,,0.0,15.5,0.0,1015.6,"",50.0826,8.2493,"50.0826,8.2493","50.0826,8.2493","","Clear"
"50.0826,8.2493","04/12/2020 15:00:00",20.6,20.6,20.6,5.8,38.05,,11.5,,240.0,,0.0,,0.0,14.9,0.0,1014.9,"",50.0826,8.2493,"50.0826,8.2493","50.0826,8.2493","","Clear"
"50.0826,8.2493","04/12/2020 16:00:00",22.0,22.0,22.0,4.6,32.22,,10.5,,245.0,,0.0,,0.0,13.3,0.0,1014.0,"",50.0826,8.2493,"50.0826,8.2493","50.0826,8.2493","","Clear"
"50.0826,8.2493","04/12/2020 17:00:00",22.0,22.0,22.0,2.5,27.68,,13.3,,240.0,,0.0,,0.0,13.3,0.0,1013.3,"",50.0826,8.2493,"50.0826,8.2493","50.0826,8.2493","","Clear"
"50.0826,8.2493","04/12/2020 18:00:00",21.7,21.7,21.7,1.1,25.6,,14.4,,248.0,,0.0,,0.0,13.3,0.0,1012.9,"",50.0826,8.2493,"50.0826,8.2493","50.0826,8.2493","","Clear"
"50.0826,8.2493","04/12/2020 19:00:00",19.3,19.3,19.3,6.3,42.48,,12.4,,166.0,,0.0,,0.0,13.7,0.0,1012.7,"",50.0826,8.2493,"50.0826,8.2493","50.0826,8.2493","","Clear"
"50.0826,8.2493","04/12/2020 20:00:00",18.2,18.2,18.2,5.9,44.55,,1.1,,229.0,,0.0,,0.0,13.7,0.0,1012.7,"",50.0826,8.2493,"50.0826,8.2493","50.0826,8.2493","","Clear"
"50.0826,8.2493","04/12/2020 21:00:00",16.2,16.2,16.2,5.6,49.34,,1.1,,230.0,,0.0,,0.0,13.7,1.2,1013.1,"",50.0826,8.2493,"50.0826,8.2493","50.0826,8.2493","","Clear"
"50.0826,8.2493","04/12/2020 22:00:00",13.5,13.5,13.5,5.6,58.93,,0.7,,296.0,,0.0,,0.0,13.7,1.1,1013.1,"",50.0826,8.2493,"50.0826,8.2493","50.0826,8.2493","","Clear"
"50.0826,8.2493","04/12/2020 23:00:00",12.6,12.6,12.6,5.3,61.36,,0.5,,254.0,,0.0,,0.0,13.7,1.1,1013.1,"",50.0826,8.2493,"50.0826,8.2493","50.0826,8.2493","","Clear"
"50.0826,8.2493","04/13/2020 00:00:00",11.5,11.5,11.5,5.1,64.68,,0.6,,239.0,,0.0,,0.0,13.7,1.1,1013.1,"",50.0826,8.2493,"50.0826,8.2493","50.0826,8.2493","","Clear"
"50.0826,8.2493","04/13/2020 01:00:00",11.3,11.3,11.3,4.4,62.66,,0.7,,274.0,,0.0,,0.0,13.7,0.0,1013.3,"",50.0826,8.2493,"50.0826,8.2493","50.0826,8.2493","","Clear"
"50.0826,8.2493","04/13/2020 02:00:00",10.7,10.7,10.7,3.8,62.54,,1.3,,238.0,,0.0,,0.0,13.7,0.0,1012.9,"",50.0826,8.2493,"50.0826,8.2493","50.0826,8.2493","","Clear"
"50.0826,8.2493","04/13/2020 03:00:00",10.2,10.2,10.2,3.4,62.34,,1.2,,249.0,,0.0,,0.0,13.7,0.0,1012.6,"",50.0826,8.2493,"50.0826,8.2493","50.0826,8.2493","","Clear"
"50.0826,8.2493","04/13/2020 04:00:00",9.9,9.9,9.9,3.0,62.46,,1.3,,254.0,,0.0,,0.0,13.7,0.0,1012.6,"",50.0826,8.2493,"50.0826,8.2493","50.0826,8.2493","","Clear"
"50.0826,8.2493","04/13/2020 05:00:00",10.4,10.4,10.4,3.1,60.44,,1.5,,254.0,,0.0,,0.0,15.9,0.0,1012.6,"",50.0826,8.2493,"50.0826,8.2493","50.0826,8.2493","","Clear"
"50.0826,8.2493","04/13/2020 06:00:00",9.6,9.6,9.6,2.9,62.98,,1.3,,268.0,,0.0,,0.0,15.4,0.0,1012.7,"",50.0826,8.2493,"50.0826,8.2493","50.0826,8.2493","","Clear"
"50.0826,8.2493","04/13/2020 07:00:00",9.6,9.6,9.6,3.3,64.57,,1.2,,57.0,,0.0,,0.0,14.1,0.0,1013.1,"",50.0826,8.2493,"50.0826,8.2493","50.0826,8.2493","","Clear"
"50.0826,8.2493","04/13/2020 08:00:00",10.4,10.4,10.4,4.7,67.37,,5.7,,282.0,,0.0,,0.0,14.6,0.0,1014.1,"",50.0826,8.2493,"50.0826,8.2493","50.0826,8.2493","","Clear"
"50.0826,8.2493","04/13/2020 09:00:00",12.1,12.1,12.1,5.3,63.05,,1.5,,294.0,,0.0,,0.0,14.3,0.0,1014.7,"",50.0826,8.2493,"50.0826,8.2493","50.0826,8.2493","","Clear"
"50.0826,8.2493","04/13/2020 10:00:00",12.6,12.6,12.6,5.4,61.81,,14.6,,337.0,,0.0,,0.0,13.0,0.0,1015.4,"Light Rain",50.0826,8.2493,"50.0826,8.2493","50.0826,8.2493","","Clear"
"50.0826,8.2493","04/13/2020 11:00:00",10.7,10.7,10.7,6.9,77.39,,14.3,,21.0,,0.06,,0.0,11.7,0.0,1016.2,"Light Rain",50.0826,8.2493,"50.0826,8.2493","50.0826,8.2493","","Rain"
"50.0826,8.2493","04/13/2020 12:00:00",10.2,10.2,10.2,7.4,82.44,,15.6,,22.0,,0.69,,0.0,10.2,0.0,1016.7,"Light Rain",50.0826,8.2493,"50.0826,8.2493","50.0826,8.2493","","Rain"
"50.0826,8.2493","04/13/2020 13:00:00",10.3,10.3,10.3,5.3,71.26,,21.6,,10.0,,0.07,,0.0,12.8,0.0,1017.6,"Light Rain",50.0826,8.2493,"50.0826,8.2493","50.0826,8.2493","","Rain"
"50.0826,8.2493","04/13/2020 14:00:00",9.2,9.2,9.2,5.3,76.75,,20.9,,10.0,6.3,0.03,,0.0,9.1,0.0,1018.7,"",50.0826,8.2493,"50.0826,8.2493","50.0826,8.2493","","Rain"
"50.0826,8.2493","04/13/2020 15:00:00",8.3,8.3,8.3,4.5,76.77,,21.3,,3.0,5.1,0.07,,0.0,10.0,0.0,1019.4,"Light Rain",50.0826,8.2493,"50.0826,8.2493","50.0826,8.2493","","Rain"
"50.0826,8.2493","04/13/2020 16:00:00",9.0,9.0,9.0,2.7,64.8,,21.3,,9.0,6.0,0.06,,0.0,13.9,0.0,1019.4,"",50.0826,8.2493,"50.0826,8.2493","50.0826,8.2493","","Rain"
"50.0826,8.2493","04/13/2020 17:00:00",10.6,10.6,10.6,0.5,49.52,,18.4,,350.0,,0.0,,0.0,14.6,0.0,1019.1,"",50.0826,8.2493,"50.0826,8.2493","50.0826,8.2493","","Clear"
"50.0826,8.2493","04/13/2020 18:00:00",10.6,10.6,10.6,-2.2,40.95,,15.1,,350.0,,0.0,,0.0,14.8,0.0,1019.1,"",50.0826,8.2493,"50.0826,8.2493","50.0826,8.2493","","Clear"
"50.0826,8.2493","04/13/2020 19:00:00",10.3,10.3,10.3,-3.8,36.89,,16.9,,1.0,,0.0,,0.0,15.6,0.0,1019.4,"",50.0826,8.2493,"50.0826,8.2493","50.0826,8.2493","","Clear"
"50.0826,8.2493","04/13/2020 20:00:00",8.8,8.8,8.8,-4.9,37.68,,15.9,,352.0,6.3,0.0,,0.0,12.9,0.0,1019.7,"",50.0826,8.2493,"50.0826,8.2493","50.0826,8.2493","","Clear"
"50.0826,8.2493","04/13/2020 21:00:00",7.0,7.0,7.0,-4.5,43.99,,10.5,,1.0,4.9,0.0,,0.0,13.5,1.1,1020.8,"",50.0826,8.2493,"50.0826,8.2493","50.0826,8.2493","","Clear"
"50.0826,8.2493","04/13/2020 22:00:00",5.4,5.4,5.4,-4.3,49.7,,10.6,,353.0,3.0,0.0,,0.0,13.0,1.1,1021.8,"",50.0826,8.2493,"50.0826,8.2493","50.0826,8.2493","","Clear"
"50.0826,8.2493","04/13/2020 23:00:00",4.7,4.7,4.7,-5.2,48.55,,9.9,,360.0,2.4,0.0,,0.0,12.8,0.0,1022.5,"",50.0826,8.2493,"50.0826,8.2493","50.0826,8.2493","","Clear"
"50.0826,8.2493","04/14/2020 00:00:00",3.2,3.2,3.2,-5.0,54.69,,8.5,,358.0,0.9,0.0,,0.0,12.9,0.0,1023.0,"",50.0826,8.2493,"50.0826,8.2493","50.0826,8.2493","","Clear"
"50.0826,8.2493","04/14/2020 01:00:00",2.7,2.7,2.7,-5.1,56.54,,11.7,,22.0,-0.4,0.0,,0.0,15.9,0.0,1023.6,"",50.0826,8.2493,"50.0826,8.2493","50.0826,8.2493","","Clear"
"50.0826,8.2493","04/14/2020 02:00:00",2.2,2.2,2.2,-4.8,59.65,,9.9,,32.0,-0.7,0.0,,0.0,16.0,0.0,1024.1,"",50.0826,8.2493,"50.0826,8.2493","50.0826,8.2493","","Clear"
"50.0826,8.2493","04/14/2020 03:00:00",1.7,1.7,1.7,-5.1,61.01,,3.5,,360.0,,0.0,,0.0,15.9,0.0,1024.4,"",50.0826,8.2493,"50.0826,8.2493","50.0826,8.2493","","Clear"
"50.0826,8.2493","04/14/2020 04:00:00",0.2,0.2,0.2,-4.7,69.39,,2.3,,350.0,,0.0,,0.0,15.8,0.0,1024.8,"",50.0826,8.2493,"50.0826,8.2493","50.0826,8.2493","","Clear"
"50.0826,8.2493","04/14/2020 05:00:00",-0.8,-0.8,-0.8,-4.8,74.38,,7.9,,330.0,-3.6,0.0,,0.0,15.6,0.0,1025.1,"",50.0826,8.2493,"50.0826,8.2493","50.0826,8.2493","","Clear"
"50.0826,8.2493","04/14/2020 06:00:00",-0.7,-0.7,-0.7,-4.7,74.28,,9.1,,330.0,-3.9,0.0,,0.0,15.1,0.0,1025.1,"",50.0826,8.2493,"50.0826,8.2493","50.0826,8.2493","","Clear"
"50.0826,8.2493","04/14/2020 07:00:00",-0.6,-0.6,-0.6,-4.6,73.95,,12.8,,354.0,-4.7,0.0,,0.0,15.5,1.1,1025.4,"",50.0826,8.2493,"50.0826,8.2493","50.0826,8.2493","","Clear"
"50.0826,8.2493","04/14/2020 08:00:00",1.4,1.4,1.4,-4.0,67.54,,11.1,,337.0,-1.9,0.0,,0.0,15.3,1.1,1025.8,"",50.0826,8.2493,"50.0826,8.2493","50.0826,8.2493","","Clear"
"50.0826,8.2493","04/14/2020 09:00:00",4.0,4.0,4.0,-3.2,59.58,,16.1,,338.0,0.3,0.0,,0.0,16.4,2.2,1025.8,"",50.0826,8.2493,"50.0826,8.2493","50.0826,8.2493","","Clear"
"50.0826,8.2493","04/14/2020 10:00:00",5.5,5.5,5.5,-2.7,55.44,,19.1,,11.0,1.8,0.0,,0.0,16.2,1.2,1025.7,"",50.0826,8.2493,"50.0826,8.2493","50.0826,8.2493","","Clear"
"50.0826,8.2493","04/14/2020 11:00:00",6.6,6.6,6.6,-3.4,48.98,,18.2,,352.0,3.3,0.0,,0.0,15.7,0.0,1026.1,"",50.0826,8.2493,"50.0826,8.2493","50.0826,8.2493","","Clear"
"50.0826,8.2493","04/14/2020 12:00:00",7.0,7.0,7.0,-3.5,47.42,,13.4,,346.0,4.4,0.0,,0.0,12.6,0.0,1026.5,"",50.0826,8.2493,"50.0826,8.2493","50.0826,8.2493","","Clear"
"50.0826,8.2493","04/14/2020 13:00:00",8.0,8.0,8.0,-4.1,42.06,,11.8,,352.0,5.9,0.0,,0.0,12.3,0.0,1026.1,"",50.0826,8.2493,"50.0826,8.2493","50.0826,8.2493","","Clear"
"50.0826,8.2493","04/14/2020 14:00:00",8.4,8.4,8.4,-4.1,40.79,,6.9,,112.0,7.5,0.0,,0.0,12.6,0.0,1026.1,"",50.0826,8.2493,"50.0826,8.2493","50.0826,8.2493","","Clear"
"50.0826,8.2493","04/14/2020 15:00:00",9.0,9.0,9.0,-3.6,40.99,,2.2,,20.0,,0.0,,0.0,13.4,0.0,1025.8,"",50.0826,8.2493,"50.0826,8.2493","50.0826,8.2493","","Clear"
"50.0826,8.2493","04/14/2020 16:00:00",9.6,9.6,9.6,-4.0,37.98,,6.0,,113.0,9.0,0.0,,0.0,10.0,0.0,1025.9,"",50.0826,8.2493,"50.0826,8.2493","50.0826,8.2493","","Clear"
"50.0826,8.2493","04/14/2020 17:00:00",10.0,10.0,10.0,-3.5,38.64,,1.3,,31.0,,0.0,,0.0,10.0,0.0,1025.2,"",50.0826,8.2493,"50.0826,8.2493","50.0826,8.2493","","Clear"
"50.0826,8.2493","04/14/2020 18:00:00",10.3,10.3,10.3,-4.3,35.79,,7.2,,108.0,,0.0,,0.0,13.1,1.1,1025.1,"",50.0826,8.2493,"50.0826,8.2493","50.0826,8.2493","","Clear"
"50.0826,8.2493","04/14/2020 19:00:00",9.8,9.8,9.8,-3.8,38.18,,5.7,,73.0,9.4,0.0,,0.0,12.5,1.2,1025.2,"",50.0826,8.2493,"50.0826,8.2493","50.0826,8.2493","","Clear"
"50.0826,8.2493","04/14/2020 20:00:00",8.6,8.6,8.6,-3.3,43.05,,5.5,,75.0,8.0,0.0,,0.0,10.0,1.1,1025.4,"",50.0826,8.2493,"50.0826,8.2493","50.0826,8.2493","","Clear"
"50.0826,8.2493","04/14/2020 21:00:00",6.3,6.3,6.3,-3.1,50.81,,5.7,,77.0,5.4,0.0,,0.0,16.2,1.1,1025.7,"",50.0826,8.2493,"50.0826,8.2493","50.0826,8.2493","","Clear"
"50.0826,8.2493","04/14/2020 22:00:00",4.5,4.5,4.5,-2.7,59.89,,0.4,,181.0,,0.0,,0.0,15.9,1.1,1026.5,"",50.0826,8.2493,"50.0826,8.2493","50.0826,8.2493","","Clear"
"50.0826,8.2493","04/14/2020 23:00:00",3.6,3.6,3.6,-2.8,62.89,,1.1,,8.0,,0.0,,0.0,15.9,1.1,1026.5,"",50.0826,8.2493,"50.0826,8.2493","50.0826,8.2493","","Clear"
"50.0826,8.2493","04/15/2020 00:00:00",3.2,3.2,3.2,-3.1,63.25,,5.9,,15.0,1.7,0.0,,0.0,15.3,1.1,1026.1,"",50.0826,8.2493,"50.0826,8.2493","50.0826,8.2493","","Clear"
"50.0826,8.2493","04/15/2020 01:00:00",3.0,3.0,3.0,-3.1,64.52,,1.8,,34.0,,0.0,,0.0,14.9,1.1,1026.4,"",50.0826,8.2493,"50.0826,8.2493","50.0826,8.2493","","Clear"
"50.0826,8.2493","04/15/2020 02:00:00",2.9,2.9,2.9,-3.3,63.89,,6.0,,13.0,1.3,0.0,,0.0,14.7,1.1,1026.1,"",50.0826,8.2493,"50.0826,8.2493","50.0826,8.2493","","Clear"
"50.0826,8.2493","04/15/2020 03:00:00",1.0,1.0,1.0,-3.3,72.77,,1.8,,70.0,,0.0,,0.0,14.8,0.0,1026.2,"",50.0826,8.2493,"50.0826,8.2493","50.0826,8.2493","","Clear"
"50.0826,8.2493","04/15/2020 04:00:00",1.5,1.5,1.5,-3.0,72.29,,1.9,,80.0,,0.0,,0.0,14.6,0.0,1025.9,"",50.0826,8.2493,"50.0826,8.2493","50.0826,8.2493","","Clear"
"50.0826,8.2493","04/15/2020 05:00:00",0.7,0.7,0.7,-2.9,76.74,,1.7,,59.0,,0.0,,0.0,14.4,0.0,1025.8,"",50.0826,8.2493,"50.0826,8.2493","50.0826,8.2493","","Clear"
"50.0826,8.2493","04/15/2020 06:00:00",0.8,0.8,0.8,-2.9,76.18,,1.7,,80.0,,0.0,,0.0,14.3,0.0,1025.8,"",50.0826,8.2493,"50.0826,8.2493","50.0826,8.2493","","Clear"
"50.0826,8.2493","04/15/2020 07:00:00",0.8,0.8,0.8,-2.8,76.76,,1.8,,85.0,,0.0,,0.0,14.2,0.0,1026.1,"",50.0826,8.2493,"50.0826,8.2493","50.0826,8.2493","","Clear"
"50.0826,8.2493","04/15/2020 08:00:00",1.6,1.6,1.6,-2.1,76.52,,1.4,,90.0,,0.0,,0.0,14.8,0.0,1026.9,"",50.0826,8.2493,"50.0826,8.2493","50.0826,8.2493","","Clear"
"50.0826,8.2493","04/15/2020 09:00:00",4.5,4.5,4.5,-1.2,66.41,,1.6,,99.0,,0.0,,0.0,15.1,0.0,1027.1,"",50.0826,8.2493,"50.0826,8.2493","50.0826,8.2493","","Clear"
"50.0826,8.2493","04/15/2020 10:00:00",7.1,7.1,7.1,-1.8,53.2,,1.5,,104.0,,0.0,,0.0,14.9,0.0,1027.1,"Smoke Or Haze",50.0826,8.2493,"50.0826,8.2493","50.0826,8.2493","","Clear"
"50.0826,8.2493","04/15/2020 11:00:00",9.5,9.5,9.5,-1.0,47.84,,7.5,,114.0,8.5,0.0,,0.0,15.5,1.2,1026.7,"",50.0826,8.2493,"50.0826,8.2493","50.0826,8.2493","","Clear"
"50.0826,8.2493","04/15/2020 12:00:00",10.5,10.5,10.5,-2.6,39.86,,5.5,,189.0,,0.0,,0.0,14.8,1.2,1026.3,"",50.0826,8.2493,"50.0826,8.2493","50.0826,8.2493","","Clear"
"50.0826,8.2493","04/15/2020 13:00:00",11.9,11.9,11.9,-1.4,39.61,,5.9,,246.0,,0.0,,0.0,15.4,1.2,1025.7,"",50.0826,8.2493,"50.0826,8.2493","50.0826,8.2493","","Clear"
"50.0826,8.2493","04/15/2020 14:00:00",13.3,13.3,13.3,-1.8,35.28,,1.4,,89.0,,0.0,,0.0,15.9,0.0,1024.9,"",50.0826,8.2493,"50.0826,8.2493","50.0826,8.2493","","Clear"
"50.0826,8.2493","04/15/2020 15:00:00",14.5,14.5,14.5,-0.1,36.97,,9.7,,169.0,,0.0,,0.0,15.9,0.0,1024.3,"",50.0826,8.2493,"50.0826,8.2493","50.0826,8.2493","","Clear"
"50.0826,8.2493","04/15/2020 16:00:00",15.2,15.2,15.2,-0.9,33.26,,6.0,,359.0,,0.0,,0.0,13.7,1.2,1023.5,"",50.0826,8.2493,"50.0826,8.2493","50.0826,8.2493","","Clear"
"50.0826,8.2493","04/15/2020 17:00:00",15.8,15.8,15.8,-1.1,31.44,,5.8,,305.0,,0.0,,0.0,16.0,1.2,1022.9,"",50.0826,8.2493,"50.0826,8.2493","50.0826,8.2493","","Clear"
"50.0826,8.2493","04/15/2020 18:00:00",16.0,16.0,16.0,-0.8,31.68,,1.3,,105.0,,0.0,,0.0,13.7,1.2,1022.4,"",50.0826,8.2493,"50.0826,8.2493","50.0826,8.2493","","Clear"
"50.0826,8.2493","04/15/2020 19:00:00",15.8,15.8,15.8,0.0,34.1,,6.0,,241.0,,0.0,,0.0,12.4,0.0,1022.1,"",50.0826,8.2493,"50.0826,8.2493","50.0826,8.2493","","Clear"
"50.0826,8.2493","04/15/2020 20:00:00",14.7,14.7,14.7,0.7,38.42,,1.4,,192.0,,0.0,,0.0,16.4,0.0,1021.5,"",50.0826,8.2493,"50.0826,8.2493","50.0826,8.2493","","Clear"
"50.0826,8.2493","04/15/2020 21:00:00",12.1,12.1,12.1,-0.2,42.88,,1.8,,59.0,,0.0,,0.0,15.9,0.0,1021.2,"",50.0826,8.2493,"50.0826,8.2493","50.0826,8.2493","","Clear"
"50.0826,8.2493","04/15/2020 22:00:00",10.0,10.0,10.0,0.4,51.23,,2.2,,104.0,,0.0,,0.0,12.8,1.2,1021.5,"",50.0826,8.2493,"50.0826,8.2493","50.0826,8.2493","","Clear"
"50.0826,8.2493","04/15/2020 23:00:00",9.4,9.4,9.4,-0.1,51.22,,2.2,,79.0,,0.0,,0.0,15.7,1.1,1021.4,"",50.0826,8.2493,"50.0826,8.2493","50.0826,8.2493","","Clear"
"50.0826,8.2493","04/16/2020 00:00:00",9.4,9.4,9.4,-0.2,51.37,,2.1,,79.0,,0.0,,0.0,14.8,1.1,1021.0,"",50.0826,8.2493,"50.0826,8.2493","50.0826,8.2493","","Clear"
"50.0826,8.2493","04/16/2020 01:00:00",8.2,8.2,8.2,-0.1,55.9,,2.2,,94.0,,0.0,,0.0,15.0,0.0,1020.8,"",50.0826,8.2493,"50.0826,8.2493","50.0826,8.2493","","Clear"
"50.0826,8.2493","04/16/2020 02:00:00",7.9,7.9,7.9,0.2,58.14,,2.6,,89.0,,0.0,,0.0,15.1,1.2,1020.4,"",50.0826,8.2493,"50.0826,8.2493","50.0826,8.2493","","Clear"
"50.0826,8.2493","04/16/2020 03:00:00",8.7,8.7,8.7,-0.4,52.85,,2.4,,79.0,,0.0,,0.0,15.0,0.0,1020.0,"",50.0826,8.2493,"50.0826,8.2493","50.0826,8.2493","","Clear"
"50.0826,8.2493","04/16/2020 04:00:00",6.7,6.7,6.7,-0.3,61.09,,1.4,,104.0,,0.0,,0.0,12.3,0.0,1019.7,"",50.0826,8.2493,"50.0826,8.2493","50.0826,8.2493","","Clear"
"50.0826,8.2493","04/16/2020 05:00:00",6.6,6.6,6.6,-0.5,60.63,,2.2,,93.0,,0.0,,0.0,15.0,1.1,1019.7,"",50.0826,8.2493,"50.0826,8.2493","50.0826,8.2493","","Clear"
"50.0826,8.2493","04/16/2020 06:00:00",5.9,5.9,5.9,-0.8,61.96,,1.8,,129.0,,0.0,,0.0,14.9,1.2,1019.4,"",50.0826,8.2493,"50.0826,8.2493","50.0826,8.2493","","Clear"
"50.0826,8.2493","04/16/2020 07:00:00",4.9,4.9,4.9,-0.5,68.15,,1.4,,170.0,,0.0,,0.0,14.4,0.0,1019.4,"",50.0826,8.2493,"50.0826,8.2493","50.0826,8.2493","","Clear"
"50.0826,8.2493","04/16/2020 08:00:00",6.8,6.8,6.8,0.7,64.87,,1.2,,139.0,,0.0,,0.0,15.2,1.2,1019.4,"",50.0826,8.2493,"50.0826,8.2493","50.0826,8.2493","","Clear"
"50.0826,8.2493","04/16/2020 09:00:00",9.7,9.7,9.7,1.8,57.92,,0.9,,149.0,,0.0,,0.0,14.7,0.0,1019.7,"",50.0826,8.2493,"50.0826,8.2493","50.0826,8.2493","","Clear"
"50.0826,8.2493","04/16/2020 10:00:00",12.4,12.4,12.4,1.7,48.21,,1.3,,230.0,,0.0,,0.0,13.9,0.0,1019.0,"",50.0826,8.2493,"50.0826,8.2493","50.0826,8.2493","","Clear"
"50.0826,8.2493","04/16/2020 11:00:00",14.1,14.1,14.1,2.0,43.9,,1.4,,205.0,,0.0,,0.0,13.7,1.1,1018.9,"",50.0826,8.2493,"50.0826,8.2493","50.0826,8.2493","","Clear"
"50.0826,8.2493","04/16/2020 12:00:00",15.6,15.6,15.6,2.6,41.83,,6.3,,195.0,,0.0,,0.0,12.3,1.1,1018.1,"",50.0826,8.2493,"50.0826,8.2493","50.0826,8.2493","","Clear"
"50.0826,8.2493","04/16/2020 13:00:00",17.9,17.9,17.9,3.8,39.14,,6.5,,261.0,,0.0,,0.0,14.3,0.0,1017.9,"",50.0826,8.2493,"50.0826,8.2493","50.0826,8.2493","","Clear"
"50.0826,8.2493","04/16/2020 14:00:00",19.8,19.8,19.8,4.5,36.34,,8.5,,283.0,,0.0,,0.0,13.3,0.0,1017.1,"",50.0826,8.2493,"50.0826,8.2493","50.0826,8.2493","","Clear"
"50.0826,8.2493","04/16/2020 15:00:00",21.0,21.0,21.0,5.7,36.85,,7.8,,221.0,,0.0,,0.0,13.8,0.0,1016.4,"",50.0826,8.2493,"50.0826,8.2493","50.0826,8.2493","","Clear"
"50.0826,8.2493","04/16/2020 16:00:00",22.5,22.5,22.5,6.6,35.85,,11.1,,227.0,,0.0,,0.0,14.8,0.0,1015.8,"",50.0826,8.2493,"50.0826,8.2493","50.0826,8.2493","","Clear"
"50.0826,8.2493","04/16/2020 17:00:00",23.1,23.1,23.1,6.3,33.79,,10.1,,203.0,,0.0,,0.0,15.4,30.0,1015.1,"",50.0826,8.2493,"50.0826,8.2493","50.0826,8.2493","","Partially cloudy"
"50.0826,8.2493","04/16/2020 18:00:00",22.9,22.9,22.9,3.9,28.9,,14.4,,224.0,,0.0,,0.0,12.8,0.0,1014.8,"",50.0826,8.2493,"50.0826,8.2493","50.0826,8.2493","","Clear"
"50.0826,8.2493","04/16/2020 19:00:00",21.7,21.7,21.7,5.1,33.95,,11.5,,230.0,,0.0,,0.0,16.1,30.0,1014.5,"",50.0826,8.2493,"50.0826,8.2493","50.0826,8.2493","","Partially cloudy"
"50.0826,8.2493","04/16/2020 20:00:00",19.2,19.2,19.2,5.4,40.4,,7.8,,256.0,,0.0,,0.0,16.0,1.1,1014.5,"",50.0826,8.2493,"50.0826,8.2493","50.0826,8.2493","","Clear"
"50.0826,8.2493","04/16/2020 21:00:00",16.6,16.6,16.6,4.4,44.45,,5.6,,257.0,,0.0,,0.0,13.3,1.1,1014.8,"",50.0826,8.2493,"50.0826,8.2493","50.0826,8.2493","","Clear"
"50.0826,8.2493","04/16/2020 22:00:00",14.7,14.7,14.7,4.5,50.45,,1.0,,250.0,,0.0,,0.0,13.3,27.3,1015.2,"",50.0826,8.2493,"50.0826,8.2493","50.0826,8.2493","","Partially cloudy"
"50.0826,8.2493","04/16/2020 23:00:00",13.3,13.3,13.3,5.0,56.93,,1.0,,239.0,,0.0,,0.0,13.3,1.1,1015.5,"",50.0826,8.2493,"50.0826,8.2493","50.0826,8.2493","","Clear"
"50.0826,8.2493","04/17/2020 00:00:00",12.6,12.6,12.6,4.9,59.2,,1.1,,310.0,,0.0,,0.0,16.3,0.0,1015.4,"",50.0826,8.2493,"50.0826,8.2493","50.0826,8.2493","","Clear"
"50.0826,8.2493","04/17/2020 01:00:00",11.6,11.6,11.6,4.8,63.01,,1.1,,243.0,,0.0,,0.0,15.7,0.0,1015.7,"",50.0826,8.2493,"50.0826,8.2493","50.0826,8.2493","","Clear"
"50.0826,8.2493","04/17/2020 02:00:00",11.0,11.0,11.0,5.1,66.94,,7.3,,317.0,,0.0,,0.0,15.6,0.0,1015.7,"",50.0826,8.2493,"50.0826,8.2493","50.0826,8.2493","","Clear"
"50.0826,8.2493","04/17/2020 03:00:00",9.9,9.9,9.9,5.0,71.59,,8.8,,87.0,8.7,0.0,,0.0,15.5,0.0,1015.7,"",50.0826,8.2493,"50.0826,8.2493","50.0826,8.2493","","Clear"
"50.0826,8.2493","04/17/2020 04:00:00",9.5,9.5,9.5,5.2,74.47,,5.0,,310.0,9.2,0.0,,0.0,12.8,0.0,1015.6,"",50.0826,8.2493,"50.0826,8.2493","50.0826,8.2493","","Clear"
"50.0826,8.2493","04/17/2020 05:00:00",9.0,9.0,9.0,4.8,75.15,,0.6,,158.0,,0.0,,0.0,15.6,0.0,1015.6,"",50.0826,8.2493,"50.0826,8.2493","50.0826,8.2493","","Clear"
"50.0826,8.2493","04/17/2020 06:00:00",8.1,8.1,8.1,4.7,79.12,,0.8,,230.0,,0.0,,0.0,14.4,0.0,1016.0,"",50.0826,8.2493,"50.0826,8.2493","50.0826,8.2493","","Clear"
"50.0826,8.2493","04/17/2020 07:00:00",8.9,8.9,8.9,4.9,75.99,,0.5,,203.0,,0.0,,0.0,14.2,1.2,1016.3,"",50.0826,8.2493,"50.0826,8.2493","50.0826,8.2493","","Clear"
"50.0826,8.2493","04/17/2020 08:00:00",10.6,10.6,10.6,6.2,74.02,,0.4,,127.0,,0.0,,0.0,14.0,50.0,1016.4,"",50.0826,8.2493,"50.0826,8.2493","50.0826,8.2493","","Partially cloudy"
"50.0826,8.2493","04/17/2020 09:00:00",13.9,13.9,13.9,6.6,61.62,,0.6,,70.0,,0.0,,0.0,13.9,0.0,1016.7,"",50.0826,8.2493,"50.0826,8.2493","50.0826,8.2493","","Clear"
"50.0826,8.2493","04/17/2020 10:00:00",14.8,14.8,14.8,6.5,57.26,,1.0,,322.0,,0.0,,0.0,14.5,0.0,1016.4,"",50.0826,8.2493,"50.0826,8.2493","50.0826,8.2493","","Clear"
"50.0826,8.2493","04/17/2020 11:00:00",17.4,17.4,17.4,7.2,51.1,,0.8,,143.0,,0.0,,0.0,14.1,1.2,1016.4,"",50.0826,8.2493,"50.0826,8.2493","50.0826,8.2493","","Clear"
"50.0826,8.2493","04/17/2020 12:00:00",18.6,18.6,18.6,7.3,47.6,,0.6,,25.0,,0.0,,0.0,14.2,0.0,1016.4,"",50.0826,8.2493,"50.0826,8.2493","50.0826,8.2493","","Clear"
"50.0826,8.2493","04/17/2020 13:00:00",20.3,20.3,20.3,7.4,43.36,,1.2,,83.0,,0.0,,0.0,13.7,0.0,1015.7,"",50.0826,8.2493,"50.0826,8.2493","50.0826,8.2493","","Clear"
"50.0826,8.2493","04/17/2020 14:00:00",21.7,21.7,21.7,6.8,38.13,,1.4,,232.0,,0.0,,0.0,13.3,0.0,1015.0,"",50.0826,8.2493,"50.0826,8.2493","50.0826,8.2493","","Clear"
"50.0826,8.2493","04/17/2020 15:00:00",22.3,22.3,22.3,6.6,36.3,,1.0,,109.0,,0.0,,0.0,14.0,1.2,1014.3,"",50.0826,8.2493,"50.0826,8.2493","50.0826,8.2493","","Clear"
"50.0826,8.2493","04/17/2020 16:00:00",22.9,22.9,22.9,6.4,34.52,,5.2,,158.0,,0.0,,0.0,14.9,1.2,1014.0,"",50.0826,8.2493,"50.0826,8.2493","50.0826,8.2493","","Clear"
"50.0826,8.2493","04/17/2020 17:00:00",22.3,22.3,22.3,7.2,37.71,,5.9,,187.0,,0.0,,0.0,15.1,27.3,1013.6,"",50.0826,8.2493,"50.0826,8.2493","50.0826,8.2493","","Partially cloudy"
"50.0826,8.2493","04/17/2020 18:00:00",21.7,21.7,21.7,7.9,41.01,,7.6,,101.0,,0.0,,0.0,16.2,0.0,1013.3,"",50.0826,8.2493,"50.0826,8.2493","50.0826,8.2493","","Clear"
"50.0826,8.2493","04/17/2020 19:00:00",22.0,22.0,22.0,8.2,41.27,,0.8,,252.0,,0.0,,0.0,15.8,30.0,1013.3,"",50.0826,8.2493,"50.0826,8.2493","50.0826,8.2493","","Partially cloudy"
"50.0826,8.2493","04/17/2020 20:00:00",20.3,20.3,20.3,8.3,46.05,,5.1,,109.0,,0.0,,0.0,15.3,30.0,1013.3,"",50.0826,8.2493,"50.0826,8.2493","50.0826,8.2493","","Partially cloudy"
"50.0826,8.2493","04/17/2020 21:00:00",18.3,18.3,18.3,7.9,50.79,,1.6,,85.0,,0.0,,0.0,15.3,30.0,1013.2,"",50.0826,8.2493,"50.0826,8.2493","50.0826,8.2493","","Partially cloudy"
"50.0826,8.2493","04/17/2020 22:00:00",18.1,18.1,18.1,7.4,49.66,,1.2,,80.0,,0.0,,0.0,15.4,50.0,1013.9,"",50.0826,8.2493,"50.0826,8.2493","50.0826,8.2493","","Partially cloudy"
"50.0826,8.2493","04/17/2020 23:00:00",16.1,16.1,16.1,8.3,59.9,,1.5,,44.0,,0.06,,0.0,14.6,0.0,1013.5,"",50.0826,8.2493,"50.0826,8.2493","50.0826,8.2493","","Rain"
"50.0826,8.2493","04/18/2020 00:00:00",14.1,14.1,14.1,7.6,65.03,,2.2,,60.0,,0.0,,0.0,14.4,0.0,1014.0,"",50.0826,8.2493,"50.0826,8.2493","50.0826,8.2493","","Clear"
"50.0826,8.2493","04/18/2020 01:00:00",13.6,13.6,13.6,7.5,66.69,,7.0,,337.0,,0.0,,0.0,14.6,0.0,1013.9,"",50.0826,8.2493,"50.0826,8.2493","50.0826,8.2493","","Clear"
"50.0826,8.2493","04/18/2020 02:00:00",15.3,15.3,15.3,6.0,53.72,,2.2,,64.0,,0.0,,0.0,14.5,0.0,1013.8,"",50.0826,8.2493,"50.0826,8.2493","50.0826,8.2493","","Clear"
"50.0826,8.2493","04/18/2020 03:00:00",14.8,14.8,14.8,5.9,55.15,,2.5,,69.0,,0.0,,0.0,14.5,1.2,1013.7,"",50.0826,8.2493,"50.0826,8.2493","50.0826,8.2493","","Clear"
"50.0826,8.2493","04/18/2020 04:00:00",12.7,12.7,12.7,6.2,64.71,,6.7,,314.0,,0.0,,0.0,14.4,0.0,1013.8,"",50.0826,8.2493,"50.0826,8.2493","50.0826,8.2493","","Clear"
"50.0826,8.2493","04/18/2020 05:00:00",11.4,11.4,11.4,6.0,69.65,,1.5,,99.0,,0.0,,0.0,14.7,30.0,1014.0,"",50.0826,8.2493,"50.0826,8.2493","50.0826,8.2493","","Partially cloudy"
"50.0826,8.2493","04/18/2020 06:00:00",12.5,12.5,12.5,6.6,67.33,,1.5,,113.0,,0.0,,0.0,14.7,50.0,1014.2,"",50.0826,8.2493,"50.0826,8.2493","50.0826,8.2493","","Partially cloudy"
"50.0826,8.2493","04/18/2020 07:00:00",12.2,12.2,12.2,7.3,72.04,,1.3,,113.0,,0.0,,0.0,14.4,30.0,1014.6,"",50.0826,8.2493,"50.0826,8.2493","50.0826,8.2493","","Partially cloudy"
"50.0826,8.2493","04/18/2020 08:00:00",12.7,12.7,12.7,8.3,74.42,,5.9,,295.0,,0.0,,0.0,14.7,0.0,1014.9,"",50.0826,8.2493,"50.0826,8.2493","50.0826,8.2493","","Clear"
"50.0826,8.2493","04/18/2020 09:00:00",14.1,14.1,14.1,8.5,68.87,,1.0,,103.0,,0.0,,0.0,14.7,0.0,1015.2,"",50.0826,8.2493,"50.0826,8.2493","50.0826,8.2493","","Clear"
"50.0826,8.2493","04/18/2020 10:00:00",16.0,16.0,16.0,8.5,60.79,,1.4,,144.0,,0.0,,0.0,14.7,0.0,1015.2,"",50.0826,8.2493,"50.0826,8.2493","50.0826,8.2493","","Clear"
"50.0826,8.2493","04/18/2020 11:00:00",17.1,17.1,17.1,8.2,56.02,,1.9,,205.0,,0.0,,0.0,13.7,30.0,1015.2,"",50.0826,8.2493,"50.0826,8.2493","50.0826,8.2493","","Partially cloudy"
"50.0826,8.2493","04/18/2020 12:00:00",17.9,17.9,17.9,8.9,55.61,,1.8,,225.0,,0.0,,0.0,14.3,30.0,1015.3,"",50.0826,8.2493,"50.0826,8.2493","50.0826,8.2493","","Partially cloudy"
"50.0826,8.2493","04/18/2020 13:00:00",18.0,18.0,18.0,9.3,56.74,,1.0,,224.0,,0.03,,0.0,13.4,30.0,1015.3,"",50.0826,8.2493,"50.0826,8.2493","50.0826,8.2493","","Rain, Partially cloudy"
"50.0826,8.2493","04/18/2020 14:00:00",19.2,19.2,19.2,9.8,54.57,,0.9,,224.0,,0.03,,0.0,14.2,50.0,1014.8,"",50.0826,8.2493,"50.0826,8.2493","50.0826,8.2493","","Rain, Partially cloudy"
"50.0826,8.2493","04/18/2020 15:00:00",21.2,21.2,21.2,9.6,47.33,,1.1,,255.0,,0.0,,0.0,12.3,0.0,1014.4,"",50.0826,8.2493,"50.0826,8.2493","50.0826,8.2493","","Clear"
"50.0826,8.2493","04/18/2020 16:00:00",22.1,22.1,22.1,8.9,43.11,,0.8,,306.0,,0.0,,0.0,14.3,0.0,1013.5,"",50.0826,8.2493,"50.0826,8.2493","50.0826,8.2493","","Clear"
"50.0826,8.2493","04/18/2020 17:00:00",20.9,20.9,20.9,9.5,47.99,,1.6,,305.0,,0.0,,0.0,14.2,50.0,1013.3,"",50.0826,8.2493,"50.0826,8.2493","50.0826,8.2493","","Partially cloudy"
"50.0826,8.2493","04/18/2020 18:00:00",18.2,18.2,18.2,10.3,60.0,,11.4,,317.0,,0.03,,0.0,11.9,0.0,1013.9,"Light Rain",50.0826,8.2493,"50.0826,8.2493","50.0826,8.2493","","Rain"
"50.0826,8.2493","04/18/2020 19:00:00",17.3,17.3,17.3,10.7,65.22,,11.5,,319.0,,0.1,,0.0,13.8,50.0,1014.0,"",50.0826,8.2493,"50.0826,8.2493","50.0826,8.2493","","Rain, Partially cloudy"
"50.0826,8.2493","04/18/2020 20:00:00",17.2,17.2,17.2,10.7,65.42,,14.9,,317.0,,0.0,,0.0,11.5,30.0,1014.4,"",50.0826,8.2493,"50.0826,8.2493","50.0826,8.2493","","Partially cloudy"
"50.0826,8.2493","04/18/2020 21:00:00",15.6,15.6,15.6,10.9,73.46,,12.2,,332.0,,0.01,,0.0,11.5,50.0,1015.0,"",50.0826,8.2493,"50.0826,8.2493","50.0826,8.2493","","Rain, Partially cloudy"
"50.0826,8.2493","04/18/2020 22:00:00",14.6,14.6,14.6,10.9,78.62,,2.2,,330.0,,0.0,,0.0,11.5,0.0,1015.7,"",50.0826,8.2493,"50.0826,8.2493","50.0826,8.2493","","Clear"
"50.0826,8.2493","04/18/2020 23:00:00",13.6,13.6,13.6,10.4,81.08,,6.3,,319.0,,0.0,,0.0,12.3,0.0,1015.6,"",50.0826,8.2493,"50.0826,8.2493","50.0826,8.2493","","Clear"
"50.0826,8.2493","04/19/2020 00:00:00",12.7,12.7,12.7,10.4,85.73,,1.8,,299.0,,0.0,,0.0,12.4,0.0,1016.0,"",50.0826,8.2493,"50.0826,8.2493","50.0826,8.2493","","Clear"
"50.0826,8.2493","04/19/2020 01:00:00",11.7,11.7,11.7,9.9,88.79,,8.0,,318.0,,0.0,,0.0,11.2,0.0,1016.0,"",50.0826,8.2493,"50.0826,8.2493","50.0826,8.2493","","Clear"
"50.0826,8.2493","04/19/2020 02:00:00",10.7,10.7,10.7,9.5,92.19,,1.5,,304.0,,0.0,,0.0,10.4,0.0,1015.7,"",50.0826,8.2493,"50.0826,8.2493","50.0826,8.2493","","Clear"
"50.0826,8.2493","04/19/2020 03:00:00",10.4,10.4,10.4,9.2,92.53,,2.0,,314.0,,0.0,,0.0,10.1,1.2,1015.6,"",50.0826,8.2493,"50.0826,8.2493","50.0826,8.2493","","Clear"
"50.0826,8.2493","04/19/2020 04:00:00",9.5,9.5,9.5,8.7,95.01,,1.9,,289.0,,0.0,,0.0,9.9,1.2,1015.6,"",50.0826,8.2493,"50.0826,8.2493","50.0826,8.2493","","Clear"
"50.0826,8.2493","04/19/2020 05:00:00",9.7,9.7,9.7,9.2,96.38,,2.2,,289.0,,0.0,,0.0,9.6,0.0,1016.0,"",50.0826,8.2493,"50.0826,8.2493","50.0826,8.2493","","Clear"
"50.0826,8.2493","04/19/2020 06:00:00",9.7,9.7,9.7,9.2,96.51,,6.7,,16.0,9.0,0.0,,0.0,9.4,0.0,1016.4,"",50.0826,8.2493,"50.0826,8.2493","50.0826,8.2493","","Clear"
"50.0826,8.2493","04/19/2020 07:00:00",9.5,9.5,9.5,9.0,96.34,,7.8,,310.0,8.5,0.0,,0.0,7.5,0.0,1016.4,"Mist",50.0826,8.2493,"50.0826,8.2493","50.0826,8.2493","","Clear"
"50.0826,8.2493","04/19/2020 08:00:00",11.5,11.5,11.5,9.5,87.37,,10.8,,337.0,,0.01,,0.0,9.3,1.2,1016.0,"",50.0826,8.2493,"50.0826,8.2493","50.0826,8.2493","","Rain"
"50.0826,8.2493","04/19/2020 09:00:00",12.8,12.8,12.8,9.8,82.04,,8.0,,12.0,,0.0,,0.0,9.2,0.0,1016.3,"",50.0826,8.2493,"50.0826,8.2493","50.0826,8.2493","","Clear"
"50.0826,8.2493","04/19/2020 10:00:00",14.0,14.0,14.0,9.8,76.08,,14.3,,356.0,,0.0,,0.0,8.1,0.0,1016.7,"Smoke Or Haze",50.0826,8.2493,"50.0826,8.2493","50.0826,8.2493","","Clear"
"50.0826,8.2493","04/19/2020 11:00:00",13.9,13.9,13.9,9.7,75.88,,11.6,,48.0,,0.0,,0.0,10.8,30.0,1017.1,"",50.0826,8.2493,"50.0826,8.2493","50.0826,8.2493","","Partially cloudy"
"50.0826,8.2493","04/19/2020 12:00:00",14.5,14.5,14.5,9.7,72.7,,6.4,,34.0,,0.0,,0.0,11.8,0.0,1017.1,"",50.0826,8.2493,"50.0826,8.2493","50.0826,8.2493","","Clear"
"50.0826,8.2493","04/19/2020 13:00:00",16.0,16.0,16.0,9.6,65.72,,14.6,,76.0,,0.0,,0.0,11.9,30.0,1016.7,"",50.0826,8.2493,"50.0826,8.2493","50.0826,8.2493","","Partially cloudy"
"50.0826,8.2493","04/19/2020 14:00:00",16.4,16.4,16.4,9.3,62.84,,18.5,,60.0,,0.0,,0.0,11.7,30.0,1016.4,"",50.0826,8.2493,"50.0826,8.2493","50.0826,8.2493","","Partially cloudy"
"50.0826,8.2493","04/19/2020 15:00:00",15.9,15.9,15.9,8.7,62.36,,18.9,,48.0,,0.0,,0.0,14.3,30.0,1016.4,"",50.0826,8.2493,"50.0826,8.2493","50.0826,8.2493","","Partially cloudy"
"50.0826,8.2493","04/19/2020 16:00:00",16.3,16.3,16.3,7.4,55.84,,22.7,,50.0,,0.0,,0.0,13.7,28.5,1016.2,"",50.0826,8.2493,"50.0826,8.2493","50.0826,8.2493","","Partially cloudy"
"50.0826,8.2493","04/19/2020 17:00:00",16.4,16.4,16.4,6.7,52.8,,21.1,,41.0,,0.0,,0.0,12.9,0.0,1015.8,"",50.0826,8.2493,"50.0826,8.2493","50.0826,8.2493","","Clear"
"50.0826,8.2493","04/19/2020 18:00:00",16.0,16.0,16.0,5.7,50.49,,26.3,,41.0,,0.0,,0.0,12.6,0.0,1015.8,"",50.0826,8.2493,"50.0826,8.2493","50.0826,8.2493","","Clear"
"50.0826,8.2493","04/19/2020 19:00:00",14.9,14.9,14.9,4.9,51.33,,20.0,,32.0,,0.0,,0.0,12.5,1.2,1016.2,"",50.0826,8.2493,"50.0826,8.2493","50.0826,8.2493","","Clear"
"50.0826,8.2493","04/19/2020 20:00:00",14.1,14.1,14.1,4.0,50.68,,19.6,,42.0,,0.0,,0.0,12.8,1.1,1016.1,"",50.0826,8.2493,"50.0826,8.2493","50.0826,8.2493","","Clear"
"50.0826,8.2493","04/19/2020 21:00:00",13.3,13.3,13.3,3.0,49.85,,17.6,,43.0,,0.0,,0.0,15.9,42.8,1017.1,"",50.0826,8.2493,"50.0826,8.2493","50.0826,8.2493","","Partially cloudy"
"50.0826,8.2493","04/19/2020 22:00:00",12.3,12.3,12.3,1.6,47.95,,19.2,,33.0,,0.0,,0.0,15.9,1.1,1017.5,"",50.0826,8.2493,"50.0826,8.2493","50.0826,8.2493","","Clear"
"50.0826,8.2493","04/19/2020 23:00:00",11.8,11.8,11.8,0.0,44.1,,19.4,,50.0,,0.0,,0.0,16.2,1.1,1017.5,"",50.0826,8.2493,"50.0826,8.2493","50.0826,8.2493","","Clear"
"50.0826,8.2493","04/20/2020 00:00:00",11.1,11.1,11.1,-1.3,42.19,,24.0,,51.0,,0.0,,0.0,16.4,0.0,1017.8,"",50.0826,8.2493,"50.0826,8.2493","50.0826,8.2493","","Clear"
