Address,Date time,Minimum Temperature,Maximum Temperature,Temperature,Dew Point,Relative Humidity,Heat Index,Wind Speed,Wind Gust,Wind Direction,Wind Chill,Precipitation,Precipitation Cover,Snow Depth,Visibility,Cloud Cover,Sea Level Pressure,Weather Type,Latitude,Longitude,Resolved Address,Name,Info,Conditions
"50.0826,8.2493","01/31/2020 00:00:00",7.4,7.4,7.4,6.5,94.08,,12.5,,212.0,5.0,0.16,,0.0,10.5,0.0,1007.9,"",50.0826,8.2493,"50.0826,8.2493","50.0826,8.2493","","Rain"
"50.0826,8.2493","01/31/2020 01:00:00",7.5,7.5,7.5,6.8,95.25,,11.8,,212.0,5.4,0.14,,0.0,9.2,0.0,1007.7,"",50.0826,8.2493,"50.0826,8.2493","50.0826,8.2493","","Rain"
"50.0826,8.2493","01/31/2020 02:00:00",9.5,9.5,9.5,8.7,94.78,,9.3,,212.0,8.2,0.07,,0.0,10.9,0.0,1007.2,"",50.0826,8.2493,"50.0826,8.2493","50.0826,8.2493","","Rain"
"50.0826,8.2493","01/31/2020 03:00:00",10.4,10.4,10.4,9.0,90.8,,14.4,,247.0,,0.0,,0.0,12.2,0.0,1007.0,"",50.0826,8.2493,"50.0826,8.2493","50.0826,8.2493","","Clear"
"50.0826,8.2493","01/31/2020 04:00:00",11.2,11.2,11.2,9.1,86.75,,13.7,,273.0,,0.0,,0.0,12.2,0.0,1007.7,"",50.0826,8.2493,"50.0826,8.2493","50.0826,8.2493","","Clear"
"50.0826,8.2493","01/31/2020 05:00:00",11.3,11.3,11.3,9.2,87.17,,13.3,,248.0,,0.07,,0.0,10.0,0.0,1008.4,"",50.0826,8.2493,"50.0826,8.2493","50.0826,8.2493","","Rain"
"50.0826,8.2493","01/31/2020 06:00:00",11.3,11.3,11.3,9.7,89.77,,15.0,,267.0,,0.08,,0.0,9.6,0.0,1009.0,"",50.0826,8.2493,"50.0826,8.2493","50.0826,8.2493","","Rain"
"50.0826,8.2493","01/31/2020 07:00:00",11.3,11.3,11.3,9.5,88.8,,10.4,,208.0,,0.0,,0.0,12.3,0.0,1009.4,"",50.0826,8.2493,"50.0826,8.2493","50.0826,8.2493","","Clear"
"50.0826,8.2493","01/31/2020 08:00:00",11.1,11.1,11.1,9.3,88.32,,16.6,,217.0,,0.0,,0.0,9.1,0.0,1010.3,"",50.0826,8.2493,"50.0826,8.2493","50.0826,8.2493","","Clear"
"50.0826,8.2493","01/31/2020 09:00:00",11.7,11.7,11.7,9.2,84.83,,20.8,,233.0,,0.0,,0.0,12.1,0.0,1011.0,"",50.0826,8.2493,"50.0826,8.2493","50.0826,8.2493","","Clear"
"50.0826,8.2493","01/31/2020 10:00:00",11.7,11.7,11.7,8.7,81.69,,8.1,,232.0,,0.0,,0.0,13.6,0.0,1011.6,"",50.0826,8.2493,"50.0826,8.2493","50.0826,8.2493","","Clear"
"50.0826,8.2493","01/31/2020 11:00:00",12.0,12.0,12.0,8.2,77.52,,22.5,,239.0,,0.0,,0.0,,,1012.3,"",50.0826,8.2493,"50.0826,8.2493","50.0826,8.2493","","Clear"
"50.0826,8.2493","01/31/2020 12:00:00",12.7,12.7,12.7,8.4,75.0,,13.1,,225.0,,0.0,,0.0,10.0,0.0,1012.3,"",50.0826,8.2493,"50.0826,8.2493","50.0826,8.2493","","Clear"
"50.0826,8.2493","01/31/2020 13:00:00",12.7,12.7,12.7,8.2,73.94,,12.5,,223.0,,0.0,,0.0,10.0,0.0,1012.3,"",50.0826,8.2493,"50.0826,8.2493","50.0826,8.2493","","Clear"
"50.0826,8.2493","01/31/2020 14:00:00",13.4,13.4,13.4,7.9,69.22,,17.2,,217.0,,0.0,,0.0,10.0,50.0,1012.3,"",50.0826,8.2493,"50.0826,8.2493","50.0826,8.2493","","Partially cloudy"
"50.0826,8.2493","01/31/2020 15:00:00",13.3,13.3,13.3,7.7,69.15,,20.7,,242.0,,0.0,,0.0,10.0,50.0,1012.5,"",50.0826,8.2493,"50.0826,8.2493","50.0826,8.2493","","Partially cloudy"
"50.0826,8.2493","01/31/2020 16:00:00",12.9,12.9,12.9,7.7,70.73,,11.7,,225.0,,0.0,,0.0,10.0,0.0,1013.0,"",50.0826,8.2493,"50.0826,8.2493","50.0826,8.2493","","Clear"
"50.0826,8.2493","01/31/2020 17:00:00",12.5,12.5,12.5,8.1,74.77,,10.5,,213.0,,0.0,,0.0,10.0,50.0,1012.7,"",50.0826,8.2493,"50.0826,8.2493","50.0826,8.2493","","Partially cloudy"
"50.0826,8.2493","01/31/2020 18:00:00",11.5,11.5,11.5,7.7,77.28,,13.2,,237.0,,0.0,,0.0,10.0,0.0,1012.8,"",50.0826,8.2493,"50.0826,8.2493","50.0826,8.2493","","Clear"
"50.0826,8.2493","01/31/2020 19:00:00",10.7,10.7,10.7,7.7,81.93,,15.3,,214.0,,0.0,,0.0,28.0,,1012.9,"",50.0826,8.2493,"50.0826,8.2493","50.0826,8.2493","","Clear"
"50.0826,8.2493","01/31/2020 20:00:00",11.1,11.1,11.1,7.9,81.07,,11.6,,295.0,,0.0,,0.0,9.2,1.2,1013.1,"",50.0826,8.2493,"50.0826,8.2493","50.0826,8.2493","","Clear"
"50.0826,8.2493","01/31/2020 21:00:00",11.0,11.0,11.0,8.5,84.57,,10.3,,261.0,,0.0,,0.0,9.1,0.0,1013.0,"",50.0826,8.2493,"50.0826,8.2493","50.0826,8.2493","","Clear"
"50.0826,8.2493","01/31/2020 22:00:00",11.0,11.0,11.0,9.1,88.05,,11.8,,227.0,,0.0,,0.0,9.1,0.0,1012.7,"",50.0826,8.2493,"50.0826,8.2493","50.0826,8.2493","","Clear"
"50.0826,8.2493","01/31/2020 23:00:00",11.8,11.8,11.8,9.0,82.92,,10.7,,211.0,,0.0,,0.0,9.1,0.0,1012.4,"",50.0826,8.2493,"50.0826,8.2493","50.0826,8.2493","","Clear"
"50.0826,8.2493","02/01/2020 00:00:00",11.4,11.4,11.4,8.0,79.73,,11.1,,227.0,,0.0,,0.0,9.1,0.0,1012.0,"",50.0826,8.2493,"50.0826,8.2493","50.0826,8.2493","","Clear"
"50.0826,8.2493","02/01/2020 01:00:00",11.3,11.3,11.3,8.5,82.93,,16.0,,237.0,,0.0,,0.0,9.1,0.0,1011.8,"",50.0826,8.2493,"50.0826,8.2493","50.0826,8.2493","","Clear"
"50.0826,8.2493","02/01/2020 02:00:00",11.1,11.1,11.1,8.8,86.08,,9.5,,215.0,,0.06,,0.0,9.6,0.0,1011.8,"",50.0826,8.2493,"50.0826,8.2493","50.0826,8.2493","","Rain"
"50.0826,8.2493","02/01/2020 03:00:00",11.2,11.2,11.2,8.5,83.68,,15.4,,211.0,,0.0,,0.0,9.1,0.0,1011.1,"",50.0826,8.2493,"50.0826,8.2493","50.0826,8.2493","","Clear"
"50.0826,8.2493","02/01/2020 04:00:00",11.0,11.0,11.0,8.5,84.25,,13.0,,210.0,,0.0,,0.0,9.1,0.0,1010.1,"",50.0826,8.2493,"50.0826,8.2493","50.0826,8.2493","","Clear"
"50.0826,8.2493","02/01/2020 05:00:00",11.1,11.1,11.1,8.1,81.43,,19.1,,227.0,,0.0,,0.0,9.1,0.0,1009.4,"",50.0826,8.2493,"50.0826,8.2493","50.0826,8.2493","","Clear"
"50.0826,8.2493","02/01/2020 06:00:00",11.1,11.1,11.1,7.9,80.89,,18.1,,228.0,,0.0,,0.0,9.1,0.0,1009.1,"",50.0826,8.2493,"50.0826,8.2493","50.0826,8.2493","","Clear"
"50.0826,8.2493","02/01/2020 07:00:00",10.9,10.9,10.9,8.4,84.26,,7.8,,210.0,,0.0,,0.0,9.1,0.0,1008.3,"",50.0826,8.2493,"50.0826,8.2493","50.0826,8.2493","","Clear"
"50.0826,8.2493","02/01/2020 08:00:00",11.1,11.1,11.1,8.6,84.61,,12.9,,215.0,,0.0,,0.0,12.6,0.0,1007.8,"",50.0826,8.2493,"50.0826,8.2493","50.0826,8.2493","","Clear"
"50.0826,8.2493","02/01/2020 09:00:00",10.4,10.4,10.4,8.8,89.37,,22.7,,205.0,,0.01,,0.0,15.4,,1007.4,"",50.0826,8.2493,"50.0826,8.2493","50.0826,8.2493","","Rain"
"50.0826,8.2493","02/01/2020 10:00:00",11.0,11.0,11.0,9.2,88.2,,21.0,,227.0,,0.16,,0.0,10.0,0.0,1006.9,"",50.0826,8.2493,"50.0826,8.2493","50.0826,8.2493","","Rain"
"50.0826,8.2493","02/01/2020 11:00:00",11.1,11.1,11.1,9.7,91.08,,16.3,,228.0,,1.04,,0.0,10.5,0.0,1006.5,"Light Rain",50.0826,8.2493,"50.0826,8.2493","50.0826,8.2493","","Rain"
"50.0826,8.2493","02/01/2020 12:00:00",10.5,10.5,10.5,9.5,93.15,,26.4,,225.0,,0.41,,0.0,15.4,,1006.2,"",50.0826,8.2493,"50.0826,8.2493","50.0826,8.2493","","Rain"
"50.0826,8.2493","02/01/2020 13:00:00",11.2,11.2,11.2,9.9,91.93,,21.0,,228.0,,1.4,,0.0,9.4,0.0,1005.7,"Light Rain",50.0826,8.2493,"50.0826,8.2493","50.0826,8.2493","","Rain"
"50.0826,8.2493","02/01/2020 14:00:00",11.2,11.2,11.2,9.9,91.74,,19.0,,237.0,,2.88,,0.0,9.4,0.0,1005.4,"Light Rain",50.0826,8.2493,"50.0826,8.2493","50.0826,8.2493","","Rain"
"50.0826,8.2493","02/01/2020 15:00:00",10.6,10.6,10.6,9.8,94.93,,23.5,,234.0,,0.84,,0.0,7.7,,1005.6,"",50.0826,8.2493,"50.0826,8.2493","50.0826,8.2493","","Rain"
"50.0826,8.2493","02/01/2020 16:00:00",11.1,11.1,11.1,9.4,89.27,,12.5,,288.0,,1.69,,0.0,9.2,0.0,1007.0,"Light Rain",50.0826,8.2493,"50.0826,8.2493","50.0826,8.2493","","Rain"
"50.0826,8.2493","02/01/2020 17:00:00",10.5,10.5,10.5,8.2,85.91,,13.8,,251.0,,0.16,,0.0,11.4,0.0,1007.1,"",50.0826,8.2493,"50.0826,8.2493","50.0826,8.2493","","Rain"
"50.0826,8.2493","02/01/2020 18:00:00",10.2,10.2,10.2,7.9,85.24,,18.6,,266.0,,0.0,,0.0,9.1,0.0,1007.8,"",50.0826,8.2493,"50.0826,8.2493","50.0826,8.2493","","Clear"
"50.0826,8.2493","02/01/2020 19:00:00",9.8,9.8,9.8,7.3,84.55,,21.1,,244.0,7.0,0.0,,0.0,26.1,,1008.8,"",50.0826,8.2493,"50.0826,8.2493","50.0826,8.2493","","Clear"
"50.0826,8.2493","02/01/2020 20:00:00",10.1,10.1,10.1,7.9,85.83,,15.3,,257.0,,0.07,,0.0,12.9,0.0,1009.2,"",50.0826,8.2493,"50.0826,8.2493","50.0826,8.2493","","Rain"
"50.0826,8.2493","02/01/2020 21:00:00",7.3,7.3,7.3,4.8,84.0,,25.2,,262.0,3.5,3.18,,0.0,9.2,0.0,1011.4,"Lightning Without Thunder, Rain Showers",50.0826,8.2493,"50.0826,8.2493","50.0826,8.2493","","Rain"
"50.0826,8.2493","02/01/2020 22:00:00",7.9,7.9,7.9,4.3,78.08,,20.8,,293.0,4.7,0.35,,0.0,10.0,30.0,1010.5,"",50.0826,8.2493,"50.0826,8.2493","50.0826,8.2493","","Rain, Partially cloudy"
"50.0826,8.2493","02/01/2020 23:00:00",8.3,8.3,8.3,3.4,71.48,,20.7,,301.0,5.2,0.0,,0.0,12.6,30.0,1011.7,"",50.0826,8.2493,"50.0826,8.2493","50.0826,8.2493","","Partially cloudy"
"50.0826,8.2493","02/02/2020 00:00:00",7.6,7.6,7.6,2.5,70.1,,24.4,,320.0,4.0,0.0,,0.0,11.6,0.0,1012.7,"",50.0826,8.2493,"50.0826,8.2493","50.0826,8.2493","","Clear"
"50.0826,8.2493","02/02/2020 01:00:00",7.0,7.0,7.0,1.9,70.11,,24.6,,302.0,3.1,0.0,,0.0,11.3,0.0,1013.3,"",50.0826,8.2493,"50.0826,8.2493","50.0826,8.2493","","Clear"
"50.0826,8.2493","02/02/2020 02:00:00",6.7,6.7,6.7,1.9,71.34,,19.0,,285.0,3.4,0.0,,0.0,14.3,0.0,1014.0,"",50.0826,8.2493,"50.0826,8.2493","50.0826,8.2493","","Clear"
"50.0826,8.2493","02/02/2020 03:00:00",7.0,7.0,7.0,1.9,70.05,,20.6,,299.0,3.5,0.0,,0.0,13.9,0.0,1014.6,"",50.0826,8.2493,"50.0826,8.2493","50.0826,8.2493","","Clear"
"50.0826,8.2493","02/02/2020 04:00:00",6.5,6.5,6.5,2.3,74.81,,11.8,,229.0,4.1,0.0,,0.0,13.8,0.0,1015.0,"",50.0826,8.2493,"50.0826,8.2493","50.0826,8.2493","","Clear"
"50.0826,8.2493","02/02/2020 05:00:00",6.1,6.1,6.1,2.4,76.91,,6.4,,288.0,4.9,0.01,,0.0,13.8,0.0,1015.1,"",50.0826,8.2493,"50.0826,8.2493","50.0826,8.2493","","Rain"
"50.0826,8.2493","02/02/2020 06:00:00",5.9,5.9,5.9,2.6,78.92,,6.1,,279.0,4.8,0.0,,0.0,13.6,0.0,1014.7,"",50.0826,8.2493,"50.0826,8.2493","50.0826,8.2493","","Clear"
"50.0826,8.2493","02/02/2020 07:00:00",5.6,5.6,5.6,2.7,81.25,,4.8,,296.0,,0.0,,0.0,14.5,30.0,1014.3,"",50.0826,8.2493,"50.0826,8.2493","50.0826,8.2493","","Partially cloudy"
"50.0826,8.2493","02/02/2020 08:00:00",5.4,5.4,5.4,3.9,90.43,,2.1,,230.0,,0.53,,0.0,9.4,0.0,1013.2,"Light Rain",50.0826,8.2493,"50.0826,8.2493","50.0826,8.2493","","Rain"
"50.0826,8.2493","02/02/2020 09:00:00",5.4,5.4,5.4,4.8,95.61,,3.2,,302.0,,1.38,,0.0,9.0,0.0,1012.3,"Light Rain",50.0826,8.2493,"50.0826,8.2493","50.0826,8.2493","","Rain"
"50.0826,8.2493","02/02/2020 10:00:00",5.6,5.6,5.6,5.3,98.33,,5.0,,302.0,4.8,1.54,,0.0,9.0,0.0,1011.2,"Light Rain",50.0826,8.2493,"50.0826,8.2493","50.0826,8.2493","","Rain"
"50.0826,8.2493","02/02/2020 11:00:00",6.4,6.4,6.4,6.3,98.94,,2.5,,210.0,,0.42,,0.0,9.2,0.0,1009.9,"Light Rain",50.0826,8.2493,"50.0826,8.2493","50.0826,8.2493","","Rain"
"50.0826,8.2493","02/02/2020 12:00:00",7.7,7.7,7.7,7.1,96.25,,5.1,,302.0,7.1,0.45,,0.0,8.2,0.0,1008.7,"Mist",50.0826,8.2493,"50.0826,8.2493","50.0826,8.2493","","Rain"
"50.0826,8.2493","02/02/2020 13:00:00",9.0,9.0,9.0,8.3,95.25,,3.1,,220.0,,0.0,,0.0,9.6,0.0,1008.1,"",50.0826,8.2493,"50.0826,8.2493","50.0826,8.2493","","Clear"
"50.0826,8.2493","02/02/2020 14:00:00",9.4,9.4,9.4,8.9,96.86,,3.7,,225.0,,0.0,,0.0,7.7,0.0,1007.3,"Mist",50.0826,8.2493,"50.0826,8.2493","50.0826,8.2493","","Clear"
"50.0826,8.2493","02/02/2020 15:00:00",10.1,10.1,10.1,9.7,97.25,,3.6,,234.0,,0.3,,0.0,9.7,0.0,1006.8,"",50.0826,8.2493,"50.0826,8.2493","50.0826,8.2493","","Rain"
"50.0826,8.2493","02/02/2020 16:00:00",12.5,12.5,12.5,10.0,84.5,,19.5,,225.0,,0.01,,0.0,15.0,0.0,1007.6,"",50.0826,8.2493,"50.0826,8.2493","50.0826,8.2493","","Rain"
"50.0826,8.2493","02/02/2020 17:00:00",13.7,13.7,13.7,8.7,71.91,,23.2,,227.0,,0.0,,0.0,15.7,0.0,1008.4,"",50.0826,8.2493,"50.0826,8.2493","50.0826,8.2493","","Clear"
"50.0826,8.2493","02/02/2020 18:00:00",13.0,13.0,13.0,7.5,69.3,,20.4,,229.0,,0.0,,0.0,13.7,0.0,1009.5,"",50.0826,8.2493,"50.0826,8.2493","50.0826,8.2493","","Clear"
"50.0826,8.2493","02/02/2020 19:00:00",12.7,12.7,12.7,7.3,69.6,,19.1,,237.0,,0.0,,0.0,13.7,0.0,1010.0,"",50.0826,8.2493,"50.0826,8.2493","50.0826,8.2493","","Clear"
"50.0826,8.2493","02/02/2020 20:00:00",12.2,12.2,12.2,6.5,68.11,,16.2,,237.0,,0.0,,0.0,16.4,30.0,1010.7,"",50.0826,8.2493,"50.0826,8.2493","50.0826,8.2493","","Partially cloudy"
"50.0826,8.2493","02/02/2020 21:00:00",12.1,12.1,12.1,6.5,68.86,,18.7,,245.0,,0.0,,0.0,13.7,0.0,1011.7,"",50.0826,8.2493,"50.0826,8.2493","50.0826,8.2493","","Clear"
"50.0826,8.2493","02/02/2020 22:00:00",11.9,11.9,11.9,6.0,66.97,,13.2,,237.0,,0.0,,0.0,13.7,0.0,1011.9,"",50.0826,8.2493,"50.0826,8.2493","50.0826,8.2493","","Clear"
"50.0826,8.2493","02/02/2020 23:00:00",11.6,11.6,11.6,5.8,67.21,,16.2,,237.0,,0.0,,0.0,16.0,0.0,1012.1,"",50.0826,8.2493,"50.0826,8.2493","50.0826,8.2493","","Clear"
"50.0826,8.2493","02/03/2020 00:00:00",11.2,11.2,11.2,5.6,68.52,,12.8,,247.0,,0.0,,0.0,41.2,50.0,1012.2,"",50.0826,8.2493,"50.0826,8.2493","50.0826,8.2493","","Partially cloudy"
"50.0826,8.2493","02/03/2020 01:00:00",10.7,10.7,10.7,5.8,71.83,,16.2,,246.0,,0.12,,0.0,13.1,0.0,1012.3,"",50.0826,8.2493,"50.0826,8.2493","50.0826,8.2493","","Rain"
"50.0826,8.2493","02/03/2020 02:00:00",8.8,8.8,8.8,6.2,83.47,,8.3,,238.0,7.5,0.36,,0.0,12.0,0.0,1013.2,"Light Rain",50.0826,8.2493,"50.0826,8.2493","50.0826,8.2493","","Rain"
"50.0826,8.2493","02/03/2020 03:00:00",8.3,8.3,8.3,7.1,92.48,,10.6,,242.0,6.5,0.44,,0.0,10.9,0.0,1013.2,"Light Rain",50.0826,8.2493,"50.0826,8.2493","50.0826,8.2493","","Rain"
"50.0826,8.2493","02/03/2020 04:00:00",8.7,8.7,8.7,6.7,87.31,,15.7,,249.0,6.2,0.44,,0.0,12.6,0.0,1013.0,"Light Rain",50.0826,8.2493,"50.0826,8.2493","50.0826,8.2493","","Rain"
"50.0826,8.2493","02/03/2020 05:00:00",8.7,8.7,8.7,6.7,87.38,,15.4,,250.0,6.3,0.1,,0.0,14.6,50.0,1013.3,"",50.0826,8.2493,"50.0826,8.2493","50.0826,8.2493","","Rain, Partially cloudy"
"50.0826,8.2493","02/03/2020 06:00:00",8.8,8.8,8.8,6.8,87.61,,10.9,,251.0,7.0,0.06,,0.0,11.8,50.0,1014.1,"",50.0826,8.2493,"50.0826,8.2493","50.0826,8.2493","","Rain, Partially cloudy"
"50.0826,8.2493","02/03/2020 07:00:00",8.8,8.8,8.8,6.8,86.86,,13.0,,243.0,6.7,0.13,,0.0,11.8,0.0,1013.7,"",50.0826,8.2493,"50.0826,8.2493","50.0826,8.2493","","Rain"
"50.0826,8.2493","02/03/2020 08:00:00",9.0,9.0,9.0,6.4,83.76,,11.5,,252.0,7.3,0.0,,0.0,12.6,0.0,1014.2,"",50.0826,8.2493,"50.0826,8.2493","50.0826,8.2493","","Clear"
"50.0826,8.2493","02/03/2020 09:00:00",9.0,9.0,9.0,5.9,80.63,,18.6,,268.0,6.3,0.0,,0.0,12.7,0.0,1014.7,"",50.0826,8.2493,"50.0826,8.2493","50.0826,8.2493","","Clear"
"50.0826,8.2493","02/03/2020 10:00:00",9.7,9.7,9.7,5.8,76.84,,21.9,,267.0,6.8,0.0,,0.0,12.8,50.0,1014.8,"",50.0826,8.2493,"50.0826,8.2493","50.0826,8.2493","","Partially cloudy"
"50.0826,8.2493","02/03/2020 11:00:00",10.6,10.6,10.6,6.0,73.15,,23.0,,267.0,,0.0,,0.0,14.7,50.0,1015.6,"",50.0826,8.2493,"50.0826,8.2493","50.0826,8.2493","","Partially cloudy"
"50.0826,8.2493","02/03/2020 12:00:00",11.1,11.1,11.1,5.0,66.24,,22.5,,267.0,,0.0,,0.0,15.3,0.0,1015.7,"",50.0826,8.2493,"50.0826,8.2493","50.0826,8.2493","","Clear"
"50.0826,8.2493","02/03/2020 13:00:00",11.1,11.1,11.1,4.8,65.08,,19.3,,285.0,,0.0,,0.0,15.1,0.0,1015.4,"",50.0826,8.2493,"50.0826,8.2493","50.0826,8.2493","","Clear"
"50.0826,8.2493","02/03/2020 14:00:00",11.1,11.1,11.1,4.8,64.96,,19.1,,286.0,,0.0,,0.0,15.7,0.0,1015.5,"",50.0826,8.2493,"50.0826,8.2493","50.0826,8.2493","","Clear"
"50.0826,8.2493","02/03/2020 15:00:00",11.1,11.1,11.1,4.8,65.31,,18.7,,285.0,,0.02,,0.0,14.5,0.0,1015.1,"",50.0826,8.2493,"50.0826,8.2493","50.0826,8.2493","","Rain"
"50.0826,8.2493","02/03/2020 16:00:00",11.0,11.0,11.0,4.8,65.56,,18.9,,284.0,,0.0,,0.0,15.0,0.0,1014.9,"",50.0826,8.2493,"50.0826,8.2493","50.0826,8.2493","","Clear"
"50.0826,8.2493","02/03/2020 17:00:00",10.9,10.9,10.9,4.7,65.63,,19.0,,285.0,,0.0,,0.0,15.4,0.0,1014.5,"",50.0826,8.2493,"50.0826,8.2493","50.0826,8.2493","","Clear"
"50.0826,8.2493","02/03/2020 18:00:00",10.0,10.0,10.0,4.8,69.88,,12.1,,282.0,,0.0,,0.0,15.3,0.0,1014.2,"",50.0826,8.2493,"50.0826,8.2493","50.0826,8.2493","","Clear"
"50.0826,8.2493","02/03/2020 19:00:00",10.0,10.0,10.0,5.4,73.19,,18.1,,265.0,7.5,0.0,,0.0,15.4,0.0,1013.8,"",50.0826,8.2493,"50.0826,8.2493","50.0826,8.2493","","Clear"
"50.0826,8.2493","02/03/2020 20:00:00",9.2,9.2,9.2,5.8,79.58,,18.1,,264.0,6.6,0.07,,0.0,7.6,0.0,1013.2,"Mist, Light Rain",50.0826,8.2493,"50.0826,8.2493","50.0826,8.2493","","Rain"
"50.0826,8.2493","02/03/2020 21:00:00",8.1,8.1,8.1,6.7,90.99,,5.0,,289.0,7.6,0.59,,0.0,8.2,0.0,1011.3,"Light Rain",50.0826,8.2493,"50.0826,8.2493","50.0826,8.2493","","Rain"
"50.0826,8.2493","02/03/2020 22:00:00",7.4,7.4,7.4,7.3,98.84,,1.7,,209.0,,2.36,,0.0,7.5,0.0,1008.8,"Light Rain",50.0826,8.2493,"50.0826,8.2493","50.0826,8.2493","","Rain"
"50.0826,8.2493","02/03/2020 23:00:00",7.2,7.2,7.2,7.0,98.93,,11.1,,229.0,5.1,3.45,,0.0,5.9,0.0,1006.7,"Rain",50.0826,8.2493,"50.0826,8.2493","50.0826,8.2493","","Rain"
"50.0826,8.2493","02/04/2020 00:00:00",6.6,6.6,6.6,6.0,96.46,,8.9,,309.0,4.8,2.94,,0.0,8.4,0.0,1004.1,"Rain",50.0826,8.2493,"50.0826,8.2493","50.0826,8.2493","","Rain"
"50.0826,8.2493","02/04/2020 01:00:00",6.0,6.0,6.0,4.9,92.67,,10.4,,321.0,3.8,3.81,,0.0,9.2,0.0,1003.1,"",50.0826,8.2493,"50.0826,8.2493","50.0826,8.2493","","Rain"
"50.0826,8.2493","02/04/2020 02:00:00",5.0,5.0,5.0,3.6,90.56,,18.3,,294.0,1.3,1.29,,0.0,8.8,0.0,1003.6,"Light Rain",50.0826,8.2493,"50.0826,8.2493","50.0826,8.2493","","Rain"
"50.0826,8.2493","02/04/2020 03:00:00",4.4,4.4,4.4,2.6,88.19,,15.8,,292.0,0.9,1.49,,0.0,10.1,0.0,1004.5,"Light Rain",50.0826,8.2493,"50.0826,8.2493","50.0826,8.2493","","Rain"
"50.0826,8.2493","02/04/2020 04:00:00",4.3,4.3,4.3,2.2,86.62,,19.5,,277.0,0.2,0.67,,0.0,10.9,0.0,1006.5,"Light Rain",50.0826,8.2493,"50.0826,8.2493","50.0826,8.2493","","Rain"
"50.0826,8.2493","02/04/2020 05:00:00",4.2,4.2,4.2,1.6,83.03,,12.8,,301.0,1.2,0.04,,0.0,11.8,0.0,1007.9,"",50.0826,8.2493,"50.0826,8.2493","50.0826,8.2493","","Rain"
"50.0826,8.2493","02/04/2020 06:00:00",3.6,3.6,3.6,2.0,89.55,,11.0,,297.0,0.8,0.15,,0.0,10.5,0.0,1010.0,"Light Drizzle",50.0826,8.2493,"50.0826,8.2493","50.0826,8.2493","","Rain"
"50.0826,8.2493","02/04/2020 07:00:00",4.0,4.0,4.0,0.9,80.17,,12.1,,293.0,1.0,0.16,,0.0,10.5,0.0,1011.4,"",50.0826,8.2493,"50.0826,8.2493","50.0826,8.2493","","Rain"
"50.0826,8.2493","02/04/2020 08:00:00",3.7,3.7,3.7,0.5,79.33,,13.7,,316.0,0.4,0.18,,0.0,10.7,0.0,1013.3,"",50.0826,8.2493,"50.0826,8.2493","50.0826,8.2493","","Rain"
"50.0826,8.2493","02/04/2020 09:00:00",3.4,3.4,3.4,0.6,81.89,,13.7,,286.0,0.1,0.0,,0.0,10.9,0.0,1014.3,"",50.0826,8.2493,"50.0826,8.2493","50.0826,8.2493","","Clear"
"50.0826,8.2493","02/04/2020 10:00:00",4.2,4.2,4.2,0.8,78.72,,15.8,,312.0,0.7,0.09,,0.0,10.0,50.0,1014.3,"",50.0826,8.2493,"50.0826,8.2493","50.0826,8.2493","","Rain, Partially cloudy"
"50.0826,8.2493","02/04/2020 11:00:00",3.9,3.9,3.9,0.9,80.65,,21.1,,321.0,-0.5,1.52,,0.0,8.4,0.0,1014.9,"Rain Showers",50.0826,8.2493,"50.0826,8.2493","50.0826,8.2493","","Rain"
"50.0826,8.2493","02/04/2020 12:00:00",5.0,5.0,5.0,0.9,74.74,,16.5,,302.0,1.6,0.04,,0.0,11.3,0.0,1014.9,"",50.0826,8.2493,"50.0826,8.2493","50.0826,8.2493","","Rain"
"50.0826,8.2493","02/04/2020 13:00:00",5.3,5.3,5.3,0.9,73.39,,19.2,,303.0,1.5,0.01,,0.0,10.9,0.0,1015.1,"",50.0826,8.2493,"50.0826,8.2493","50.0826,8.2493","","Rain"
"50.0826,8.2493","02/04/2020 14:00:00",4.0,4.0,4.0,1.8,85.43,,23.9,,298.0,-0.6,0.74,,0.0,11.8,0.0,1015.5,"",50.0826,8.2493,"50.0826,8.2493","50.0826,8.2493","","Rain"
"50.0826,8.2493","02/04/2020 15:00:00",4.7,4.7,4.7,0.2,72.75,,20.6,,309.0,0.6,0.07,,0.0,9.1,0.0,1015.9,"",50.0826,8.2493,"50.0826,8.2493","50.0826,8.2493","","Rain"
"50.0826,8.2493","02/04/2020 16:00:00",5.0,5.0,5.0,-0.1,69.86,,18.6,,282.0,1.2,0.01,,0.0,9.1,30.0,1016.1,"",50.0826,8.2493,"50.0826,8.2493","50.0826,8.2493","","Rain, Partially cloudy"
"50.0826,8.2493","02/04/2020 17:00:00",4.3,4.3,4.3,0.1,74.12,,20.0,,274.0,0.2,0.1,,0.0,10.0,0.0,1017.3,"",50.0826,8.2493,"50.0826,8.2493","50.0826,8.2493","","Rain"
"50.0826,8.2493","02/04/2020 18:00:00",3.6,3.6,3.6,1.0,82.65,,15.4,,267.0,0.0,0.14,,0.0,10.0,0.0,1018.7,"Light Rain",50.0826,8.2493,"50.0826,8.2493","50.0826,8.2493","","Rain"
"50.0826,8.2493","02/04/2020 19:00:00",3.5,3.5,3.5,1.3,85.27,,17.7,,262.0,-0.5,0.07,,0.0,10.9,0.0,1019.9,"",50.0826,8.2493,"50.0826,8.2493","50.0826,8.2493","","Rain"
"50.0826,8.2493","02/04/2020 20:00:00",3.7,3.7,3.7,1.2,83.78,,16.2,,288.0,0.0,0.07,,0.0,11.8,0.0,1020.8,"",50.0826,8.2493,"50.0826,8.2493","50.0826,8.2493","","Rain"
"50.0826,8.2493","02/04/2020 21:00:00",3.9,3.9,3.9,1.2,82.57,,12.0,,317.0,1.0,0.04,,0.0,11.8,0.0,1021.9,"",50.0826,8.2493,"50.0826,8.2493","50.0826,8.2493","","Rain"
"50.0826,8.2493","02/04/2020 22:00:00",3.1,3.1,3.1,1.0,86.0,,14.2,,300.0,-0.4,0.24,,0.0,20.5,,1022.8,"",50.0826,8.2493,"50.0826,8.2493","50.0826,8.2493","","Rain"
"50.0826,8.2493","02/04/2020 23:00:00",3.4,3.4,3.4,0.6,81.96,,9.9,,326.0,0.7,0.0,,0.0,11.8,50.0,1024.0,"",50.0826,8.2493,"50.0826,8.2493","50.0826,8.2493","","Partially cloudy"
"50.0826,8.2493","02/05/2020 00:00:00",3.7,3.7,3.7,0.4,79.09,,16.3,,319.0,-0.1,0.0,,0.0,11.8,0.0,1025.0,"",50.0826,8.2493,"50.0826,8.2493","50.0826,8.2493","","Clear"
"50.0826,8.2493","02/05/2020 01:00:00",3.6,3.6,3.6,0.0,77.53,,12.2,,304.0,0.5,0.0,,0.0,11.8,0.0,1026.0,"",50.0826,8.2493,"50.0826,8.2493","50.0826,8.2493","","Clear"
"50.0826,8.2493","02/05/2020 02:00:00",3.8,3.8,3.8,0.0,76.04,,12.0,,302.0,0.9,0.0,,0.0,11.8,0.0,1026.5,"",50.0826,8.2493,"50.0826,8.2493","50.0826,8.2493","","Clear"
"50.0826,8.2493","02/05/2020 03:00:00",4.0,4.0,4.0,0.2,76.5,,12.9,,305.0,0.8,0.0,,0.0,11.8,0.0,1027.2,"",50.0826,8.2493,"50.0826,8.2493","50.0826,8.2493","","Clear"
"50.0826,8.2493","02/05/2020 04:00:00",3.8,3.8,3.8,0.0,76.17,,12.8,,319.0,0.7,0.0,,0.0,11.8,0.0,1027.9,"",50.0826,8.2493,"50.0826,8.2493","50.0826,8.2493","","Clear"
"50.0826,8.2493","02/05/2020 05:00:00",3.8,3.8,3.8,-0.2,75.2,,8.5,,327.0,1.6,0.0,,0.0,12.6,0.0,1029.3,"",50.0826,8.2493,"50.0826,8.2493","50.0826,8.2493","","Clear"
"50.0826,8.2493","02/05/2020 06:00:00",3.5,3.5,3.5,-0.5,75.38,,10.7,,312.0,0.7,0.0,,0.0,11.8,46.6,1030.3,"",50.0826,8.2493,"50.0826,8.2493","50.0826,8.2493","","Partially cloudy"
"50.0826,8.2493","02/05/2020 07:00:00",3.1,3.1,3.1,-0.7,76.12,,20.0,,329.0,-1.3,0.0,,0.0,11.8,28.4,1031.4,"",50.0826,8.2493,"50.0826,8.2493","50.0826,8.2493","","Partially cloudy"
"50.0826,8.2493","02/05/2020 08:00:00",2.7,2.7,2.7,-1.2,75.45,,17.8,,338.0,-1.5,0.0,,0.0,11.9,1.2,1032.0,"",50.0826,8.2493,"50.0826,8.2493","50.0826,8.2493","","Clear"
"50.0826,8.2493","02/05/2020 09:00:00",2.9,2.9,2.9,-1.1,75.13,,9.0,,338.0,0.4,0.0,,0.0,12.5,1.2,1033.4,"",50.0826,8.2493,"50.0826,8.2493","50.0826,8.2493","","Clear"
"50.0826,8.2493","02/05/2020 10:00:00",3.9,3.9,3.9,-1.1,70.09,,6.9,,341.0,2.1,0.0,,0.0,14.2,1.1,1034.4,"",50.0826,8.2493,"50.0826,8.2493","50.0826,8.2493","","Clear"
"50.0826,8.2493","02/05/2020 11:00:00",4.6,4.6,4.6,-1.6,64.2,,14.2,,1.0,1.4,0.0,,0.0,13.7,2.2,1034.7,"",50.0826,8.2493,"50.0826,8.2493","50.0826,8.2493","","Clear"
"50.0826,8.2493","02/05/2020 12:00:00",5.6,5.6,5.6,-1.7,59.47,,6.6,,343.0,4.2,0.0,,0.0,14.1,1.1,1035.6,"",50.0826,8.2493,"50.0826,8.2493","50.0826,8.2493","","Clear"
"50.0826,8.2493","02/05/2020 13:00:00",6.2,6.2,6.2,-2.6,53.39,,10.7,,6.0,3.9,0.0,,0.0,15.0,1.1,1036.0,"",50.0826,8.2493,"50.0826,8.2493","50.0826,8.2493","","Clear"
"50.0826,8.2493","02/05/2020 14:00:00",6.7,6.7,6.7,-1.5,55.64,,12.5,,343.0,4.3,0.0,,0.0,11.4,1.1,1036.3,"",50.0826,8.2493,"50.0826,8.2493","50.0826,8.2493","","Clear"
"50.0826,8.2493","02/05/2020 15:00:00",6.7,6.7,6.7,-2.6,51.42,,12.6,,2.0,4.2,0.0,,0.0,12.0,1.1,1036.0,"",50.0826,8.2493,"50.0826,8.2493","50.0826,8.2493","","Clear"
"50.0826,8.2493","02/05/2020 16:00:00",6.5,6.5,6.5,-3.1,50.15,,7.5,,359.0,5.1,0.0,,0.0,11.7,0.0,1036.0,"",50.0826,8.2493,"50.0826,8.2493","50.0826,8.2493","","Clear"
"50.0826,8.2493","02/05/2020 17:00:00",6.1,6.1,6.1,-3.7,49.61,,1.6,,300.0,,0.0,,0.0,11.6,1.1,1036.3,"",50.0826,8.2493,"50.0826,8.2493","50.0826,8.2493","","Clear"
"50.0826,8.2493","02/05/2020 18:00:00",3.6,3.6,3.6,-2.9,62.37,,5.6,,359.0,2.3,0.0,,0.0,11.5,1.1,1036.4,"",50.0826,8.2493,"50.0826,8.2493","50.0826,8.2493","","Clear"
"50.0826,8.2493","02/05/2020 19:00:00",2.1,2.1,2.1,-2.7,70.29,,7.3,,359.0,0.0,0.0,,0.0,11.8,2.2,1036.5,"",50.0826,8.2493,"50.0826,8.2493","50.0826,8.2493","","Clear"
"50.0826,8.2493","02/05/2020 20:00:00",1.4,1.4,1.4,-3.0,72.46,,1.2,,254.0,,0.0,,0.0,11.2,1.2,1036.5,"",50.0826,8.2493,"50.0826,8.2493","50.0826,8.2493","","Clear"
"50.0826,8.2493","02/05/2020 21:00:00",0.7,0.7,0.7,-3.0,76.53,,7.6,,321.0,-1.8,0.0,,0.0,14.6,1.2,1037.2,"",50.0826,8.2493,"50.0826,8.2493","50.0826,8.2493","","Clear"
"50.0826,8.2493","02/05/2020 22:00:00",0.0,0.0,0.0,-3.0,80.2,,1.3,,249.0,,0.0,,0.0,15.1,0.0,1036.9,"",50.0826,8.2493,"50.0826,8.2493","50.0826,8.2493","","Clear"
"50.0826,8.2493","02/05/2020 23:00:00",-0.6,-0.6,-0.6,-2.8,85.42,,1.6,,233.0,,0.0,,0.0,14.9,0.0,1036.5,"",50.0826,8.2493,"50.0826,8.2493","50.0826,8.2493","","Clear"
"50.0826,8.2493","02/06/2020 00:00:00",-0.1,-0.1,-0.1,-3.0,81.06,,1.1,,238.0,,0.0,,0.0,13.2,1.1,1036.5,"",50.0826,8.2493,"50.0826,8.2493","50.0826,8.2493","","Clear"
"50.0826,8.2493","02/06/2020 01:00:00",-0.9,-0.9,-0.9,-3.0,85.75,,1.2,,233.0,,0.0,,0.0,14.4,0.0,1035.8,"",50.0826,8.2493,"50.0826,8.2493","50.0826,8.2493","","Clear"
"50.0826,8.2493","02/06/2020 02:00:00",-0.4,-0.4,-0.4,-2.2,88.14,,5.5,,318.0,-2.3,0.0,,0.0,11.9,0.0,1035.5,"",50.0826,8.2493,"50.0826,8.2493","50.0826,8.2493","","Clear"
"50.0826,8.2493","02/06/2020 03:00:00",-0.7,-0.7,-0.7,-2.4,88.14,,1.2,,47.0,,0.0,,0.0,12.0,50.0,1035.2,"",50.0826,8.2493,"50.0826,8.2493","50.0826,8.2493","","Partially cloudy"
"50.0826,8.2493","02/06/2020 04:00:00",-1.3,-1.3,-1.3,-2.7,90.05,,1.0,,243.0,,0.0,,0.0,12.5,0.0,1034.8,"",50.0826,8.2493,"50.0826,8.2493","50.0826,8.2493","","Clear"
"50.0826,8.2493","02/06/2020 05:00:00",-1.2,-1.2,-1.2,-2.3,92.22,,5.6,,321.0,-3.2,0.0,,0.0,11.2,0.0,1034.2,"",50.0826,8.2493,"50.0826,8.2493","50.0826,8.2493","","Clear"
"50.0826,8.2493","02/06/2020 06:00:00",-1.7,-1.7,-1.7,-2.5,94.33,,0.8,,248.0,,0.0,,0.0,11.3,0.0,1034.6,"",50.0826,8.2493,"50.0826,8.2493","50.0826,8.2493","","Clear"
"50.0826,8.2493","02/06/2020 07:00:00",-1.8,-1.8,-1.8,-2.7,93.01,,5.7,,315.0,-3.9,0.0,,0.0,10.8,0.0,1033.9,"",50.0826,8.2493,"50.0826,8.2493","50.0826,8.2493","","Clear"
"50.0826,8.2493","02/06/2020 08:00:00",-2.5,-2.5,-2.5,-3.3,94.27,,5.8,,251.0,-4.8,0.0,,0.0,10.3,50.0,1034.0,"",50.0826,8.2493,"50.0826,8.2493","50.0826,8.2493","","Partially cloudy"
"50.0826,8.2493","02/06/2020 09:00:00",-1.2,-1.2,-1.2,-2.2,92.52,,1.6,,253.0,,0.0,,0.0,10.3,0.0,1033.7,"",50.0826,8.2493,"50.0826,8.2493","50.0826,8.2493","","Clear"
"50.0826,8.2493","02/06/2020 10:00:00",0.1,0.1,0.1,-1.2,91.38,,1.1,,268.0,,0.0,,0.0,10.3,0.0,1034.3,"",50.0826,8.2493,"50.0826,8.2493","50.0826,8.2493","","Clear"
"50.0826,8.2493","02/06/2020 11:00:00",1.2,1.2,1.2,-0.5,88.32,,0.9,,253.0,,0.0,,0.0,10.4,0.0,1034.3,"",50.0826,8.2493,"50.0826,8.2493","50.0826,8.2493","","Clear"
"50.0826,8.2493","02/06/2020 12:00:00",2.3,2.3,2.3,-0.3,82.48,,0.9,,269.0,,0.0,,0.0,10.4,0.0,1033.9,"",50.0826,8.2493,"50.0826,8.2493","50.0826,8.2493","","Clear"
"50.0826,8.2493","02/06/2020 13:00:00",3.4,3.4,3.4,-0.4,76.27,,0.6,,47.0,,0.0,,0.0,11.2,0.0,1033.6,"",50.0826,8.2493,"50.0826,8.2493","50.0826,8.2493","","Clear"
"50.0826,8.2493","02/06/2020 14:00:00",4.0,4.0,4.0,-0.4,73.12,,5.1,,224.0,2.9,0.0,,0.0,12.0,0.0,1033.2,"",50.0826,8.2493,"50.0826,8.2493","50.0826,8.2493","","Clear"
"50.0826,8.2493","02/06/2020 15:00:00",3.9,3.9,3.9,-0.9,70.8,,5.4,,99.0,2.8,0.0,,0.0,12.3,0.0,1032.9,"",50.0826,8.2493,"50.0826,8.2493","50.0826,8.2493","","Clear"
"50.0826,8.2493","02/06/2020 16:00:00",3.9,3.9,3.9,-1.1,69.82,,1.1,,10.0,,0.0,,0.0,12.8,0.0,1032.9,"",50.0826,8.2493,"50.0826,8.2493","50.0826,8.2493","","Clear"
"50.0826,8.2493","02/06/2020 17:00:00",3.5,3.5,3.5,-1.2,71.24,,5.8,,106.0,2.1,0.0,,0.0,12.6,0.0,1032.9,"",50.0826,8.2493,"50.0826,8.2493","50.0826,8.2493","","Clear"
"50.0826,8.2493","02/06/2020 18:00:00",1.9,1.9,1.9,-1.8,76.12,,5.4,,109.0,0.4,0.0,,0.0,12.1,1.2,1032.6,"",50.0826,8.2493,"50.0826,8.2493","50.0826,8.2493","","Clear"
"50.0826,8.2493","02/06/2020 19:00:00",0.7,0.7,0.7,-1.8,83.2,,0.9,,254.0,,0.0,,0.0,12.1,1.1,1032.6,"",50.0826,8.2493,"50.0826,8.2493","50.0826,8.2493","","Clear"
"50.0826,8.2493","02/06/2020 20:00:00",0.4,0.4,0.4,-2.1,83.27,,0.5,,47.0,,0.0,,0.0,12.3,1.1,1032.3,"",50.0826,8.2493,"50.0826,8.2493","50.0826,8.2493","","Clear"
"50.0826,8.2493","02/06/2020 21:00:00",-0.4,-0.4,-0.4,-2.2,87.32,,4.9,,30.0,-1.9,0.0,,0.0,12.9,0.0,1032.3,"",50.0826,8.2493,"50.0826,8.2493","50.0826,8.2493","","Clear"
"50.0826,8.2493","02/06/2020 22:00:00",-0.6,-0.6,-0.6,-2.3,88.2,,7.6,,35.0,-3.3,0.0,,0.0,12.4,0.0,1032.3,"",50.0826,8.2493,"50.0826,8.2493","50.0826,8.2493","","Clear"
"50.0826,8.2493","02/06/2020 23:00:00",-1.0,-1.0,-1.0,-2.4,89.98,,5.4,,34.0,-2.9,0.0,,0.0,11.1,0.0,1032.2,"",50.0826,8.2493,"50.0826,8.2493","50.0826,8.2493","","Clear"
"50.0826,8.2493","02/07/2020 00:00:00",-1.2,-1.2,-1.2,-2.7,89.4,,1.6,,70.0,,0.0,,0.0,10.8,0.0,1032.2,"",50.0826,8.2493,"50.0826,8.2493","50.0826,8.2493","","Clear"
"50.0826,8.2493","02/07/2020 01:00:00",-2.1,-2.1,-2.1,-2.9,94.07,,1.9,,60.0,,0.0,,0.0,10.4,1.1,1032.2,"",50.0826,8.2493,"50.0826,8.2493","50.0826,8.2493","","Clear"
"50.0826,8.2493","02/07/2020 02:00:00",-2.1,-2.1,-2.1,-3.0,93.42,,1.3,,60.0,,0.0,,0.0,10.2,1.2,1031.9,"",50.0826,8.2493,"50.0826,8.2493","50.0826,8.2493","","Clear"
"50.0826,8.2493","02/07/2020 03:00:00",-2.2,-2.2,-2.2,-2.9,94.54,,1.6,,80.0,,0.0,,0.0,10.4,0.0,1031.6,"",50.0826,8.2493,"50.0826,8.2493","50.0826,8.2493","","Clear"
"50.0826,8.2493","02/07/2020 04:00:00",-1.8,-1.8,-1.8,-2.9,92.12,,6.9,,63.0,-4.5,0.0,,0.0,10.9,0.0,1031.2,"",50.0826,8.2493,"50.0826,8.2493","50.0826,8.2493","","Clear"
"50.0826,8.2493","02/07/2020 05:00:00",-1.7,-1.7,-1.7,-3.1,90.36,,6.6,,71.0,-4.2,0.0,,0.0,10.8,0.0,1031.2,"",50.0826,8.2493,"50.0826,8.2493","50.0826,8.2493","","Clear"
"50.0826,8.2493","02/07/2020 06:00:00",-1.7,-1.7,-1.7,-3.1,90.05,,2.4,,95.0,,0.0,,0.0,10.9,0.0,1030.9,"",50.0826,8.2493,"50.0826,8.2493","50.0826,8.2493","","Clear"
"50.0826,8.2493","02/07/2020 07:00:00",-2.6,-2.6,-2.6,-3.8,91.33,,3.0,,95.0,,0.0,,0.0,11.3,0.0,1031.0,"",50.0826,8.2493,"50.0826,8.2493","50.0826,8.2493","","Clear"
"50.0826,8.2493","02/07/2020 08:00:00",-1.7,-1.7,-1.7,-2.9,91.92,,7.6,,25.0,-4.6,0.0,,0.0,10.2,2.2,1030.9,"",50.0826,8.2493,"50.0826,8.2493","50.0826,8.2493","","Clear"
"50.0826,8.2493","02/07/2020 09:00:00",-0.2,-0.2,-0.2,-2.4,85.05,,8.0,,82.0,-3.0,0.0,,0.0,10.3,1.2,1030.9,"",50.0826,8.2493,"50.0826,8.2493","50.0826,8.2493","","Clear"
"50.0826,8.2493","02/07/2020 10:00:00",1.5,1.5,1.5,-2.3,75.74,,16.0,,65.0,-2.7,0.0,,0.0,12.2,1.1,1030.9,"",50.0826,8.2493,"50.0826,8.2493","50.0826,8.2493","","Clear"
"50.0826,8.2493","02/07/2020 11:00:00",2.6,2.6,2.6,-2.3,70.18,,19.5,,73.0,-1.9,0.0,,0.0,12.6,1.1,1030.5,"",50.0826,8.2493,"50.0826,8.2493","50.0826,8.2493","","Clear"
"50.0826,8.2493","02/07/2020 12:00:00",3.5,3.5,3.5,-2.1,66.89,,22.3,,83.0,-1.2,0.0,,0.0,13.9,1.1,1029.8,"",50.0826,8.2493,"50.0826,8.2493","50.0826,8.2493","","Clear"
"50.0826,8.2493","02/07/2020 13:00:00",4.3,4.3,4.3,-2.1,63.08,,17.7,,91.0,0.5,0.0,,0.0,13.7,1.1,1029.1,"",50.0826,8.2493,"50.0826,8.2493","50.0826,8.2493","","Clear"
"50.0826,8.2493","02/07/2020 14:00:00",5.1,5.1,5.1,-1.8,61.08,,20.5,,74.0,1.1,0.0,,0.0,12.4,1.1,1028.1,"",50.0826,8.2493,"50.0826,8.2493","50.0826,8.2493","","Clear"
"50.0826,8.2493","02/07/2020 15:00:00",5.7,5.7,5.7,-1.9,58.27,,14.9,,74.0,2.6,0.0,,0.0,12.4,1.1,1027.8,"",50.0826,8.2493,"50.0826,8.2493","50.0826,8.2493","","Clear"
"50.0826,8.2493","02/07/2020 16:00:00",5.6,5.6,5.6,-2.1,57.91,,16.7,,83.0,2.2,0.0,,0.0,13.2,1.1,1027.0,"",50.0826,8.2493,"50.0826,8.2493","50.0826,8.2493","","Clear"
"50.0826,8.2493","02/07/2020 17:00:00",4.7,4.7,4.7,-2.1,61.02,,14.0,,91.0,1.6,0.0,,0.0,12.5,1.1,1026.7,"",50.0826,8.2493,"50.0826,8.2493","50.0826,8.2493","","Clear"
"50.0826,8.2493","02/07/2020 18:00:00",3.0,3.0,3.0,-2.0,69.96,,12.4,,81.0,-0.2,0.0,,0.0,12.1,1.1,1026.8,"",50.0826,8.2493,"50.0826,8.2493","50.0826,8.2493","","Clear"
"50.0826,8.2493","02/07/2020 19:00:00",2.7,2.7,2.7,-2.0,71.27,,17.4,,73.0,-1.5,0.0,,0.0,11.3,0.0,1026.9,"",50.0826,8.2493,"50.0826,8.2493","50.0826,8.2493","","Clear"
"50.0826,8.2493","02/07/2020 20:00:00",2.2,2.2,2.2,-2.0,73.61,,17.8,,73.0,-2.1,0.0,,0.0,11.0,0.0,1026.8,"",50.0826,8.2493,"50.0826,8.2493","50.0826,8.2493","","Clear"
"50.0826,8.2493","02/07/2020 21:00:00",1.7,1.7,1.7,-2.2,74.92,,19.4,,74.0,-3.0,0.0,,0.0,10.9,0.0,1026.5,"",50.0826,8.2493,"50.0826,8.2493","50.0826,8.2493","","Clear"
"50.0826,8.2493","02/07/2020 22:00:00",1.5,1.5,1.5,-2.2,76.61,,16.0,,74.0,-2.8,0.0,,0.0,10.9,0.0,1026.1,"",50.0826,8.2493,"50.0826,8.2493","50.0826,8.2493","","Clear"
"50.0826,8.2493","02/07/2020 23:00:00",1.3,1.3,1.3,-2.4,76.45,,14.2,,73.0,-2.6,0.0,,0.0,10.9,0.0,1025.6,"",50.0826,8.2493,"50.0826,8.2493","50.0826,8.2493","","Clear"
"50.0826,8.2493","02/08/2020 00:00:00",0.6,0.6,0.6,-2.6,79.0,,15.0,,63.0,-3.7,0.0,,0.0,10.9,0.0,1025.6,"",50.0826,8.2493,"50.0826,8.2493","50.0826,8.2493","","Clear"
"50.0826,8.2493","02/08/2020 01:00:00",0.3,0.3,0.3,-2.6,80.82,,6.7,,31.0,-2.0,0.0,,0.0,10.8,0.0,1025.6,"",50.0826,8.2493,"50.0826,8.2493","50.0826,8.2493","","Clear"
"50.0826,8.2493","02/08/2020 02:00:00",0.2,0.2,0.2,-2.8,79.82,,1.9,,99.0,,0.0,,0.0,11.8,0.0,1025.3,"",50.0826,8.2493,"50.0826,8.2493","50.0826,8.2493","","Clear"
"50.0826,8.2493","02/08/2020 03:00:00",-0.5,-0.5,-0.5,-3.0,83.19,,1.8,,93.0,,0.0,,0.0,11.7,0.0,1025.3,"",50.0826,8.2493,"50.0826,8.2493","50.0826,8.2493","","Clear"
"50.0826,8.2493","02/08/2020 04:00:00",-1.0,-1.0,-1.0,-3.0,86.25,,6.1,,302.0,-3.1,0.0,,0.0,11.4,0.0,1025.0,"",50.0826,8.2493,"50.0826,8.2493","50.0826,8.2493","","Clear"
"50.0826,8.2493","02/08/2020 05:00:00",-1.2,-1.2,-1.2,-3.1,86.68,,1.5,,93.0,,0.0,,0.0,10.8,0.0,1025.0,"",50.0826,8.2493,"50.0826,8.2493","50.0826,8.2493","","Clear"
"50.0826,8.2493","02/08/2020 06:00:00",-1.7,-1.7,-1.7,-3.3,89.09,,1.5,,241.0,,0.0,,0.0,10.4,0.0,1025.1,"",50.0826,8.2493,"50.0826,8.2493","50.0826,8.2493","","Clear"
"50.0826,8.2493","02/08/2020 07:00:00",-2.2,-2.2,-2.2,-3.7,89.07,,1.4,,164.0,,0.0,,0.0,10.6,0.0,1025.2,"",50.0826,8.2493,"50.0826,8.2493","50.0826,8.2493","","Clear"
"50.0826,8.2493","02/08/2020 08:00:00",-1.9,-1.9,-1.9,-3.2,91.04,,1.4,,195.0,,0.0,,0.0,10.2,0.0,1025.5,"",50.0826,8.2493,"50.0826,8.2493","50.0826,8.2493","","Clear"
"50.0826,8.2493","02/08/2020 09:00:00",-0.5,-0.5,-0.5,-2.5,86.25,,1.4,,180.0,,0.0,,0.0,12.1,0.0,1025.8,"",50.0826,8.2493,"50.0826,8.2493","50.0826,8.2493","","Clear"
"50.0826,8.2493","02/08/2020 10:00:00",0.5,0.5,0.5,-1.9,83.91,,5.8,,89.0,-1.4,0.0,,0.0,11.8,0.0,1025.7,"",50.0826,8.2493,"50.0826,8.2493","50.0826,8.2493","","Clear"
"50.0826,8.2493","02/08/2020 11:00:00",1.8,1.8,1.8,-1.6,78.51,,1.3,,215.0,,0.0,,0.0,12.5,0.0,1025.7,"",50.0826,8.2493,"50.0826,8.2493","50.0826,8.2493","","Clear"
"50.0826,8.2493","02/08/2020 12:00:00",2.3,2.3,2.3,-1.2,77.82,,1.6,,200.0,,0.0,,0.0,12.3,30.0,1025.7,"",50.0826,8.2493,"50.0826,8.2493","50.0826,8.2493","","Partially cloudy"
"50.0826,8.2493","02/08/2020 13:00:00",2.5,2.5,2.5,-1.1,76.87,,1.3,,220.0,,0.0,,0.0,11.6,0.0,1025.4,"",50.0826,8.2493,"50.0826,8.2493","50.0826,8.2493","","Clear"
"50.0826,8.2493","02/08/2020 14:00:00",3.2,3.2,3.2,-0.9,74.77,,1.5,,210.0,,0.0,,0.0,11.7,0.0,1025.0,"",50.0826,8.2493,"50.0826,8.2493","50.0826,8.2493","","Clear"
"50.0826,8.2493","02/08/2020 15:00:00",3.3,3.3,3.3,-0.7,74.95,,1.8,,215.0,,0.0,,0.0,11.8,0.0,1024.7,"",50.0826,8.2493,"50.0826,8.2493","50.0826,8.2493","","Clear"
"50.0826,8.2493","02/08/2020 16:00:00",3.4,3.4,3.4,-0.6,75.16,,2.0,,246.0,,0.0,,0.0,11.9,0.0,1024.4,"",50.0826,8.2493,"50.0826,8.2493","50.0826,8.2493","","Clear"
"50.0826,8.2493","02/08/2020 17:00:00",3.5,3.5,3.5,-0.2,76.59,,2.3,,251.0,,0.0,,0.0,12.2,0.0,1024.4,"",50.0826,8.2493,"50.0826,8.2493","50.0826,8.2493","","Clear"
"50.0826,8.2493","02/08/2020 18:00:00",3.4,3.4,3.4,-0.2,77.47,,1.8,,230.0,,0.0,,0.0,12.2,0.0,1024.4,"",50.0826,8.2493,"50.0826,8.2493","50.0826,8.2493","","Clear"
"50.0826,8.2493","02/08/2020 19:00:00",3.4,3.4,3.4,-0.1,78.08,,6.2,,329.0,1.8,0.0,,0.0,12.1,0.0,1024.4,"",50.0826,8.2493,"50.0826,8.2493","50.0826,8.2493","","Clear"
"50.0826,8.2493","02/08/2020 20:00:00",3.2,3.2,3.2,0.3,81.31,,1.6,,185.0,,0.0,,0.0,12.5,0.0,1024.4,"",50.0826,8.2493,"50.0826,8.2493","50.0826,8.2493","","Clear"
"50.0826,8.2493","02/08/2020 21:00:00",3.2,3.2,3.2,0.2,80.58,,1.9,,225.0,,0.0,,0.0,11.7,0.0,1024.4,"",50.0826,8.2493,"50.0826,8.2493","50.0826,8.2493","","Clear"
"50.0826,8.2493","02/08/2020 22:00:00",2.8,2.8,2.8,0.2,82.9,,1.8,,194.0,,0.0,,0.0,12.2,0.0,1024.7,"",50.0826,8.2493,"50.0826,8.2493","50.0826,8.2493","","Clear"
"50.0826,8.2493","02/08/2020 23:00:00",2.0,2.0,2.0,-0.2,85.21,,2.4,,179.0,,0.0,,0.0,12.0,0.0,1024.4,"",50.0826,8.2493,"50.0826,8.2493","50.0826,8.2493","","Clear"
"50.0826,8.2493","02/09/2020 00:00:00",1.6,1.6,1.6,-0.1,88.46,,2.0,,159.0,,0.0,,0.0,12.1,0.0,1023.7,"",50.0826,8.2493,"50.0826,8.2493","50.0826,8.2493","","Clear"
"50.0826,8.2493","02/09/2020 01:00:00",0.9,0.9,0.9,-0.7,89.45,,2.0,,230.0,,0.0,,0.0,12.0,50.0,1024.0,"",50.0826,8.2493,"50.0826,8.2493","50.0826,8.2493","","Partially cloudy"
"50.0826,8.2493","02/09/2020 02:00:00",0.9,0.9,0.9,-0.2,92.52,,1.9,,292.0,,0.0,,0.0,11.9,1.2,1023.0,"",50.0826,8.2493,"50.0826,8.2493","50.0826,8.2493","","Clear"
"50.0826,8.2493","02/09/2020 03:00:00",0.6,0.6,0.6,-0.2,94.18,,2.1,,215.0,,0.0,,0.0,11.4,0.0,1023.0,"",50.0826,8.2493,"50.0826,8.2493","50.0826,8.2493","","Clear"
"50.0826,8.2493","02/09/2020 04:00:00",0.7,0.7,0.7,-0.2,93.21,,1.9,,148.0,,0.0,,0.0,10.7,0.0,1022.7,"",50.0826,8.2493,"50.0826,8.2493","50.0826,8.2493","","Clear"
"50.0826,8.2493","02/09/2020 05:00:00",0.7,0.7,0.7,-0.2,94.25,,6.8,,113.0,-1.5,0.0,,0.0,9.9,0.0,1022.1,"",50.0826,8.2493,"50.0826,8.2493","50.0826,8.2493","","Clear"
"50.0826,8.2493","02/09/2020 06:00:00",0.7,0.7,0.7,0.0,94.73,,6.2,,106.0,-1.3,0.0,,0.0,9.7,0.0,1022.0,"",50.0826,8.2493,"50.0826,8.2493","50.0826,8.2493","","Clear"
"50.0826,8.2493","02/09/2020 07:00:00",1.0,1.0,1.0,0.2,94.92,,8.2,,107.0,-1.7,0.0,,0.0,9.9,0.0,1021.6,"",50.0826,8.2493,"50.0826,8.2493","50.0826,8.2493","","Clear"
"50.0826,8.2493","02/09/2020 08:00:00",0.8,0.8,0.8,0.1,95.07,,8.4,,88.0,-1.9,0.0,,0.0,9.2,0.0,1021.0,"",50.0826,8.2493,"50.0826,8.2493","50.0826,8.2493","","Clear"
"50.0826,8.2493","02/09/2020 09:00:00",1.5,1.5,1.5,0.4,92.91,,2.1,,220.0,,0.0,,0.0,9.4,0.0,1019.9,"",50.0826,8.2493,"50.0826,8.2493","50.0826,8.2493","","Clear"
"50.0826,8.2493","02/09/2020 10:00:00",3.0,3.0,3.0,1.3,88.47,,3.4,,200.0,,0.0,,0.0,11.8,0.0,1019.2,"",50.0826,8.2493,"50.0826,8.2493","50.0826,8.2493","","Clear"
"50.0826,8.2493","02/09/2020 11:00:00",4.6,4.6,4.6,2.0,83.13,,3.9,,205.0,,0.0,,0.0,11.8,0.0,1018.8,"",50.0826,8.2493,"50.0826,8.2493","50.0826,8.2493","","Clear"
"50.0826,8.2493","02/09/2020 12:00:00",7.3,7.3,7.3,3.2,75.34,,26.1,,218.0,3.4,0.0,,0.0,12.3,0.0,1016.9,"",50.0826,8.2493,"50.0826,8.2493","50.0826,8.2493","","Clear"
"50.0826,8.2493","02/09/2020 13:00:00",10.1,10.1,10.1,4.3,67.54,,29.1,,226.0,,0.0,,0.0,13.9,0.0,1014.9,"",50.0826,8.2493,"50.0826,8.2493","50.0826,8.2493","","Clear"
"50.0826,8.2493","02/09/2020 14:00:00",10.7,10.7,10.7,4.1,63.42,,30.4,47.9,234.0,,0.0,,0.0,13.1,30.0,1013.6,"",50.0826,8.2493,"50.0826,8.2493","50.0826,8.2493","","Partially cloudy"
"50.0826,8.2493","02/09/2020 15:00:00",10.8,10.8,10.8,3.8,61.59,,28.4,,227.0,,0.0,,0.0,10.0,30.0,1012.2,"",50.0826,8.2493,"50.0826,8.2493","50.0826,8.2493","","Partially cloudy"
"50.0826,8.2493","02/09/2020 16:00:00",11.1,11.1,11.1,3.9,61.35,,36.3,,217.0,,0.0,,0.0,10.0,0.0,1009.8,"",50.0826,8.2493,"50.0826,8.2493","50.0826,8.2493","","Clear"
"50.0826,8.2493","02/09/2020 17:00:00",11.2,11.2,11.2,4.0,61.0,,26.3,,218.0,,0.0,,0.0,13.5,0.0,1008.5,"",50.0826,8.2493,"50.0826,8.2493","50.0826,8.2493","","Clear"
"50.0826,8.2493","02/09/2020 18:00:00",11.5,11.5,11.5,3.4,57.62,,32.3,,227.0,,0.0,,0.0,10.0,0.0,1007.4,"",50.0826,8.2493,"50.0826,8.2493","50.0826,8.2493","","Clear"
"50.0826,8.2493","02/09/2020 19:00:00",11.4,11.4,11.4,3.6,58.83,,36.5,,228.0,,0.0,,0.0,13.5,0.0,1005.7,"",50.0826,8.2493,"50.0826,8.2493","50.0826,8.2493","","Clear"
"50.0826,8.2493","02/09/2020 20:00:00",11.7,11.7,11.7,4.3,60.49,,38.2,,227.0,,0.0,,0.0,10.0,0.0,1004.0,"",50.0826,8.2493,"50.0826,8.2493","50.0826,8.2493","","Clear"
"50.0826,8.2493","02/09/2020 21:00:00",11.6,11.6,11.6,4.9,63.24,,36.5,,227.0,,0.03,,0.0,14.0,0.0,1002.2,"",50.0826,8.2493,"50.0826,8.2493","50.0826,8.2493","","Rain"
"50.0826,8.2493","02/09/2020 22:00:00",11.8,11.8,11.8,5.1,63.67,,40.4,,236.0,,0.01,,0.0,15.3,0.0,1001.2,"",50.0826,8.2493,"50.0826,8.2493","50.0826,8.2493","","Rain"
"50.0826,8.2493","02/09/2020 23:00:00",11.7,11.7,11.7,5.6,66.13,,40.7,,236.0,,0.0,,0.0,16.5,0.0,999.8,"",50.0826,8.2493,"50.0826,8.2493","50.0826,8.2493","","Clear"
"50.0826,8.2493","02/10/2020 00:00:00",11.5,11.5,11.5,5.7,67.23,,40.8,,237.0,,0.0,,0.0,13.7,0.0,997.6,"",50.0826,8.2493,"50.0826,8.2493","50.0826,8.2493","","Clear"
"50.0826,8.2493","02/10/2020 01:00:00",11.2,11.2,11.2,6.2,71.38,,52.6,,237.0,,0.0,,0.0,14.6,0.0,995.9,"",50.0826,8.2493,"50.0826,8.2493","50.0826,8.2493","","Clear"
"50.0826,8.2493","02/10/2020 02:00:00",10.8,10.8,10.8,6.9,76.89,,45.7,,237.0,,0.01,,0.0,12.6,0.0,994.8,"",50.0826,8.2493,"50.0826,8.2493","50.0826,8.2493","","Rain"
"50.0826,8.2493","02/10/2020 03:00:00",9.9,9.9,9.9,8.0,87.87,,42.4,,239.0,5.8,1.06,,0.0,11.8,0.0,994.2,"Rain",50.0826,8.2493,"50.0826,8.2493","50.0826,8.2493","","Rain"
"50.0826,8.2493","02/10/2020 04:00:00",8.2,8.2,8.2,5.8,85.11,,35.8,,269.0,3.8,7.29,,0.0,8.8,50.0,995.6,"Light Rain",50.0826,8.2493,"50.0826,8.2493","50.0826,8.2493","","Rain, Partially cloudy"
"50.0826,8.2493","02/10/2020 05:00:00",8.8,8.8,8.8,5.2,78.23,,39.9,,260.0,4.4,0.29,,0.0,12.0,50.0,995.6,"Light Rain",50.0826,8.2493,"50.0826,8.2493","50.0826,8.2493","","Rain, Partially cloudy"
"50.0826,8.2493","02/10/2020 06:00:00",8.3,8.3,8.3,5.6,82.97,,28.0,,258.0,4.5,0.28,,0.0,10.8,0.0,995.9,"Light Rain",50.0826,8.2493,"50.0826,8.2493","50.0826,8.2493","","Rain"
"50.0826,8.2493","02/10/2020 07:00:00",7.7,7.7,7.7,5.4,85.47,,23.8,,292.0,4.1,1.88,,0.0,10.5,0.0,997.3,"Light Rain",50.0826,8.2493,"50.0826,8.2493","50.0826,8.2493","","Rain"
"50.0826,8.2493","02/10/2020 08:00:00",7.4,7.4,7.4,3.7,77.14,,20.5,,285.0,4.1,0.59,,0.0,12.3,0.0,998.0,"",50.0826,8.2493,"50.0826,8.2493","50.0826,8.2493","","Rain"
"50.0826,8.2493","02/10/2020 09:00:00",8.6,8.6,8.6,2.3,64.75,,41.9,,277.0,3.9,0.22,,0.0,14.3,0.0,999.0,"",50.0826,8.2493,"50.0826,8.2493","50.0826,8.2493","","Rain"
"50.0826,8.2493","02/10/2020 10:00:00",6.3,6.3,6.3,2.0,74.27,,37.5,,270.0,1.1,1.23,,0.0,12.8,30.0,1001.4,"",50.0826,8.2493,"50.0826,8.2493","50.0826,8.2493","","Rain, Partially cloudy"
"50.0826,8.2493","02/10/2020 11:00:00",8.1,8.1,8.1,0.4,58.3,,40.4,,277.0,3.4,0.0,,0.0,16.0,30.0,1002.7,"",50.0826,8.2493,"50.0826,8.2493","50.0826,8.2493","","Partially cloudy"
"50.0826,8.2493","02/10/2020 12:00:00",8.9,8.9,8.9,0.0,53.73,,39.4,,278.0,4.6,0.24,,0.0,14.4,50.0,1003.7,"",50.0826,8.2493,"50.0826,8.2493","50.0826,8.2493","","Rain, Partially cloudy"
"50.0826,8.2493","02/10/2020 13:00:00",4.6,4.6,4.6,1.7,81.21,,30.2,,288.0,-0.4,1.1,,0.0,8.7,0.0,1005.6,"Light Rain",50.0826,8.2493,"50.0826,8.2493","50.0826,8.2493","","Rain"
"50.0826,8.2493","02/10/2020 14:00:00",7.6,7.6,7.6,0.8,61.91,,34.7,,269.0,3.2,0.04,,0.0,14.8,50.0,1005.8,"Light Rain",50.0826,8.2493,"50.0826,8.2493","50.0826,8.2493","","Rain, Partially cloudy"
"50.0826,8.2493","02/10/2020 15:00:00",6.9,6.9,6.9,2.1,71.42,,26.8,,243.0,2.8,0.15,,0.0,9.9,30.0,1006.0,"",50.0826,8.2493,"50.0826,8.2493","50.0826,8.2493","","Rain, Partially cloudy"
"50.0826,8.2493","02/10/2020 16:00:00",7.7,7.7,7.7,0.2,59.01,,38.2,,242.0,3.1,0.22,,0.0,14.0,0.0,1006.3,"",50.0826,8.2493,"50.0826,8.2493","50.0826,8.2493","","Rain"
"50.0826,8.2493","02/10/2020 17:00:00",6.4,6.4,6.4,1.5,71.07,,32.6,63.0,232.0,1.7,0.0,,0.0,14.7,30.0,1005.9,"Light Rain",50.0826,8.2493,"50.0826,8.2493","50.0826,8.2493","","Partially cloudy"
"50.0826,8.2493","02/10/2020 18:00:00",5.6,5.6,5.6,2.8,81.85,,18.7,47.9,222.0,2.0,0.22,,0.0,10.0,50.0,1005.3,"Light Rain",50.0826,8.2493,"50.0826,8.2493","50.0826,8.2493","","Rain, Partially cloudy"
"50.0826,8.2493","02/10/2020 19:00:00",5.0,5.0,5.0,3.3,88.53,,14.1,,212.0,1.9,0.52,,0.0,10.0,30.0,1003.4,"Light Rain",50.0826,8.2493,"50.0826,8.2493","50.0826,8.2493","","Rain, Partially cloudy"
"50.0826,8.2493","02/10/2020 20:00:00",5.1,5.1,5.1,3.6,90.22,,12.9,,210.0,2.2,0.37,,0.0,10.5,30.0,1001.3,"Light Rain",50.0826,8.2493,"50.0826,8.2493","50.0826,8.2493","","Rain, Partially cloudy"
"50.0826,8.2493","02/10/2020 21:00:00",5.4,5.4,5.4,3.2,85.77,,32.6,,239.0,0.3,0.91,,0.0,11.3,0.0,999.5,"",50.0826,8.2493,"50.0826,8.2493","50.0826,8.2493","","Rain"
"50.0826,8.2493","02/10/2020 22:00:00",6.1,6.1,6.1,3.0,80.59,,29.0,,265.0,1.5,0.13,,0.0,12.7,50.0,999.9,"",50.0826,8.2493,"50.0826,8.2493","50.0826,8.2493","","Rain, Partially cloudy"
"50.0826,8.2493","02/10/2020 23:00:00",6.6,6.6,6.6,1.7,70.69,,39.4,,249.0,1.5,0.0,,0.0,11.9,50.0,998.8,"",50.0826,8.2493,"50.0826,8.2493","50.0826,8.2493","","Partially cloudy"
"50.0826,8.2493","02/11/2020 00:00:00",6.8,6.8,6.8,0.7,65.4,,33.7,,259.0,2.1,0.0,,0.0,13.7,0.0,998.8,"",50.0826,8.2493,"50.0826,8.2493","50.0826,8.2493","","Clear"
"50.0826,8.2493","02/11/2020 01:00:00",6.8,6.8,6.8,-0.5,59.66,,43.9,,276.0,1.5,0.0,,0.0,10.0,0.0,999.6,"",50.0826,8.2493,"50.0826,8.2493","50.0826,8.2493","","Clear"
"50.0826,8.2493","02/11/2020 02:00:00",5.8,5.8,5.8,-1.7,58.63,,26.8,,269.0,1.4,0.04,,0.0,10.0,0.0,1001.6,"",50.0826,8.2493,"50.0826,8.2493","50.0826,8.2493","","Rain"
"50.0826,8.2493","02/11/2020 03:00:00",5.6,5.6,5.6,-3.0,53.98,,28.9,,278.0,1.0,0.0,,0.0,10.0,30.0,1003.2,"",50.0826,8.2493,"50.0826,8.2493","50.0826,8.2493","","Partially cloudy"
"50.0826,8.2493","02/11/2020 04:00:00",5.3,5.3,5.3,-2.6,56.91,,31.9,,269.0,0.2,0.07,,0.0,10.0,0.0,1004.2,"",50.0826,8.2493,"50.0826,8.2493","50.0826,8.2493","","Rain"
"50.0826,8.2493","02/11/2020 05:00:00",4.9,4.9,4.9,-2.6,58.25,,28.1,,268.0,0.1,0.0,,0.0,10.0,50.0,1005.2,"",50.0826,8.2493,"50.0826,8.2493","50.0826,8.2493","","Partially cloudy"
"50.0826,8.2493","02/11/2020 06:00:00",4.5,4.5,4.5,-1.2,66.57,,24.9,,258.0,-0.1,0.0,,0.0,13.7,50.0,1006.0,"",50.0826,8.2493,"50.0826,8.2493","50.0826,8.2493","","Partially cloudy"
"50.0826,8.2493","02/11/2020 07:00:00",4.9,4.9,4.9,-2.5,58.5,,40.0,,276.0,-0.8,0.02,,0.0,13.7,50.0,1006.4,"",50.0826,8.2493,"50.0826,8.2493","50.0826,8.2493","","Rain, Partially cloudy"
"50.0826,8.2493","02/11/2020 08:00:00",4.1,4.1,4.1,-1.8,65.26,,23.1,76.0,270.0,-0.4,0.0,,0.0,12.8,0.0,1006.8,"",50.0826,8.2493,"50.0826,8.2493","50.0826,8.2493","","Clear"
"50.0826,8.2493","02/11/2020 09:00:00",4.1,4.1,4.1,-1.1,68.53,,41.8,,258.0,-2.0,0.0,,0.0,11.9,0.0,1007.5,"Light Rain",50.0826,8.2493,"50.0826,8.2493","50.0826,8.2493","","Clear"
"50.0826,8.2493","02/11/2020 10:00:00",4.7,4.7,4.7,-0.6,68.22,,29.8,,259.0,-0.3,0.04,,0.0,12.8,0.0,1007.8,"",50.0826,8.2493,"50.0826,8.2493","50.0826,8.2493","","Rain"
"50.0826,8.2493","02/11/2020 11:00:00",5.6,5.6,5.6,-1.3,60.81,,30.8,,267.0,0.8,0.01,,0.0,15.4,0.0,1008.1,"",50.0826,8.2493,"50.0826,8.2493","50.0826,8.2493","","Rain"
"50.0826,8.2493","02/11/2020 12:00:00",6.3,6.3,6.3,-3.0,51.72,,41.1,,252.0,0.9,0.0,,0.0,15.8,30.0,1008.4,"",50.0826,8.2493,"50.0826,8.2493","50.0826,8.2493","","Partially cloudy"
"50.0826,8.2493","02/11/2020 13:00:00",5.2,5.2,5.2,-1.2,63.25,,25.1,,280.0,0.8,0.0,,0.0,15.7,0.0,1008.1,"Light Rain",50.0826,8.2493,"50.0826,8.2493","50.0826,8.2493","","Clear"
"50.0826,8.2493","02/11/2020 14:00:00",6.4,6.4,6.4,-1.3,57.88,,40.2,,262.0,1.2,0.03,,0.0,9.7,50.0,1008.1,"",50.0826,8.2493,"50.0826,8.2493","50.0826,8.2493","","Rain, Partially cloudy"
"50.0826,8.2493","02/11/2020 15:00:00",5.2,5.2,5.2,-1.7,61.16,,21.4,60.8,277.0,1.2,0.05,,0.0,13.6,50.0,1008.5,"Light Rain",50.0826,8.2493,"50.0826,8.2493","50.0826,8.2493","","Rain, Partially cloudy"
"50.0826,8.2493","02/11/2020 16:00:00",5.0,5.0,5.0,-1.8,61.41,,46.5,,288.0,-1.1,0.18,,0.0,10.8,50.0,1008.8,"Light Rain",50.0826,8.2493,"50.0826,8.2493","50.0826,8.2493","","Rain, Partially cloudy"
"50.0826,8.2493","02/11/2020 17:00:00",4.9,4.9,4.9,-1.2,64.58,,22.9,72.0,268.0,0.6,0.03,,0.0,13.6,30.0,1009.5,"",50.0826,8.2493,"50.0826,8.2493","50.0826,8.2493","","Rain, Partially cloudy"
"50.0826,8.2493","02/11/2020 18:00:00",4.4,4.4,4.4,-1.3,66.41,,25.7,,258.0,-0.3,0.0,,0.0,15.3,30.0,1009.5,"",50.0826,8.2493,"50.0826,8.2493","50.0826,8.2493","","Partially cloudy"
"50.0826,8.2493","02/11/2020 19:00:00",3.7,3.7,3.7,-1.0,71.48,,28.1,,249.0,-1.5,0.0,,0.0,15.3,0.0,1010.2,"",50.0826,8.2493,"50.0826,8.2493","50.0826,8.2493","","Clear"
"50.0826,8.2493","02/11/2020 20:00:00",3.6,3.6,3.6,-1.9,67.2,,25.8,,258.0,-1.3,0.0,,0.0,15.4,0.0,1011.0,"",50.0826,8.2493,"50.0826,8.2493","50.0826,8.2493","","Clear"
"50.0826,8.2493","02/11/2020 21:00:00",3.5,3.5,3.5,-2.4,65.54,,31.0,,277.0,-2.0,0.41,,0.0,12.2,50.0,1012.0,"",50.0826,8.2493,"50.0826,8.2493","50.0826,8.2493","","Rain, Partially cloudy"
"50.0826,8.2493","02/11/2020 22:00:00",3.4,3.4,3.4,-2.8,63.73,,24.1,,268.0,-1.4,0.09,,0.0,12.0,0.0,1012.6,"",50.0826,8.2493,"50.0826,8.2493","50.0826,8.2493","","Rain"
"50.0826,8.2493","02/11/2020 23:00:00",3.1,3.1,3.1,-2.6,66.0,,22.5,,261.0,-1.6,0.0,,0.0,12.4,1.2,1013.3,"",50.0826,8.2493,"50.0826,8.2493","50.0826,8.2493","","Clear"
"50.0826,8.2493","02/12/2020 00:00:00",3.0,3.0,3.0,-2.5,67.37,,22.6,,251.0,-1.8,0.0,,0.0,12.6,28.4,1014.0,"",50.0826,8.2493,"50.0826,8.2493","50.0826,8.2493","","Partially cloudy"
"50.0826,8.2493","02/12/2020 01:00:00",3.0,3.0,3.0,-2.2,68.39,,22.0,,259.0,-1.6,0.0,,0.0,14.3,0.0,1014.4,"",50.0826,8.2493,"50.0826,8.2493","50.0826,8.2493","","Clear"
"50.0826,8.2493","02/12/2020 02:00:00",2.9,2.9,2.9,-2.0,70.27,,18.5,,257.0,-1.4,0.0,,0.0,15.6,50.0,1014.2,"",50.0826,8.2493,"50.0826,8.2493","50.0826,8.2493","","Partially cloudy"
"50.0826,8.2493","02/12/2020 03:00:00",3.1,3.1,3.1,-2.4,67.24,,21.0,,258.0,-1.4,0.0,,0.0,15.3,30.0,1014.3,"",50.0826,8.2493,"50.0826,8.2493","50.0826,8.2493","","Partially cloudy"
"50.0826,8.2493","02/12/2020 04:00:00",3.1,3.1,3.1,-2.4,67.43,,19.0,,249.0,-1.2,0.0,,0.0,15.1,0.0,1014.6,"",50.0826,8.2493,"50.0826,8.2493","50.0826,8.2493","","Clear"
"50.0826,8.2493","02/12/2020 05:00:00",3.2,3.2,3.2,-2.1,68.22,,20.7,,241.0,-1.3,0.0,,0.0,15.3,0.0,1014.6,"",50.0826,8.2493,"50.0826,8.2493","50.0826,8.2493","","Clear"
"50.0826,8.2493","02/12/2020 06:00:00",3.5,3.5,3.5,-1.9,67.92,,24.0,,241.0,-1.3,0.0,,0.0,15.5,0.0,1015.0,"",50.0826,8.2493,"50.0826,8.2493","50.0826,8.2493","","Clear"
"50.0826,8.2493","02/12/2020 07:00:00",3.5,3.5,3.5,-1.7,68.86,,22.4,,249.0,-1.1,0.0,,0.0,15.4,0.0,1015.0,"",50.0826,8.2493,"50.0826,8.2493","50.0826,8.2493","","Clear"
"50.0826,8.2493","02/12/2020 08:00:00",3.3,3.3,3.3,-1.3,71.63,,27.3,,241.0,-1.9,0.01,,0.0,14.5,0.0,1015.4,"",50.0826,8.2493,"50.0826,8.2493","50.0826,8.2493","","Rain"
"50.0826,8.2493","02/12/2020 09:00:00",3.5,3.5,3.5,-1.0,72.25,,24.2,,267.0,-1.3,0.0,,0.0,15.1,0.0,1016.4,"",50.0826,8.2493,"50.0826,8.2493","50.0826,8.2493","","Clear"
"50.0826,8.2493","02/12/2020 10:00:00",4.1,4.1,4.1,-1.0,69.42,,23.1,,268.0,-0.4,0.0,,0.0,15.8,50.0,1016.7,"",50.0826,8.2493,"50.0826,8.2493","50.0826,8.2493","","Partially cloudy"
"50.0826,8.2493","02/12/2020 11:00:00",4.8,4.8,4.8,-0.6,68.22,,26.2,,259.0,0.2,0.0,,0.0,16.6,50.0,1016.7,"",50.0826,8.2493,"50.0826,8.2493","50.0826,8.2493","","Partially cloudy"
"50.0826,8.2493","02/12/2020 12:00:00",3.9,3.9,3.9,0.7,79.85,,22.3,,270.0,-0.6,0.34,,0.0,10.6,50.0,1017.4,"",50.0826,8.2493,"50.0826,8.2493","50.0826,8.2493","","Rain, Partially cloudy"
"50.0826,8.2493","02/12/2020 13:00:00",5.0,5.0,5.0,0.0,70.04,,30.3,,268.0,0.1,0.02,,0.0,13.5,0.0,1017.0,"",50.0826,8.2493,"50.0826,8.2493","50.0826,8.2493","","Rain"
"50.0826,8.2493","02/12/2020 14:00:00",5.0,5.0,5.0,-0.3,68.52,,23.6,,277.0,0.7,0.01,,0.0,11.4,0.0,1017.0,"",50.0826,8.2493,"50.0826,8.2493","50.0826,8.2493","","Rain"
"50.0826,8.2493","02/12/2020 15:00:00",4.1,4.1,4.1,-0.2,73.77,,31.2,,267.0,-1.2,0.12,,0.0,10.8,50.0,1017.4,"Light Rain",50.0826,8.2493,"50.0826,8.2493","50.0826,8.2493","","Rain, Partially cloudy"
"50.0826,8.2493","02/12/2020 16:00:00",4.5,4.5,4.5,0.3,74.54,,24.6,,267.0,-0.1,0.12,,0.0,11.9,27.3,1017.4,"",50.0826,8.2493,"50.0826,8.2493","50.0826,8.2493","","Rain, Partially cloudy"
"50.0826,8.2493","02/12/2020 17:00:00",3.9,3.9,3.9,-0.1,75.09,,21.9,,267.0,-0.5,0.0,,0.0,16.1,0.0,1017.8,"",50.0826,8.2493,"50.0826,8.2493","50.0826,8.2493","","Clear"
"50.0826,8.2493","02/12/2020 18:00:00",3.4,3.4,3.4,-0.7,74.75,,18.7,,267.0,-0.8,0.0,,0.0,16.0,50.0,1017.8,"",50.0826,8.2493,"50.0826,8.2493","50.0826,8.2493","","Partially cloudy"
"50.0826,8.2493","02/12/2020 19:00:00",2.9,2.9,2.9,-0.7,77.02,,18.6,,277.0,-1.3,0.0,,0.0,15.8,0.0,1018.8,"",50.0826,8.2493,"50.0826,8.2493","50.0826,8.2493","","Clear"
"50.0826,8.2493","02/12/2020 20:00:00",2.2,2.2,2.2,-0.3,83.52,,16.7,,276.0,-2.0,0.0,,0.0,15.6,0.0,1019.5,"",50.0826,8.2493,"50.0826,8.2493","50.0826,8.2493","","Clear"
"50.0826,8.2493","02/12/2020 21:00:00",1.1,1.1,1.1,-0.7,87.72,,10.1,,252.0,-2.0,0.0,,0.0,12.6,1.2,1019.9,"",50.0826,8.2493,"50.0826,8.2493","50.0826,8.2493","","Clear"
"50.0826,8.2493","02/12/2020 22:00:00",0.4,0.4,0.4,-1.3,88.57,,8.1,,243.0,-2.3,0.0,,0.0,9.2,0.0,1020.2,"",50.0826,8.2493,"50.0826,8.2493","50.0826,8.2493","","Clear"
"50.0826,8.2493","02/12/2020 23:00:00",0.0,0.0,0.0,-1.5,89.69,,1.5,,209.0,,0.0,,0.0,9.4,0.0,1020.2,"",50.0826,8.2493,"50.0826,8.2493","50.0826,8.2493","","Clear"
"50.0826,8.2493","02/13/2020 00:00:00",0.3,0.3,0.3,-1.0,90.99,,6.3,,265.0,-1.8,0.0,,0.0,13.9,0.0,1020.6,"",50.0826,8.2493,"50.0826,8.2493","50.0826,8.2493","","Clear"
"50.0826,8.2493","02/13/2020 01:00:00",0.0,0.0,0.0,-1.0,92.88,,1.7,,214.0,,0.0,,0.0,12.6,0.0,1020.5,"",50.0826,8.2493,"50.0826,8.2493","50.0826,8.2493","","Clear"
"50.0826,8.2493","02/13/2020 02:00:00",0.1,0.1,0.1,-1.0,91.85,,1.4,,219.0,,0.0,,0.0,14.7,0.0,1019.5,"",50.0826,8.2493,"50.0826,8.2493","50.0826,8.2493","","Clear"
"50.0826,8.2493","02/13/2020 03:00:00",-0.4,-0.4,-0.4,-1.3,94.03,,1.2,,235.0,,0.0,,0.0,12.8,1.2,1019.3,"",50.0826,8.2493,"50.0826,8.2493","50.0826,8.2493","","Clear"
"50.0826,8.2493","02/13/2020 04:00:00",-0.9,-0.9,-0.9,-1.5,95.29,,6.4,,116.0,-3.2,0.0,,0.0,10.5,0.0,1018.6,"",50.0826,8.2493,"50.0826,8.2493","50.0826,8.2493","","Clear"
"50.0826,8.2493","02/13/2020 05:00:00",-0.2,-0.2,-0.2,-0.8,95.69,,2.3,,235.0,,0.0,,0.0,9.4,0.0,1017.6,"",50.0826,8.2493,"50.0826,8.2493","50.0826,8.2493","","Clear"
"50.0826,8.2493","02/13/2020 06:00:00",0.5,0.5,0.5,-0.1,95.92,,1.8,,225.0,,0.0,,0.0,9.4,0.0,1017.1,"",50.0826,8.2493,"50.0826,8.2493","50.0826,8.2493","","Clear"
"50.0826,8.2493","02/13/2020 07:00:00",0.6,0.6,0.6,-0.1,95.3,,6.3,,32.0,-1.4,0.0,,0.0,9.6,50.0,1016.2,"",50.0826,8.2493,"50.0826,8.2493","50.0826,8.2493","","Partially cloudy"
"50.0826,8.2493","02/13/2020 08:00:00",0.0,0.0,0.0,-0.4,96.74,,7.7,,57.0,-2.6,0.0,,0.0,9.6,0.0,1014.8,"",50.0826,8.2493,"50.0826,8.2493","50.0826,8.2493","","Clear"
"50.0826,8.2493","02/13/2020 09:00:00",0.8,0.8,0.8,0.4,97.42,,6.7,,96.0,-1.3,0.0,,0.0,10.0,0.0,1013.5,"",50.0826,8.2493,"50.0826,8.2493","50.0826,8.2493","","Clear"
"50.0826,8.2493","02/13/2020 10:00:00",1.3,1.3,1.3,0.3,93.26,,6.6,,132.0,-0.7,0.0,,0.0,10.9,0.0,1011.9,"",50.0826,8.2493,"50.0826,8.2493","50.0826,8.2493","","Clear"
"50.0826,8.2493","02/13/2020 11:00:00",2.1,2.1,2.1,0.3,87.46,,12.4,,145.0,-1.3,0.0,,0.0,11.4,0.0,1010.4,"",50.0826,8.2493,"50.0826,8.2493","50.0826,8.2493","","Clear"
"50.0826,8.2493","02/13/2020 12:00:00",3.3,3.3,3.3,0.2,80.29,,20.5,,169.0,-1.2,0.0,,0.0,13.7,0.0,1008.4,"",50.0826,8.2493,"50.0826,8.2493","50.0826,8.2493","","Clear"
"50.0826,8.2493","02/13/2020 13:00:00",3.8,3.8,3.8,0.1,77.02,,12.4,,188.0,0.8,0.0,,0.0,10.6,0.0,1006.7,"Light Rain",50.0826,8.2493,"50.0826,8.2493","50.0826,8.2493","","Clear"
"50.0826,8.2493","02/13/2020 14:00:00",3.2,3.2,3.2,1.0,85.9,,19.3,,197.0,-1.1,0.91,,0.0,8.9,0.0,1005.6,"",50.0826,8.2493,"50.0826,8.2493","50.0826,8.2493","","Rain"
"50.0826,8.2493","02/13/2020 15:00:00",3.0,3.0,3.0,1.8,92.18,,15.5,,197.0,-0.8,1.1,,0.0,9.1,0.0,1004.6,"Light Rain",50.0826,8.2493,"50.0826,8.2493","50.0826,8.2493","","Rain"
"50.0826,8.2493","02/13/2020 16:00:00",3.5,3.5,3.5,2.4,92.34,,16.5,,180.0,-0.3,0.09,,0.0,9.9,0.0,1002.6,"Light Rain",50.0826,8.2493,"50.0826,8.2493","50.0826,8.2493","","Rain"
"50.0826,8.2493","02/13/2020 17:00:00",4.1,4.1,4.1,2.9,91.8,,2.5,,200.0,,0.01,,0.0,9.9,0.0,1002.6,"",50.0826,8.2493,"50.0826,8.2493","50.0826,8.2493","","Rain"
"50.0826,8.2493","02/13/2020 18:00:00",4.0,4.0,4.0,2.9,92.56,,9.6,,186.0,1.5,0.0,,0.0,9.9,0.0,1002.5,"",50.0826,8.2493,"50.0826,8.2493","50.0826,8.2493","","Clear"
"50.0826,8.2493","02/13/2020 19:00:00",4.7,4.7,4.7,2.4,85.25,,15.0,,217.0,1.4,0.0,,0.0,12.6,0.0,1002.8,"",50.0826,8.2493,"50.0826,8.2493","50.0826,8.2493","","Clear"
"50.0826,8.2493","02/13/2020 20:00:00",4.3,4.3,4.3,2.6,88.97,,15.4,,209.0,0.8,0.0,,0.0,12.6,0.0,1003.2,"",50.0826,8.2493,"50.0826,8.2493","50.0826,8.2493","","Clear"
"50.0826,8.2493","02/13/2020 21:00:00",4.1,4.1,4.1,3.2,94.05,,10.5,,183.0,1.4,0.88,,0.0,9.7,0.0,1002.9,"Light Rain",50.0826,8.2493,"50.0826,8.2493","50.0826,8.2493","","Rain"
"50.0826,8.2493","02/13/2020 22:00:00",4.0,4.0,4.0,3.6,97.49,,10.7,,166.0,1.3,1.12,,0.0,10.9,0.0,1003.2,"",50.0826,8.2493,"50.0826,8.2493","50.0826,8.2493","","Rain"
"50.0826,8.2493","02/13/2020 23:00:00",4.3,4.3,4.3,3.9,97.11,,2.5,,220.0,,0.06,,0.0,10.9,0.0,1003.8,"",50.0826,8.2493,"50.0826,8.2493","50.0826,8.2493","","Rain"
"50.0826,8.2493","02/14/2020 00:00:00",4.2,4.2,4.2,3.8,97.74,,7.3,,265.0,2.4,0.28,,0.0,10.0,0.0,1005.2,"",50.0826,8.2493,"50.0826,8.2493","50.0826,8.2493","","Rain"
"50.0826,8.2493","02/14/2020 01:00:00",5.4,5.4,5.4,4.5,93.46,,19.9,,287.0,1.7,0.09,,0.0,10.9,0.0,1006.8,"Light Rain",50.0826,8.2493,"50.0826,8.2493","50.0826,8.2493","","Rain"
"50.0826,8.2493","02/14/2020 02:00:00",5.9,5.9,5.9,3.5,84.88,,20.2,,288.0,2.1,0.08,,0.0,12.2,0.0,1008.8,"",50.0826,8.2493,"50.0826,8.2493","50.0826,8.2493","","Rain"
"50.0826,8.2493","02/14/2020 03:00:00",5.9,5.9,5.9,3.3,83.23,,16.9,,287.0,2.6,0.0,,0.0,9.1,0.0,1010.6,"",50.0826,8.2493,"50.0826,8.2493","50.0826,8.2493","","Clear"
"50.0826,8.2493","02/14/2020 04:00:00",5.7,5.7,5.7,2.9,82.56,,21.6,,278.0,1.7,0.0,,0.0,9.1,30.0,1011.6,"",50.0826,8.2493,"50.0826,8.2493","50.0826,8.2493","","Partially cloudy"
"50.0826,8.2493","02/14/2020 05:00:00",5.4,5.4,5.4,2.8,83.82,,15.1,,276.0,2.2,0.0,,0.0,9.1,0.0,1013.3,"Light Rain",50.0826,8.2493,"50.0826,8.2493","50.0826,8.2493","","Clear"
"50.0826,8.2493","02/14/2020 06:00:00",4.6,4.6,4.6,3.1,90.57,,10.2,,235.0,2.1,0.09,,0.0,9.1,0.0,1015.0,"",50.0826,8.2493,"50.0826,8.2493","50.0826,8.2493","","Rain"
"50.0826,8.2493","02/14/2020 07:00:00",4.9,4.9,4.9,3.0,87.93,,14.8,,266.0,1.6,0.0,,0.0,9.1,0.0,1015.9,"",50.0826,8.2493,"50.0826,8.2493","50.0826,8.2493","","Clear"
"50.0826,8.2493","02/14/2020 08:00:00",4.4,4.4,4.4,2.9,89.88,,15.1,,265.0,1.1,0.07,,0.0,11.3,50.0,1017.4,"",50.0826,8.2493,"50.0826,8.2493","50.0826,8.2493","","Rain, Partially cloudy"
"50.0826,8.2493","02/14/2020 09:00:00",5.5,5.5,5.5,2.3,79.89,,21.6,,292.0,1.5,0.06,,0.0,11.8,0.0,1018.7,"",50.0826,8.2493,"50.0826,8.2493","50.0826,8.2493","","Rain"
"50.0826,8.2493","02/14/2020 10:00:00",6.0,6.0,6.0,1.9,75.27,,13.8,,285.0,3.2,0.0,,0.0,11.8,0.0,1020.0,"",50.0826,8.2493,"50.0826,8.2493","50.0826,8.2493","","Clear"
"50.0826,8.2493","02/14/2020 11:00:00",6.6,6.6,6.6,1.8,71.32,,20.6,,288.0,3.1,0.0,,0.0,11.8,0.0,1021.4,"",50.0826,8.2493,"50.0826,8.2493","50.0826,8.2493","","Clear"
"50.0826,8.2493","02/14/2020 12:00:00",7.0,7.0,7.0,1.7,68.89,,20.4,,279.0,3.6,0.0,,0.0,12.6,0.0,1022.0,"",50.0826,8.2493,"50.0826,8.2493","50.0826,8.2493","","Clear"
"50.0826,8.2493","02/14/2020 13:00:00",6.7,6.7,6.7,1.6,70.17,,20.2,,262.0,3.2,0.0,,0.0,12.9,0.0,1022.7,"",50.0826,8.2493,"50.0826,8.2493","50.0826,8.2493","","Clear"
"50.0826,8.2493","02/14/2020 14:00:00",6.6,6.6,6.6,1.3,69.0,,15.3,,279.0,3.7,0.0,,0.0,12.7,0.0,1023.0,"",50.0826,8.2493,"50.0826,8.2493","50.0826,8.2493","","Clear"
"50.0826,8.2493","02/14/2020 15:00:00",6.8,6.8,6.8,1.3,67.97,,14.6,,271.0,4.0,0.0,,0.0,11.5,0.0,1023.7,"",50.0826,8.2493,"50.0826,8.2493","50.0826,8.2493","","Clear"
"50.0826,8.2493","02/14/2020 16:00:00",6.9,6.9,6.9,1.1,66.24,,13.1,,295.0,4.4,0.0,,0.0,11.5,0.0,1024.0,"",50.0826,8.2493,"50.0826,8.2493","50.0826,8.2493","","Clear"
"50.0826,8.2493","02/14/2020 17:00:00",7.0,7.0,7.0,1.2,66.31,,9.3,,287.0,5.2,0.0,,0.0,11.8,0.0,1024.0,"",50.0826,8.2493,"50.0826,8.2493","50.0826,8.2493","","Clear"
"50.0826,8.2493","02/14/2020 18:00:00",5.9,5.9,5.9,1.5,72.92,,1.1,,224.0,,0.0,,0.0,11.7,0.0,1024.8,"",50.0826,8.2493,"50.0826,8.2493","50.0826,8.2493","","Clear"
"50.0826,8.2493","02/14/2020 19:00:00",5.0,5.0,5.0,1.3,77.23,,1.7,,219.0,,0.0,,0.0,15.2,50.0,1025.4,"",50.0826,8.2493,"50.0826,8.2493","50.0826,8.2493","","Partially cloudy"
"50.0826,8.2493","02/14/2020 20:00:00",4.2,4.2,4.2,1.2,80.52,,1.2,,234.0,,0.0,,0.0,15.8,0.0,1026.2,"",50.0826,8.2493,"50.0826,8.2493","50.0826,8.2493","","Clear"
"50.0826,8.2493","02/14/2020 21:00:00",3.5,3.5,3.5,1.2,84.75,,1.0,,286.0,,0.0,,0.0,14.9,0.0,1026.5,"",50.0826,8.2493,"50.0826,8.2493","50.0826,8.2493","","Clear"
"50.0826,8.2493","02/14/2020 22:00:00",3.4,3.4,3.4,1.7,88.68,,8.0,,255.0,1.3,0.0,,0.0,35.7,,1026.6,"",50.0826,8.2493,"50.0826,8.2493","50.0826,8.2493","","Clear"
"50.0826,8.2493","02/14/2020 23:00:00",3.3,3.3,3.3,1.5,88.23,,1.5,,220.0,,0.0,,0.0,13.1,0.0,1026.7,"",50.0826,8.2493,"50.0826,8.2493","50.0826,8.2493","","Clear"
"50.0826,8.2493","02/15/2020 00:00:00",2.7,2.7,2.7,1.5,91.89,,1.6,,230.0,,0.0,,0.0,11.8,0.0,1026.9,"",50.0826,8.2493,"50.0826,8.2493","50.0826,8.2493","","Clear"
"50.0826,8.2493","02/15/2020 01:00:00",2.0,2.0,2.0,1.1,94.07,,1.2,,240.0,,0.0,,0.0,10.9,0.0,1026.2,"",50.0826,8.2493,"50.0826,8.2493","50.0826,8.2493","","Clear"
"50.0826,8.2493","02/15/2020 02:00:00",1.9,1.9,1.9,1.3,95.51,,1.5,,184.0,,0.0,,0.0,10.5,0.0,1026.3,"",50.0826,8.2493,"50.0826,8.2493","50.0826,8.2493","","Clear"
"50.0826,8.2493","02/15/2020 03:00:00",1.9,1.9,1.9,1.2,94.82,,1.5,,158.0,,0.0,,0.0,10.0,0.0,1025.9,"",50.0826,8.2493,"50.0826,8.2493","50.0826,8.2493","","Clear"
"50.0826,8.2493","02/15/2020 04:00:00",1.9,1.9,1.9,1.5,96.94,,1.6,,241.0,,0.0,,0.0,9.7,30.0,1025.2,"",50.0826,8.2493,"50.0826,8.2493","50.0826,8.2493","","Partially cloudy"
"50.0826,8.2493","02/15/2020 05:00:00",1.3,1.3,1.3,0.9,97.05,,1.4,,200.0,,0.0,,0.0,9.4,30.0,1024.9,"",50.0826,8.2493,"50.0826,8.2493","50.0826,8.2493","","Partially cloudy"
"50.0826,8.2493","02/15/2020 06:00:00",1.0,1.0,1.0,0.7,97.84,,2.0,,225.0,,0.0,,0.0,9.2,0.0,1025.0,"",50.0826,8.2493,"50.0826,8.2493","50.0826,8.2493","","Clear"
"50.0826,8.2493","02/15/2020 07:00:00",1.0,1.0,1.0,0.8,98.21,,1.9,,251.0,,0.0,,0.0,8.5,0.0,1025.0,"",50.0826,8.2493,"50.0826,8.2493","50.0826,8.2493","","Clear"
"50.0826,8.2493","02/15/2020 08:00:00",0.5,0.5,0.5,0.3,98.57,,2.2,,185.0,,0.0,,0.0,8.8,30.0,1025.0,"",50.0826,8.2493,"50.0826,8.2493","50.0826,8.2493","","Partially cloudy"
"50.0826,8.2493","02/15/2020 09:00:00",1.8,1.8,1.8,1.6,98.55,,2.2,,246.0,,0.0,,0.0,0.5,50.0,1025.3,"Fog",50.0826,8.2493,"50.0826,8.2493","50.0826,8.2493","","Partially cloudy"
"50.0826,8.2493","02/15/2020 10:00:00",3.7,3.7,3.7,2.9,94.9,,6.8,,143.0,1.9,0.0,,0.0,1.6,0.0,1024.9,"Mist",50.0826,8.2493,"50.0826,8.2493","50.0826,8.2493","","Clear"
"50.0826,8.2493","02/15/2020 11:00:00",5.3,5.3,5.3,4.2,92.26,,2.2,,220.0,,0.0,,0.0,10.6,0.0,1024.9,"",50.0826,8.2493,"50.0826,8.2493","50.0826,8.2493","","Clear"
"50.0826,8.2493","02/15/2020 12:00:00",6.1,6.1,6.1,4.7,90.4,,9.2,,166.0,4.2,0.0,,0.0,12.2,0.0,1024.2,"",50.0826,8.2493,"50.0826,8.2493","50.0826,8.2493","","Clear"
"50.0826,8.2493","02/15/2020 13:00:00",7.8,7.8,7.8,4.1,77.63,,10.9,,217.0,5.8,0.0,,0.0,12.9,0.0,1023.1,"",50.0826,8.2493,"50.0826,8.2493","50.0826,8.2493","","Clear"
"50.0826,8.2493","02/15/2020 14:00:00",8.6,8.6,8.6,4.4,75.01,,15.5,,192.0,6.1,0.0,,0.0,13.2,0.0,1022.0,"",50.0826,8.2493,"50.0826,8.2493","50.0826,8.2493","","Clear"
"50.0826,8.2493","02/15/2020 15:00:00",9.4,9.4,9.4,4.7,72.62,,17.0,,191.0,6.9,0.0,,0.0,13.3,0.0,1021.4,"",50.0826,8.2493,"50.0826,8.2493","50.0826,8.2493","","Clear"
"50.0826,8.2493","02/15/2020 16:00:00",9.7,9.7,9.7,4.5,70.11,,15.5,,200.0,7.5,0.0,,0.0,14.3,0.0,1021.0,"",50.0826,8.2493,"50.0826,8.2493","50.0826,8.2493","","Clear"
"50.0826,8.2493","02/15/2020 17:00:00",8.9,8.9,8.9,4.1,72.08,,12.2,,187.0,7.0,0.0,,0.0,10.2,0.0,1020.8,"",50.0826,8.2493,"50.0826,8.2493","50.0826,8.2493","","Clear"
"50.0826,8.2493","02/15/2020 18:00:00",7.4,7.4,7.4,3.5,76.55,,8.9,,161.0,5.7,0.0,,0.0,10.5,0.0,1019.8,"",50.0826,8.2493,"50.0826,8.2493","50.0826,8.2493","","Clear"
"50.0826,8.2493","02/15/2020 19:00:00",7.3,7.3,7.3,3.0,73.98,,2.1,,185.0,,0.0,,0.0,12.7,0.0,1019.8,"",50.0826,8.2493,"50.0826,8.2493","50.0826,8.2493","","Clear"
"50.0826,8.2493","02/15/2020 20:00:00",6.4,6.4,6.4,2.7,77.43,,6.6,,201.0,5.2,0.0,,0.0,13.3,50.0,1019.5,"",50.0826,8.2493,"50.0826,8.2493","50.0826,8.2493","","Partially cloudy"
"50.0826,8.2493","02/15/2020 21:00:00",6.8,6.8,6.8,2.7,75.06,,9.0,,183.0,5.0,0.0,,0.0,13.7,50.0,1019.5,"",50.0826,8.2493,"50.0826,8.2493","50.0826,8.2493","","Partially cloudy"
"50.0826,8.2493","02/15/2020 22:00:00",6.9,6.9,6.9,3.1,76.9,,9.2,,200.0,5.1,0.0,,0.0,13.7,50.0,1018.4,"",50.0826,8.2493,"50.0826,8.2493","50.0826,8.2493","","Partially cloudy"
"50.0826,8.2493","02/15/2020 23:00:00",6.7,6.7,6.7,3.0,77.67,,11.1,,161.0,4.5,0.0,,0.0,13.7,50.0,1017.4,"",50.0826,8.2493,"50.0826,8.2493","50.0826,8.2493","","Partially cloudy"
"50.0826,8.2493","02/16/2020 00:00:00",6.2,6.2,6.2,2.9,79.29,,9.4,,92.0,4.3,0.0,,0.0,13.7,0.0,1018.3,"",50.0826,8.2493,"50.0826,8.2493","50.0826,8.2493","","Clear"
"50.0826,8.2493","02/16/2020 01:00:00",6.6,6.6,6.6,3.0,77.77,,3.3,,200.0,,0.0,,0.0,16.4,0.0,1017.5,"",50.0826,8.2493,"50.0826,8.2493","50.0826,8.2493","","Clear"
"50.0826,8.2493","02/16/2020 02:00:00",6.8,6.8,6.8,2.6,74.37,,12.6,,167.0,4.4,0.0,,0.0,13.7,30.0,1016.8,"",50.0826,8.2493,"50.0826,8.2493","50.0826,8.2493","","Partially cloudy"
"50.0826,8.2493","02/16/2020 03:00:00",6.9,6.9,6.9,2.7,75.0,,9.8,,125.0,4.9,0.0,,0.0,16.4,30.0,1016.4,"",50.0826,8.2493,"50.0826,8.2493","50.0826,8.2493","","Partially cloudy"
"50.0826,8.2493","02/16/2020 04:00:00",6.8,6.8,6.8,3.0,77.06,,9.4,,159.0,4.9,0.0,,0.0,16.4,0.0,1015.7,"",50.0826,8.2493,"50.0826,8.2493","50.0826,8.2493","","Clear"
"50.0826,8.2493","02/16/2020 05:00:00",7.8,7.8,7.8,3.2,72.85,,3.7,,205.0,,0.0,,0.0,16.7,30.0,1015.4,"",50.0826,8.2493,"50.0826,8.2493","50.0826,8.2493","","Partially cloudy"
"50.0826,8.2493","02/16/2020 06:00:00",7.4,7.4,7.4,3.4,75.79,,3.6,,215.0,,0.0,,0.0,10.0,0.0,1015.2,"",50.0826,8.2493,"50.0826,8.2493","50.0826,8.2493","","Clear"
"50.0826,8.2493","02/16/2020 07:00:00",8.0,8.0,8.0,3.6,74.11,,13.1,,202.0,5.7,0.0,,0.0,13.1,0.0,1014.8,"",50.0826,8.2493,"50.0826,8.2493","50.0826,8.2493","","Clear"
"50.0826,8.2493","02/16/2020 08:00:00",9.0,9.0,9.0,3.9,70.4,,10.4,,220.0,7.4,0.0,,0.0,11.3,0.0,1014.8,"",50.0826,8.2493,"50.0826,8.2493","50.0826,8.2493","","Clear"
"50.0826,8.2493","02/16/2020 09:00:00",10.5,10.5,10.5,4.3,65.56,,18.4,,227.0,,0.0,,0.0,12.9,0.0,1014.7,"",50.0826,8.2493,"50.0826,8.2493","50.0826,8.2493","","Clear"
"50.0826,8.2493","02/16/2020 10:00:00",11.2,11.2,11.2,5.4,67.3,,19.7,,227.0,,0.0,,0.0,12.9,0.0,1014.4,"Light Rain",50.0826,8.2493,"50.0826,8.2493","50.0826,8.2493","","Clear"
"50.0826,8.2493","02/16/2020 11:00:00",11.4,11.4,11.4,6.1,70.01,,13.6,,191.0,,0.03,,0.0,10.0,0.0,1013.7,"",50.0826,8.2493,"50.0826,8.2493","50.0826,8.2493","","Rain"
"50.0826,8.2493","02/16/2020 12:00:00",12.2,12.2,12.2,5.1,61.66,,20.2,,201.0,,0.0,,0.0,13.1,30.0,1013.4,"",50.0826,8.2493,"50.0826,8.2493","50.0826,8.2493","","Partially cloudy"
"50.0826,8.2493","02/16/2020 13:00:00",13.8,13.8,13.8,5.1,55.7,,20.5,,193.0,,0.0,,0.0,13.2,0.0,1011.9,"",50.0826,8.2493,"50.0826,8.2493","50.0826,8.2493","","Clear"
"50.0826,8.2493","02/16/2020 14:00:00",15.2,15.2,15.2,4.6,49.28,,25.2,,227.0,,0.0,,0.0,10.0,50.0,1010.8,"",50.0826,8.2493,"50.0826,8.2493","50.0826,8.2493","","Partially cloudy"
"50.0826,8.2493","02/16/2020 15:00:00",15.8,15.8,15.8,4.8,47.84,,31.2,,235.0,,0.0,,0.0,10.0,0.0,1010.1,"",50.0826,8.2493,"50.0826,8.2493","50.0826,8.2493","","Clear"
"50.0826,8.2493","02/16/2020 16:00:00",15.7,15.7,15.7,4.5,47.25,,30.5,,219.0,,0.0,,0.0,10.0,0.0,1009.4,"",50.0826,8.2493,"50.0826,8.2493","50.0826,8.2493","","Clear"
"50.0826,8.2493","02/16/2020 17:00:00",15.5,15.5,15.5,4.2,46.92,,18.5,,211.0,,0.0,,0.0,10.0,0.0,1009.4,"",50.0826,8.2493,"50.0826,8.2493","50.0826,8.2493","","Clear"
"50.0826,8.2493","02/16/2020 18:00:00",14.8,14.8,14.8,4.0,48.35,,23.4,,227.0,,0.0,,0.0,10.0,0.0,1009.4,"",50.0826,8.2493,"50.0826,8.2493","50.0826,8.2493","","Clear"
"50.0826,8.2493","02/16/2020 19:00:00",14.2,14.2,14.2,4.0,50.09,,25.3,,227.0,,0.0,,0.0,10.0,0.0,1009.1,"",50.0826,8.2493,"50.0826,8.2493","50.0826,8.2493","","Clear"
"50.0826,8.2493","02/16/2020 20:00:00",14.1,14.1,14.1,4.5,52.28,,24.9,,227.0,,0.0,,0.0,10.0,0.0,1009.1,"",50.0826,8.2493,"50.0826,8.2493","50.0826,8.2493","","Clear"
"50.0826,8.2493","02/16/2020 21:00:00",14.1,14.1,14.1,4.9,53.82,,30.2,,217.0,,0.0,,0.0,10.0,0.0,1008.4,"",50.0826,8.2493,"50.0826,8.2493","50.0826,8.2493","","Clear"
"50.0826,8.2493","02/16/2020 22:00:00",14.1,14.1,14.1,5.5,55.91,,29.3,,219.0,,0.0,,0.0,10.0,30.0,1008.3,"",50.0826,8.2493,"50.0826,8.2493","50.0826,8.2493","","Partially cloudy"
"50.0826,8.2493","02/16/2020 23:00:00",14.4,14.4,14.4,5.8,56.1,,24.2,,235.0,,0.0,,0.0,10.0,0.0,1009.0,"",50.0826,8.2493,"50.0826,8.2493","50.0826,8.2493","","Clear"
"50.0826,8.2493","02/17/2020 00:00:00",14.2,14.2,14.2,6.4,59.31,,21.1,,247.0,,0.0,,0.0,13.7,0.0,1009.7,"",50.0826,8.2493,"50.0826,8.2493","50.0826,8.2493","","Clear"
"50.0826,8.2493","02/17/2020 01:00:00",10.9,10.9,10.9,6.9,76.36,,23.0,,310.0,,0.05,,0.0,10.9,0.0,1011.3,"Light Rain",50.0826,8.2493,"50.0826,8.2493","50.0826,8.2493","","Rain"
"50.0826,8.2493","02/17/2020 02:00:00",10.0,10.0,10.0,5.4,73.18,,27.6,,278.0,6.8,0.09,,0.0,10.6,0.0,1013.1,"",50.0826,8.2493,"50.0826,8.2493","50.0826,8.2493","","Rain"
"50.0826,8.2493","02/17/2020 03:00:00",8.6,8.6,8.6,5.2,79.14,,15.7,,268.0,6.1,0.15,,0.0,10.7,0.0,1014.5,"Light Rain",50.0826,8.2493,"50.0826,8.2493","50.0826,8.2493","","Rain"
"50.0826,8.2493","02/17/2020 04:00:00",7.9,7.9,7.9,3.6,74.35,,26.2,,257.0,4.2,0.0,,0.0,11.8,0.0,1015.4,"",50.0826,8.2493,"50.0826,8.2493","50.0826,8.2493","","Clear"
"50.0826,8.2493","02/17/2020 05:00:00",7.4,7.4,7.4,3.1,73.84,,16.7,,250.0,4.5,0.0,,0.0,16.7,0.0,1015.9,"",50.0826,8.2493,"50.0826,8.2493","50.0826,8.2493","","Clear"
"50.0826,8.2493","02/17/2020 06:00:00",7.2,7.2,7.2,3.4,76.94,,16.0,,232.0,4.3,0.0,,0.0,13.7,0.0,1016.2,"",50.0826,8.2493,"50.0826,8.2493","50.0826,8.2493","","Clear"
"50.0826,8.2493","02/17/2020 07:00:00",7.2,7.2,7.2,3.5,77.34,,16.1,,229.0,4.4,0.0,,0.0,13.7,0.0,1016.3,"",50.0826,8.2493,"50.0826,8.2493","50.0826,8.2493","","Clear"
"50.0826,8.2493","02/17/2020 08:00:00",7.0,7.0,7.0,3.6,79.08,,12.7,,218.0,4.5,0.0,,0.0,12.7,0.0,1016.4,"",50.0826,8.2493,"50.0826,8.2493","50.0826,8.2493","","Clear"
"50.0826,8.2493","02/17/2020 09:00:00",7.0,7.0,7.0,3.5,78.52,,12.9,,218.0,4.5,0.0,,0.0,12.6,50.0,1016.9,"",50.0826,8.2493,"50.0826,8.2493","50.0826,8.2493","","Partially cloudy"
"50.0826,8.2493","02/17/2020 10:00:00",7.0,7.0,7.0,3.5,78.34,,11.5,,193.0,4.8,0.0,,0.0,12.6,30.0,1017.0,"Light Rain",50.0826,8.2493,"50.0826,8.2493","50.0826,8.2493","","Partially cloudy"
"50.0826,8.2493","02/17/2020 11:00:00",7.2,7.2,7.2,3.8,78.7,,11.5,,200.0,5.0,0.0,,0.0,12.7,30.0,1016.9,"",50.0826,8.2493,"50.0826,8.2493","50.0826,8.2493","","Partially cloudy"
"50.0826,8.2493","02/17/2020 12:00:00",7.4,7.4,7.4,4.6,82.58,,12.9,,183.0,5.0,0.02,,0.0,10.5,0.0,1017.3,"Light Rain",50.0826,8.2493,"50.0826,8.2493","50.0826,8.2493","","Rain"
"50.0826,8.2493","02/17/2020 13:00:00",7.7,7.7,7.7,3.9,77.02,,14.9,,233.0,5.1,0.01,,0.0,11.9,0.0,1017.0,"Light Rain",50.0826,8.2493,"50.0826,8.2493","50.0826,8.2493","","Rain"
"50.0826,8.2493","02/17/2020 14:00:00",8.1,8.1,8.1,3.9,74.72,,14.6,,235.0,5.7,0.0,,0.0,13.6,0.0,1017.0,"",50.0826,8.2493,"50.0826,8.2493","50.0826,8.2493","","Clear"
"50.0826,8.2493","02/17/2020 15:00:00",8.3,8.3,8.3,3.8,73.23,,21.6,,228.0,5.1,0.0,,0.0,10.0,0.0,1016.8,"",50.0826,8.2493,"50.0826,8.2493","50.0826,8.2493","","Clear"
"50.0826,8.2493","02/17/2020 16:00:00",8.6,8.6,8.6,3.8,71.91,,16.8,,229.0,5.9,0.0,,0.0,13.2,0.0,1016.8,"",50.0826,8.2493,"50.0826,8.2493","50.0826,8.2493","","Clear"
"50.0826,8.2493","02/17/2020 17:00:00",8.7,8.7,8.7,3.9,71.95,,18.4,,219.0,5.9,0.0,,0.0,12.8,0.0,1016.8,"",50.0826,8.2493,"50.0826,8.2493","50.0826,8.2493","","Clear"
"50.0826,8.2493","02/17/2020 18:00:00",8.3,8.3,8.3,3.6,72.08,,20.3,,218.0,5.2,0.0,,0.0,12.6,0.0,1017.1,"",50.0826,8.2493,"50.0826,8.2493","50.0826,8.2493","","Clear"
"50.0826,8.2493","02/17/2020 19:00:00",6.6,6.6,6.6,3.3,79.28,,25.1,,274.0,2.6,0.53,,0.0,11.0,0.0,1018.8,"Heavy Rain",50.0826,8.2493,"50.0826,8.2493","50.0826,8.2493","","Rain"
"50.0826,8.2493","02/17/2020 20:00:00",4.7,4.7,4.7,2.9,87.87,,8.5,,209.0,2.7,0.3,,0.0,12.8,50.0,1019.0,"",50.0826,8.2493,"50.0826,8.2493","50.0826,8.2493","","Rain, Partially cloudy"
"50.0826,8.2493","02/17/2020 21:00:00",5.0,5.0,5.0,3.5,89.74,,1.7,,219.0,,0.0,,0.0,9.3,0.0,1018.9,"",50.0826,8.2493,"50.0826,8.2493","50.0826,8.2493","","Clear"
"50.0826,8.2493","02/17/2020 22:00:00",5.3,5.3,5.3,3.7,89.89,,6.6,,137.0,3.9,0.0,,0.0,12.6,0.0,1019.6,"",50.0826,8.2493,"50.0826,8.2493","50.0826,8.2493","","Clear"
"50.0826,8.2493","02/17/2020 23:00:00",5.8,5.8,5.8,3.5,84.9,,12.5,,220.0,3.2,0.0,,0.0,12.6,0.0,1019.9,"",50.0826,8.2493,"50.0826,8.2493","50.0826,8.2493","","Clear"
"50.0826,8.2493","02/18/2020 00:00:00",6.3,6.3,6.3,3.5,82.24,,18.7,,247.0,2.8,0.12,,0.0,14.5,0.0,1020.6,"",50.0826,8.2493,"50.0826,8.2493","50.0826,8.2493","","Rain"
"50.0826,8.2493","02/18/2020 01:00:00",6.2,6.2,6.2,2.7,77.98,,23.7,,248.0,2.2,0.0,,0.0,16.1,0.0,1021.2,"",50.0826,8.2493,"50.0826,8.2493","50.0826,8.2493","","Clear"
"50.0826,8.2493","02/18/2020 02:00:00",5.7,5.7,5.7,2.1,77.82,,22.0,,256.0,1.7,0.0,,0.0,16.6,0.0,1022.0,"",50.0826,8.2493,"50.0826,8.2493","50.0826,8.2493","","Clear"
"50.0826,8.2493","02/18/2020 03:00:00",5.7,5.7,5.7,1.8,75.69,,16.8,,246.0,2.4,0.0,,0.0,16.1,0.0,1022.6,"",50.0826,8.2493,"50.0826,8.2493","50.0826,8.2493","","Clear"
"50.0826,8.2493","02/18/2020 04:00:00",5.7,5.7,5.7,1.9,76.49,,18.0,,237.0,2.3,0.0,,0.0,16.3,0.0,1022.6,"",50.0826,8.2493,"50.0826,8.2493","50.0826,8.2493","","Clear"
"50.0826,8.2493","02/18/2020 05:00:00",5.5,5.5,5.5,1.8,76.94,,17.6,,222.0,2.0,0.0,,0.0,15.5,0.0,1023.0,"",50.0826,8.2493,"50.0826,8.2493","50.0826,8.2493","","Clear"
"50.0826,8.2493","02/18/2020 06:00:00",5.3,5.3,5.3,1.6,77.26,,18.3,,230.0,1.7,0.0,,0.0,15.7,0.0,1023.6,"",50.0826,8.2493,"50.0826,8.2493","50.0826,8.2493","","Clear"
"50.0826,8.2493","02/18/2020 07:00:00",4.8,4.8,4.8,1.0,76.3,,21.8,,248.0,0.6,0.0,,0.0,16.0,0.0,1024.1,"",50.0826,8.2493,"50.0826,8.2493","50.0826,8.2493","","Clear"
"50.0826,8.2493","02/18/2020 08:00:00",4.8,4.8,4.8,0.9,76.11,,20.9,,240.0,0.7,0.0,,0.0,12.2,0.0,1025.2,"",50.0826,8.2493,"50.0826,8.2493","50.0826,8.2493","","Clear"
"50.0826,8.2493","02/18/2020 09:00:00",5.0,5.0,5.0,1.4,77.89,,22.2,,232.0,0.8,0.0,,0.0,16.1,0.0,1025.8,"",50.0826,8.2493,"50.0826,8.2493","50.0826,8.2493","","Clear"
"50.0826,8.2493","02/18/2020 10:00:00",5.6,5.6,5.6,1.3,73.92,,24.1,,232.0,1.4,0.0,,0.0,12.1,0.0,1026.1,"",50.0826,8.2493,"50.0826,8.2493","50.0826,8.2493","","Clear"
"50.0826,8.2493","02/18/2020 11:00:00",6.1,6.1,6.1,0.5,67.33,,28.2,,239.0,1.7,0.0,,0.0,12.9,0.0,1026.4,"",50.0826,8.2493,"50.0826,8.2493","50.0826,8.2493","","Clear"
"50.0826,8.2493","02/18/2020 12:00:00",6.7,6.7,6.7,0.2,63.51,,23.5,,258.0,2.8,0.0,,0.0,13.3,0.0,1026.7,"",50.0826,8.2493,"50.0826,8.2493","50.0826,8.2493","","Clear"
"50.0826,8.2493","02/18/2020 13:00:00",6.9,6.9,6.9,0.7,64.77,,25.5,,249.0,2.9,0.0,,0.0,14.2,0.0,1026.1,"",50.0826,8.2493,"50.0826,8.2493","50.0826,8.2493","","Clear"
"50.0826,8.2493","02/18/2020 14:00:00",7.0,7.0,7.0,0.4,63.04,,27.2,,249.0,2.9,0.0,,0.0,13.8,0.0,1025.7,"",50.0826,8.2493,"50.0826,8.2493","50.0826,8.2493","","Clear"
"50.0826,8.2493","02/18/2020 15:00:00",7.2,7.2,7.2,-0.1,59.95,,33.5,,249.0,2.7,0.0,,0.0,15.5,0.0,1025.0,"",50.0826,8.2493,"50.0826,8.2493","50.0826,8.2493","","Clear"
"50.0826,8.2493","02/18/2020 16:00:00",7.3,7.3,7.3,0.1,60.09,,28.4,,257.0,3.2,0.0,,0.0,16.2,0.0,1024.7,"",50.0826,8.2493,"50.0826,8.2493","50.0826,8.2493","","Clear"
"50.0826,8.2493","02/18/2020 17:00:00",7.0,7.0,7.0,0.4,62.77,,20.2,,247.0,3.6,0.0,,0.0,15.9,0.0,1024.7,"",50.0826,8.2493,"50.0826,8.2493","50.0826,8.2493","","Clear"
"50.0826,8.2493","02/18/2020 18:00:00",6.5,6.5,6.5,0.4,65.3,,18.5,,246.0,3.1,0.0,,0.0,15.6,0.0,1024.8,"",50.0826,8.2493,"50.0826,8.2493","50.0826,8.2493","","Clear"
"50.0826,8.2493","02/18/2020 19:00:00",5.6,5.6,5.6,1.2,73.06,,21.1,,246.0,1.7,0.07,,0.0,14.1,0.0,1024.8,"",50.0826,8.2493,"50.0826,8.2493","50.0826,8.2493","","Rain"
"50.0826,8.2493","02/18/2020 20:00:00",4.5,4.5,4.5,1.1,78.68,,2.5,,215.0,,0.0,,0.0,13.9,0.0,1024.5,"",50.0826,8.2493,"50.0826,8.2493","50.0826,8.2493","","Clear"
"50.0826,8.2493","02/18/2020 21:00:00",4.4,4.4,4.4,1.3,80.0,,9.2,,236.0,2.2,0.0,,0.0,14.0,0.0,1024.1,"",50.0826,8.2493,"50.0826,8.2493","50.0826,8.2493","","Clear"
"50.0826,8.2493","02/18/2020 22:00:00",5.2,5.2,5.2,1.3,75.7,,15.2,,236.0,2.0,0.0,,0.0,13.6,0.0,1023.3,"",50.0826,8.2493,"50.0826,8.2493","50.0826,8.2493","","Clear"
"50.0826,8.2493","02/18/2020 23:00:00",5.5,5.5,5.5,1.5,75.49,,13.9,,227.0,2.6,0.0,,0.0,13.2,0.0,1022.7,"",50.0826,8.2493,"50.0826,8.2493","50.0826,8.2493","","Clear"
"50.0826,8.2493","02/19/2020 00:00:00",5.4,5.4,5.4,1.7,77.0,,12.6,,227.0,2.6,0.0,,0.0,12.6,0.0,1021.4,"",50.0826,8.2493,"50.0826,8.2493","50.0826,8.2493","","Clear"
"50.0826,8.2493","02/19/2020 01:00:00",5.5,5.5,5.5,1.8,77.49,,14.4,,211.0,2.4,0.0,,0.0,12.2,0.0,1020.6,"",50.0826,8.2493,"50.0826,8.2493","50.0826,8.2493","","Clear"
"50.0826,8.2493","02/19/2020 02:00:00",5.2,5.2,5.2,1.8,78.67,,21.1,,227.0,1.3,0.0,,0.0,12.2,0.0,1019.6,"",50.0826,8.2493,"50.0826,8.2493","50.0826,8.2493","","Clear"
"50.0826,8.2493","02/19/2020 03:00:00",5.4,5.4,5.4,1.9,78.41,,21.2,,219.0,1.4,0.0,,0.0,12.2,0.0,1018.2,"",50.0826,8.2493,"50.0826,8.2493","50.0826,8.2493","","Clear"
"50.0826,8.2493","02/19/2020 04:00:00",5.6,5.6,5.6,2.5,80.19,,17.3,,218.0,2.2,0.0,,0.0,12.2,0.0,1016.8,"",50.0826,8.2493,"50.0826,8.2493","50.0826,8.2493","","Clear"
"50.0826,8.2493","02/19/2020 05:00:00",5.4,5.4,5.4,2.9,83.82,,21.7,,227.0,1.4,0.18,,0.0,12.2,0.0,1015.9,"Light Rain",50.0826,8.2493,"50.0826,8.2493","50.0826,8.2493","","Rain"
"50.0826,8.2493","02/19/2020 06:00:00",5.3,5.3,5.3,3.3,87.08,,22.9,,254.0,1.1,0.43,,0.0,9.9,0.0,1015.9,"Light Rain",50.0826,8.2493,"50.0826,8.2493","50.0826,8.2493","","Rain"
"50.0826,8.2493","02/19/2020 07:00:00",4.9,4.9,4.9,2.5,84.6,,18.5,,267.0,1.1,0.6,,0.0,10.5,50.0,1015.9,"",50.0826,8.2493,"50.0826,8.2493","50.0826,8.2493","","Rain, Partially cloudy"
"50.0826,8.2493","02/19/2020 08:00:00",4.6,4.6,4.6,1.4,79.64,,22.6,,270.0,0.3,0.09,,0.0,11.4,0.0,1017.0,"Light Rain",50.0826,8.2493,"50.0826,8.2493","50.0826,8.2493","","Rain"
"50.0826,8.2493","02/19/2020 09:00:00",4.9,4.9,4.9,1.3,77.46,,27.3,,280.0,0.1,0.15,,0.0,9.9,0.0,1018.0,"",50.0826,8.2493,"50.0826,8.2493","50.0826,8.2493","","Rain"
"50.0826,8.2493","02/19/2020 10:00:00",4.0,4.0,4.0,0.3,76.91,,18.6,,342.0,0.0,0.46,,0.0,10.3,0.0,1019.3,"Light Rain",50.0826,8.2493,"50.0826,8.2493","50.0826,8.2493","","Rain"
"50.0826,8.2493","02/19/2020 11:00:00",5.5,5.5,5.5,0.2,68.84,,20.2,,289.0,1.7,0.0,,0.0,11.8,0.0,1019.6,"",50.0826,8.2493,"50.0826,8.2493","50.0826,8.2493","","Clear"
"50.0826,8.2493","02/19/2020 12:00:00",5.7,5.7,5.7,-0.5,63.98,,26.4,,307.0,1.4,0.06,,0.0,12.8,0.0,1020.6,"",50.0826,8.2493,"50.0826,8.2493","50.0826,8.2493","","Rain"
"50.0826,8.2493","02/19/2020 13:00:00",6.7,6.7,6.7,-1.8,54.37,,31.3,,296.0,2.2,0.0,,0.0,14.5,0.0,1021.0,"",50.0826,8.2493,"50.0826,8.2493","50.0826,8.2493","","Clear"
"50.0826,8.2493","02/19/2020 14:00:00",6.7,6.7,6.7,-2.1,53.38,,18.6,,288.0,3.4,0.0,,0.0,12.5,0.0,1021.3,"",50.0826,8.2493,"50.0826,8.2493","50.0826,8.2493","","Clear"
"50.0826,8.2493","02/19/2020 15:00:00",7.2,7.2,7.2,-2.4,50.43,,26.9,,290.0,3.2,0.0,,0.0,12.9,50.0,1021.9,"",50.0826,8.2493,"50.0826,8.2493","50.0826,8.2493","","Partially cloudy"
"50.0826,8.2493","02/19/2020 16:00:00",6.8,6.8,6.8,-2.7,50.84,,28.3,,288.0,2.6,0.0,,0.0,13.2,0.0,1022.3,"",50.0826,8.2493,"50.0826,8.2493","50.0826,8.2493","","Clear"
"50.0826,8.2493","02/19/2020 17:00:00",6.6,6.6,6.6,-2.8,51.25,,15.3,,270.0,3.6,0.0,,0.0,13.0,0.0,1023.0,"",50.0826,8.2493,"50.0826,8.2493","50.0826,8.2493","","Clear"
"50.0826,8.2493","02/19/2020 18:00:00",5.5,5.5,5.5,-2.7,55.89,,13.0,,276.0,2.6,0.0,,0.0,10.0,50.0,1023.7,"",50.0826,8.2493,"50.0826,8.2493","50.0826,8.2493","","Partially cloudy"
"50.0826,8.2493","02/19/2020 19:00:00",4.4,4.4,4.4,-2.2,62.54,,8.3,,266.0,2.3,0.0,,0.0,13.3,0.0,1024.5,"",50.0826,8.2493,"50.0826,8.2493","50.0826,8.2493","","Clear"
"50.0826,8.2493","02/19/2020 20:00:00",3.5,3.5,3.5,-1.9,68.12,,13.7,,255.0,0.1,0.0,,0.0,13.6,50.0,1024.5,"",50.0826,8.2493,"50.0826,8.2493","50.0826,8.2493","","Partially cloudy"
"50.0826,8.2493","02/19/2020 21:00:00",2.4,2.4,2.4,-2.3,71.33,,11.0,,244.0,-0.7,0.0,,0.0,16.6,0.0,1024.6,"",50.0826,8.2493,"50.0826,8.2493","50.0826,8.2493","","Clear"
"50.0826,8.2493","02/19/2020 22:00:00",2.1,2.1,2.1,-2.0,74.23,,10.1,,267.0,-0.9,0.0,,0.0,15.9,0.0,1024.6,"",50.0826,8.2493,"50.0826,8.2493","50.0826,8.2493","","Clear"
"50.0826,8.2493","02/19/2020 23:00:00",2.5,2.5,2.5,-1.5,74.64,,9.7,,270.0,-0.2,0.0,,0.0,15.9,0.0,1024.1,"",50.0826,8.2493,"50.0826,8.2493","50.0826,8.2493","","Clear"
"50.0826,8.2493","02/20/2020 00:00:00",3.1,3.1,3.1,-1.2,73.39,,6.7,,262.0,1.3,0.0,,0.0,13.0,0.0,1023.8,"",50.0826,8.2493,"50.0826,8.2493","50.0826,8.2493","","Clear"
