Address,Date time,Minimum Temperature,Maximum Temperature,Temperature,Dew Point,Relative Humidity,Heat Index,Wind Speed,Wind Gust,Wind Direction,Wind Chill,Precipitation,Precipitation Cover,Snow Depth,Visibility,Cloud Cover,Sea Level Pressure,Weather Type,Latitude,Longitude,Resolved Address,Name,Info,Conditions
"50.0826,8.2493","06/19/2020 00:00:00",14.3,14.3,14.3,11.2,81.68,,1.0,,254.0,,0.0,,0.0,13.7,0.0,1014.2,"",50.0826,8.2493,"50.0826,8.2493","50.0826,8.2493","","Clear"
"50.0826,8.2493","06/19/2020 01:00:00",13.4,13.4,13.4,10.9,84.9,,1.3,,259.0,,0.0,,0.0,13.7,0.0,1014.6,"",50.0826,8.2493,"50.0826,8.2493","50.0826,8.2493","","Clear"
"50.0826,8.2493","06/19/2020 02:00:00",12.7,12.7,12.7,10.8,88.17,,1.3,,259.0,,0.0,,0.0,13.7,0.0,1014.6,"",50.0826,8.2493,"50.0826,8.2493","50.0826,8.2493","","Clear"
"50.0826,8.2493","06/19/2020 03:00:00",12.5,12.5,12.5,10.5,87.5,,7.6,,323.0,,0.0,,0.0,13.7,0.0,1014.5,"",50.0826,8.2493,"50.0826,8.2493","50.0826,8.2493","","Clear"
"50.0826,8.2493","06/19/2020 04:00:00",12.3,12.3,12.3,10.6,89.06,,1.3,,264.0,,0.0,,0.0,13.7,0.0,1014.5,"",50.0826,8.2493,"50.0826,8.2493","50.0826,8.2493","","Clear"
"50.0826,8.2493","06/19/2020 05:00:00",11.7,11.7,11.7,10.6,92.83,,6.1,,301.0,,0.0,,0.0,13.7,0.0,1014.8,"",50.0826,8.2493,"50.0826,8.2493","50.0826,8.2493","","Clear"
"50.0826,8.2493","06/19/2020 06:00:00",12.3,12.3,12.3,11.0,91.86,,5.9,,318.0,,0.0,,0.0,13.7,0.0,1015.2,"",50.0826,8.2493,"50.0826,8.2493","50.0826,8.2493","","Clear"
"50.0826,8.2493","06/19/2020 07:00:00",14.3,14.3,14.3,12.1,86.66,,1.3,,253.0,,0.0,,0.0,10.0,1.2,1015.1,"",50.0826,8.2493,"50.0826,8.2493","50.0826,8.2493","","Clear"
"50.0826,8.2493","06/19/2020 08:00:00",16.3,16.3,16.3,12.2,76.67,,7.9,,266.0,,0.0,,0.0,13.6,0.0,1015.5,"",50.0826,8.2493,"50.0826,8.2493","50.0826,8.2493","","Clear"
"50.0826,8.2493","06/19/2020 09:00:00",18.2,18.2,18.2,12.6,70.2,,7.7,,253.0,,0.0,,0.0,10.0,0.0,1015.7,"",50.0826,8.2493,"50.0826,8.2493","50.0826,8.2493","","Clear"
"50.0826,8.2493","06/19/2020 10:00:00",19.8,19.8,19.8,12.5,62.68,,6.3,,245.0,,0.0,,0.0,10.0,30.0,1015.8,"",50.0826,8.2493,"50.0826,8.2493","50.0826,8.2493","","Partially cloudy"
"50.0826,8.2493","06/19/2020 11:00:00",20.7,20.7,20.7,11.2,54.48,,15.3,,262.0,,0.0,,0.0,10.0,50.0,1015.5,"",50.0826,8.2493,"50.0826,8.2493","50.0826,8.2493","","Partially cloudy"
"50.0826,8.2493","06/19/2020 12:00:00",21.5,21.5,21.5,10.7,50.17,,13.0,,252.0,,0.0,,0.0,10.0,50.0,1015.8,"",50.0826,8.2493,"50.0826,8.2493","50.0826,8.2493","","Partially cloudy"
"50.0826,8.2493","06/19/2020 13:00:00",20.9,20.9,20.9,10.8,52.32,,11.4,,261.0,,0.0,,0.0,10.0,0.0,1016.3,"",50.0826,8.2493,"50.0826,8.2493","50.0826,8.2493","","Clear"
"50.0826,8.2493","06/19/2020 14:00:00",21.6,21.6,21.6,11.1,51.0,,11.2,,272.0,,0.0,,0.0,10.0,0.0,1015.9,"",50.0826,8.2493,"50.0826,8.2493","50.0826,8.2493","","Clear"
"50.0826,8.2493","06/19/2020 15:00:00",22.8,22.8,22.8,10.6,46.11,,16.4,,278.0,,0.0,,0.0,10.0,0.0,1015.9,"",50.0826,8.2493,"50.0826,8.2493","50.0826,8.2493","","Clear"
"50.0826,8.2493","06/19/2020 16:00:00",23.5,23.5,23.5,10.4,43.49,,17.5,,262.0,,0.0,,0.0,13.2,0.0,1015.5,"",50.0826,8.2493,"50.0826,8.2493","50.0826,8.2493","","Clear"
"50.0826,8.2493","06/19/2020 17:00:00",23.8,23.8,23.8,9.9,41.43,,17.7,,261.0,,0.0,,0.0,10.0,30.0,1015.5,"",50.0826,8.2493,"50.0826,8.2493","50.0826,8.2493","","Partially cloudy"
"50.0826,8.2493","06/19/2020 18:00:00",21.5,21.5,21.5,10.5,49.39,,23.0,,304.0,,0.0,,0.0,10.0,0.0,1015.9,"",50.0826,8.2493,"50.0826,8.2493","50.0826,8.2493","","Clear"
"50.0826,8.2493","06/19/2020 19:00:00",20.7,20.7,20.7,10.5,51.89,,16.9,,335.0,,0.0,,0.0,13.7,50.0,1016.2,"",50.0826,8.2493,"50.0826,8.2493","50.0826,8.2493","","Partially cloudy"
"50.0826,8.2493","06/19/2020 20:00:00",19.2,19.2,19.2,10.6,57.43,,14.9,,328.0,,0.0,,0.0,10.0,50.0,1016.9,"",50.0826,8.2493,"50.0826,8.2493","50.0826,8.2493","","Partially cloudy"
"50.0826,8.2493","06/19/2020 21:00:00",18.1,18.1,18.1,10.6,61.64,,10.0,,307.0,,0.0,,0.0,10.0,0.0,1017.2,"",50.0826,8.2493,"50.0826,8.2493","50.0826,8.2493","","Clear"
"50.0826,8.2493","06/19/2020 22:00:00",17.6,17.6,17.6,10.9,64.77,,9.4,,321.0,,0.0,,0.0,10.0,0.0,1018.1,"",50.0826,8.2493,"50.0826,8.2493","50.0826,8.2493","","Clear"
"50.0826,8.2493","06/19/2020 23:00:00",16.6,16.6,16.6,11.0,69.64,,7.6,,317.0,,0.0,,0.0,10.0,0.0,1018.5,"",50.0826,8.2493,"50.0826,8.2493","50.0826,8.2493","","Clear"
"50.0826,8.2493","06/20/2020 00:00:00",16.2,16.2,16.2,11.6,73.85,,1.3,,269.0,,0.0,,0.0,10.0,0.0,1018.8,"",50.0826,8.2493,"50.0826,8.2493","50.0826,8.2493","","Clear"
"50.0826,8.2493","06/20/2020 01:00:00",15.6,15.6,15.6,11.8,77.98,,1.9,,269.0,,0.0,,0.0,10.0,0.0,1019.3,"",50.0826,8.2493,"50.0826,8.2493","50.0826,8.2493","","Clear"
"50.0826,8.2493","06/20/2020 02:00:00",14.7,14.7,14.7,11.8,82.84,,1.2,,264.0,,0.0,,0.0,10.0,50.0,1019.2,"",50.0826,8.2493,"50.0826,8.2493","50.0826,8.2493","","Partially cloudy"
"50.0826,8.2493","06/20/2020 03:00:00",14.8,14.8,14.8,11.6,81.04,,1.6,,254.0,,0.0,,0.0,13.4,0.0,1019.2,"",50.0826,8.2493,"50.0826,8.2493","50.0826,8.2493","","Clear"
"50.0826,8.2493","06/20/2020 04:00:00",13.6,13.6,13.6,11.2,85.05,,1.7,,248.0,,0.0,,0.0,11.9,0.0,1019.2,"",50.0826,8.2493,"50.0826,8.2493","50.0826,8.2493","","Clear"
"50.0826,8.2493","06/20/2020 05:00:00",13.2,13.2,13.2,11.3,88.24,,7.9,,71.0,,0.0,,0.0,14.3,0.0,1019.5,"",50.0826,8.2493,"50.0826,8.2493","50.0826,8.2493","","Clear"
"50.0826,8.2493","06/20/2020 06:00:00",13.1,13.1,13.1,11.4,89.48,,1.7,,268.0,,0.0,,0.0,10.0,0.0,1019.9,"",50.0826,8.2493,"50.0826,8.2493","50.0826,8.2493","","Clear"
"50.0826,8.2493","06/20/2020 07:00:00",14.9,14.9,14.9,12.1,83.42,,6.2,,353.0,,0.0,,0.0,14.0,0.0,1020.2,"",50.0826,8.2493,"50.0826,8.2493","50.0826,8.2493","","Clear"
"50.0826,8.2493","06/20/2020 08:00:00",16.6,16.6,16.6,12.6,77.51,,9.1,,312.0,,0.0,,0.0,13.9,0.0,1020.6,"",50.0826,8.2493,"50.0826,8.2493","50.0826,8.2493","","Clear"
"50.0826,8.2493","06/20/2020 09:00:00",18.1,18.1,18.1,12.7,70.89,,7.3,,330.0,,0.0,,0.0,14.9,30.0,1020.6,"",50.0826,8.2493,"50.0826,8.2493","50.0826,8.2493","","Partially cloudy"
"50.0826,8.2493","06/20/2020 10:00:00",20.3,20.3,20.3,12.1,59.22,,9.2,,302.0,,0.0,,0.0,16.4,1.2,1020.8,"",50.0826,8.2493,"50.0826,8.2493","50.0826,8.2493","","Clear"
"50.0826,8.2493","06/20/2020 11:00:00",20.7,20.7,20.7,11.3,54.6,,7.8,,343.0,,0.0,,0.0,16.4,0.0,1020.6,"",50.0826,8.2493,"50.0826,8.2493","50.0826,8.2493","","Clear"
"50.0826,8.2493","06/20/2020 12:00:00",21.1,21.1,21.1,11.3,53.38,,8.3,,325.0,,0.0,,0.0,13.7,1.2,1020.6,"",50.0826,8.2493,"50.0826,8.2493","50.0826,8.2493","","Clear"
"50.0826,8.2493","06/20/2020 13:00:00",21.4,21.4,21.4,10.2,48.95,,9.5,,303.0,,0.0,,0.0,12.3,0.0,1020.6,"",50.0826,8.2493,"50.0826,8.2493","50.0826,8.2493","","Clear"
"50.0826,8.2493","06/20/2020 14:00:00",22.7,22.7,22.7,10.2,45.13,,9.9,,229.0,,0.0,,0.0,10.0,50.0,1020.2,"",50.0826,8.2493,"50.0826,8.2493","50.0826,8.2493","","Partially cloudy"
"50.0826,8.2493","06/20/2020 15:00:00",19.7,19.7,19.7,12.0,61.14,,24.0,,273.0,,0.0,,0.0,10.0,0.0,1020.5,"",50.0826,8.2493,"50.0826,8.2493","50.0826,8.2493","","Clear"
"50.0826,8.2493","06/20/2020 16:00:00",19.7,19.7,19.7,11.7,59.79,,12.3,,282.0,,0.0,,0.0,13.3,0.0,1020.4,"Light Rain",50.0826,8.2493,"50.0826,8.2493","50.0826,8.2493","","Clear"
"50.0826,8.2493","06/20/2020 17:00:00",21.4,21.4,21.4,11.0,51.5,,17.6,,300.0,,0.0,,0.0,13.1,0.0,1019.9,"",50.0826,8.2493,"50.0826,8.2493","50.0826,8.2493","","Clear"
"50.0826,8.2493","06/20/2020 18:00:00",21.1,21.1,21.1,9.7,48.27,,13.8,,315.0,,0.0,,0.0,47.0,,1019.4,"",50.0826,8.2493,"50.0826,8.2493","50.0826,8.2493","","Clear"
"50.0826,8.2493","06/20/2020 19:00:00",20.4,20.4,20.4,9.9,51.13,,11.9,,294.0,,0.0,,0.0,,,1019.5,"",50.0826,8.2493,"50.0826,8.2493","50.0826,8.2493","","Clear"
"50.0826,8.2493","06/20/2020 20:00:00",20.3,20.3,20.3,9.5,50.1,,12.8,,315.0,,0.0,,0.0,,,1019.5,"",50.0826,8.2493,"50.0826,8.2493","50.0826,8.2493","","Clear"
"50.0826,8.2493","06/20/2020 21:00:00",18.5,18.5,18.5,10.2,58.63,,9.4,,315.0,,0.0,,0.0,,0.0,1019.6,"",50.0826,8.2493,"50.0826,8.2493","50.0826,8.2493","","Clear"
"50.0826,8.2493","06/20/2020 22:00:00",17.9,17.9,17.9,10.6,62.23,,9.4,,330.0,,0.0,,0.0,,,1020.0,"",50.0826,8.2493,"50.0826,8.2493","50.0826,8.2493","","Clear"
"50.0826,8.2493","06/20/2020 23:00:00",16.6,16.6,16.6,10.3,66.5,,10.0,,324.0,,0.0,,0.0,,,1020.4,"",50.0826,8.2493,"50.0826,8.2493","50.0826,8.2493","","Clear"
"50.0826,8.2493","06/21/2020 00:00:00",16.0,16.0,16.0,10.4,69.03,,10.7,,339.0,,0.0,,0.0,,,1020.9,"",50.0826,8.2493,"50.0826,8.2493","50.0826,8.2493","","Clear"
"50.0826,8.2493","06/21/2020 01:00:00",15.5,15.5,15.5,10.2,70.75,,9.9,,349.0,,0.0,,0.0,,,1021.2,"",50.0826,8.2493,"50.0826,8.2493","50.0826,8.2493","","Clear"
"50.0826,8.2493","06/21/2020 02:00:00",14.3,14.3,14.3,10.4,77.27,,7.0,,14.0,,0.0,,0.0,,,1021.0,"",50.0826,8.2493,"50.0826,8.2493","50.0826,8.2493","","Clear"
"50.0826,8.2493","06/21/2020 03:00:00",13.5,13.5,13.5,10.4,81.5,,4.6,,107.0,,0.0,,0.0,,,1020.9,"",50.0826,8.2493,"50.0826,8.2493","50.0826,8.2493","","Clear"
"50.0826,8.2493","06/21/2020 04:00:00",13.2,13.2,13.2,10.2,82.1,,5.2,,357.0,,0.0,,0.0,13.1,1.1,1020.8,"",50.0826,8.2493,"50.0826,8.2493","50.0826,8.2493","","Clear"
"50.0826,8.2493","06/21/2020 05:00:00",12.8,12.8,12.8,9.9,82.51,,0.4,,250.0,,0.0,,0.0,10.0,1.1,1020.3,"",50.0826,8.2493,"50.0826,8.2493","50.0826,8.2493","","Clear"
"50.0826,8.2493","06/21/2020 06:00:00",11.9,11.9,11.9,10.0,88.32,,5.2,,350.0,,0.0,,0.0,13.5,1.1,1020.6,"",50.0826,8.2493,"50.0826,8.2493","50.0826,8.2493","","Clear"
"50.0826,8.2493","06/21/2020 07:00:00",14.0,14.0,14.0,11.2,82.92,,0.6,,249.0,,0.0,,0.0,10.0,1.1,1021.1,"",50.0826,8.2493,"50.0826,8.2493","50.0826,8.2493","","Clear"
"50.0826,8.2493","06/21/2020 08:00:00",16.9,16.9,16.9,11.6,70.82,,0.4,,7.0,,0.0,,0.0,13.7,1.2,1021.2,"",50.0826,8.2493,"50.0826,8.2493","50.0826,8.2493","","Clear"
"50.0826,8.2493","06/21/2020 09:00:00",18.5,18.5,18.5,11.0,61.33,,1.1,,183.0,,0.0,,0.0,13.7,30.0,1021.5,"",50.0826,8.2493,"50.0826,8.2493","50.0826,8.2493","","Partially cloudy"
"50.0826,8.2493","06/21/2020 10:00:00",19.9,19.9,19.9,11.2,57.42,,5.3,,109.0,,0.0,,0.0,10.0,30.0,1021.3,"",50.0826,8.2493,"50.0826,8.2493","50.0826,8.2493","","Partially cloudy"
"50.0826,8.2493","06/21/2020 11:00:00",21.1,21.1,21.1,10.6,51.16,,1.1,,260.0,,0.0,,0.0,10.0,0.0,1020.9,"",50.0826,8.2493,"50.0826,8.2493","50.0826,8.2493","","Clear"
"50.0826,8.2493","06/21/2020 12:00:00",22.0,22.0,22.0,10.8,49.22,,7.4,,153.0,,0.0,,0.0,10.0,0.0,1020.7,"",50.0826,8.2493,"50.0826,8.2493","50.0826,8.2493","","Clear"
"50.0826,8.2493","06/21/2020 13:00:00",23.3,23.3,23.3,10.4,44.16,,7.5,,228.0,,0.0,,0.0,10.0,0.0,1020.3,"",50.0826,8.2493,"50.0826,8.2493","50.0826,8.2493","","Clear"
"50.0826,8.2493","06/21/2020 14:00:00",24.0,24.0,24.0,10.4,42.28,,5.8,,245.0,,0.0,,0.0,13.5,0.0,1020.0,"",50.0826,8.2493,"50.0826,8.2493","50.0826,8.2493","","Clear"
"50.0826,8.2493","06/21/2020 15:00:00",24.1,24.1,24.1,10.0,40.9,,6.1,,275.0,,0.0,,0.0,10.0,0.0,1019.8,"",50.0826,8.2493,"50.0826,8.2493","50.0826,8.2493","","Clear"
"50.0826,8.2493","06/21/2020 16:00:00",24.8,24.8,24.8,9.6,38.22,,9.6,,238.0,,0.0,,0.0,12.9,0.0,1019.8,"",50.0826,8.2493,"50.0826,8.2493","50.0826,8.2493","","Clear"
"50.0826,8.2493","06/21/2020 17:00:00",24.1,24.1,24.1,10.9,43.52,,12.0,,262.0,,0.0,,0.0,10.0,0.0,1019.1,"",50.0826,8.2493,"50.0826,8.2493","50.0826,8.2493","","Clear"
"50.0826,8.2493","06/21/2020 18:00:00",25.5,25.5,25.5,10.9,39.78,,14.1,,276.0,,0.0,,0.0,10.0,50.0,1019.2,"",50.0826,8.2493,"50.0826,8.2493","50.0826,8.2493","","Partially cloudy"
"50.0826,8.2493","06/21/2020 19:00:00",24.1,24.1,24.1,10.3,41.62,,14.2,,263.0,,0.0,,0.0,10.0,30.0,1019.1,"",50.0826,8.2493,"50.0826,8.2493","50.0826,8.2493","","Partially cloudy"
"50.0826,8.2493","06/21/2020 20:00:00",23.9,23.9,23.9,11.4,45.42,,12.6,,274.0,,0.0,,0.0,10.0,0.0,1019.1,"",50.0826,8.2493,"50.0826,8.2493","50.0826,8.2493","","Clear"
"50.0826,8.2493","06/21/2020 21:00:00",22.0,22.0,22.0,11.6,51.82,,7.9,,272.0,,0.0,,0.0,10.0,50.0,1019.1,"",50.0826,8.2493,"50.0826,8.2493","50.0826,8.2493","","Partially cloudy"
"50.0826,8.2493","06/21/2020 22:00:00",20.2,20.2,20.2,12.0,59.35,,10.7,,277.0,,0.0,,0.0,10.0,50.0,1019.8,"",50.0826,8.2493,"50.0826,8.2493","50.0826,8.2493","","Partially cloudy"
"50.0826,8.2493","06/21/2020 23:00:00",19.7,19.7,19.7,12.0,61.14,,6.4,,304.0,,0.0,,0.0,10.0,1.2,1020.4,"",50.0826,8.2493,"50.0826,8.2493","50.0826,8.2493","","Clear"
"50.0826,8.2493","06/22/2020 00:00:00",19.5,19.5,19.5,12.0,62.09,,1.6,,259.0,,0.0,,0.0,10.0,0.0,1020.7,"",50.0826,8.2493,"50.0826,8.2493","50.0826,8.2493","","Clear"
"50.0826,8.2493","06/22/2020 01:00:00",17.0,17.0,17.0,12.1,72.93,,8.0,,291.0,,0.0,,0.0,10.0,0.0,1021.1,"",50.0826,8.2493,"50.0826,8.2493","50.0826,8.2493","","Clear"
"50.0826,8.2493","06/22/2020 02:00:00",16.3,16.3,16.3,12.1,76.09,,9.3,,275.0,,0.0,,0.0,10.0,0.0,1021.1,"",50.0826,8.2493,"50.0826,8.2493","50.0826,8.2493","","Clear"
"50.0826,8.2493","06/22/2020 03:00:00",15.2,15.2,15.2,11.9,80.81,,1.1,,244.0,,0.0,,0.0,10.0,30.0,1021.2,"",50.0826,8.2493,"50.0826,8.2493","50.0826,8.2493","","Partially cloudy"
"50.0826,8.2493","06/22/2020 04:00:00",15.7,15.7,15.7,12.1,79.3,,10.4,,290.0,,0.0,,0.0,10.0,0.0,1021.5,"",50.0826,8.2493,"50.0826,8.2493","50.0826,8.2493","","Clear"
"50.0826,8.2493","06/22/2020 05:00:00",14.6,14.6,14.6,11.7,83.19,,5.4,,324.0,,0.0,,0.0,13.5,30.0,1021.5,"",50.0826,8.2493,"50.0826,8.2493","50.0826,8.2493","","Partially cloudy"
"50.0826,8.2493","06/22/2020 06:00:00",15.3,15.3,15.3,12.3,82.54,,7.7,,304.0,,0.0,,0.0,10.0,0.0,1021.7,"",50.0826,8.2493,"50.0826,8.2493","50.0826,8.2493","","Clear"
"50.0826,8.2493","06/22/2020 07:00:00",17.1,17.1,17.1,12.7,75.39,,9.2,,285.0,,0.0,,0.0,13.3,0.0,1022.1,"",50.0826,8.2493,"50.0826,8.2493","50.0826,8.2493","","Clear"
"50.0826,8.2493","06/22/2020 08:00:00",17.7,17.7,17.7,12.8,72.84,,6.4,,307.0,,0.0,,0.0,13.0,0.0,1022.8,"",50.0826,8.2493,"50.0826,8.2493","50.0826,8.2493","","Clear"
"50.0826,8.2493","06/22/2020 09:00:00",17.8,17.8,17.8,13.5,75.51,,9.5,,308.0,,0.0,,0.0,11.3,0.0,1023.5,"",50.0826,8.2493,"50.0826,8.2493","50.0826,8.2493","","Clear"
"50.0826,8.2493","06/22/2020 10:00:00",19.0,19.0,19.0,13.6,71.21,,8.0,,6.0,,0.0,,0.0,11.3,0.0,1023.5,"",50.0826,8.2493,"50.0826,8.2493","50.0826,8.2493","","Clear"
"50.0826,8.2493","06/22/2020 11:00:00",19.1,19.1,19.1,13.8,71.22,,14.5,,2.0,,0.0,,0.0,11.4,0.0,1024.2,"",50.0826,8.2493,"50.0826,8.2493","50.0826,8.2493","","Clear"
"50.0826,8.2493","06/22/2020 12:00:00",19.7,19.7,19.7,13.5,67.67,,15.8,,312.0,,0.0,,0.0,11.4,50.0,1024.6,"",50.0826,8.2493,"50.0826,8.2493","50.0826,8.2493","","Partially cloudy"
"50.0826,8.2493","06/22/2020 13:00:00",20.6,20.6,20.6,13.3,62.83,,12.8,,302.0,,0.0,,0.0,14.6,0.0,1024.6,"",50.0826,8.2493,"50.0826,8.2493","50.0826,8.2493","","Clear"
"50.0826,8.2493","06/22/2020 14:00:00",22.0,22.0,22.0,13.3,57.63,,10.9,,291.0,,0.0,,0.0,12.5,0.0,1024.9,"",50.0826,8.2493,"50.0826,8.2493","50.0826,8.2493","","Clear"
"50.0826,8.2493","06/22/2020 15:00:00",22.1,22.1,22.1,12.9,55.64,,12.8,,327.0,,0.0,,0.0,10.0,50.0,1025.0,"",50.0826,8.2493,"50.0826,8.2493","50.0826,8.2493","","Partially cloudy"
"50.0826,8.2493","06/22/2020 16:00:00",23.2,23.2,23.2,12.7,51.71,,14.1,,313.0,,0.0,,0.0,10.0,30.0,1024.6,"",50.0826,8.2493,"50.0826,8.2493","50.0826,8.2493","","Partially cloudy"
"50.0826,8.2493","06/22/2020 17:00:00",23.7,23.7,23.7,12.1,48.0,,14.4,,343.0,,0.0,,0.0,10.0,0.0,1024.2,"",50.0826,8.2493,"50.0826,8.2493","50.0826,8.2493","","Clear"
"50.0826,8.2493","06/22/2020 18:00:00",23.6,23.6,23.6,11.9,47.85,,11.2,,318.0,,0.0,,0.0,10.0,0.0,1023.8,"",50.0826,8.2493,"50.0826,8.2493","50.0826,8.2493","","Clear"
"50.0826,8.2493","06/22/2020 19:00:00",23.5,23.5,23.5,12.0,48.35,,12.5,,330.0,,0.0,,0.0,10.0,30.0,1023.8,"",50.0826,8.2493,"50.0826,8.2493","50.0826,8.2493","","Partially cloudy"
"50.0826,8.2493","06/22/2020 20:00:00",22.8,22.8,22.8,11.8,49.84,,9.7,,351.0,,0.0,,0.0,12.9,0.0,1023.8,"",50.0826,8.2493,"50.0826,8.2493","50.0826,8.2493","","Clear"
"50.0826,8.2493","06/22/2020 21:00:00",21.2,21.2,21.2,11.7,54.61,,9.6,,347.0,,0.0,,0.0,10.0,0.0,1023.9,"",50.0826,8.2493,"50.0826,8.2493","50.0826,8.2493","","Clear"
"50.0826,8.2493","06/22/2020 22:00:00",18.9,18.9,18.9,11.5,62.14,,6.2,,358.0,,0.0,,0.0,13.1,1.1,1023.9,"",50.0826,8.2493,"50.0826,8.2493","50.0826,8.2493","","Clear"
"50.0826,8.2493","06/22/2020 23:00:00",17.8,17.8,17.8,10.8,63.74,,9.9,,8.0,,0.0,,0.0,13.4,1.1,1024.2,"",50.0826,8.2493,"50.0826,8.2493","50.0826,8.2493","","Clear"
"50.0826,8.2493","06/23/2020 00:00:00",17.1,17.1,17.1,10.4,64.72,,13.2,,29.0,,0.0,,0.0,12.7,1.1,1024.2,"",50.0826,8.2493,"50.0826,8.2493","50.0826,8.2493","","Clear"
"50.0826,8.2493","06/23/2020 01:00:00",16.4,16.4,16.4,10.2,66.97,,13.0,,22.0,,0.0,,0.0,13.1,0.0,1024.6,"",50.0826,8.2493,"50.0826,8.2493","50.0826,8.2493","","Clear"
"50.0826,8.2493","06/23/2020 02:00:00",16.1,16.1,16.1,10.0,67.13,,13.3,,22.0,,0.0,,0.0,12.9,1.2,1024.9,"",50.0826,8.2493,"50.0826,8.2493","50.0826,8.2493","","Clear"
"50.0826,8.2493","06/23/2020 03:00:00",15.5,15.5,15.5,9.8,68.69,,11.8,,31.0,,0.0,,0.0,15.9,0.0,1024.9,"",50.0826,8.2493,"50.0826,8.2493","50.0826,8.2493","","Clear"
"50.0826,8.2493","06/23/2020 04:00:00",15.3,15.3,15.3,9.7,69.23,,8.1,,32.0,,0.0,,0.0,15.5,0.0,1024.6,"",50.0826,8.2493,"50.0826,8.2493","50.0826,8.2493","","Clear"
"50.0826,8.2493","06/23/2020 05:00:00",14.5,14.5,14.5,9.9,73.61,,9.1,,41.0,,0.0,,0.0,15.8,1.2,1024.7,"",50.0826,8.2493,"50.0826,8.2493","50.0826,8.2493","","Clear"
"50.0826,8.2493","06/23/2020 06:00:00",14.9,14.9,14.9,10.1,72.85,,1.6,,75.0,,0.0,,0.0,16.1,1.1,1024.9,"",50.0826,8.2493,"50.0826,8.2493","50.0826,8.2493","","Clear"
"50.0826,8.2493","06/23/2020 07:00:00",15.7,15.7,15.7,11.1,74.11,,1.4,,80.0,,0.0,,0.0,13.4,42.8,1025.2,"",50.0826,8.2493,"50.0826,8.2493","50.0826,8.2493","","Partially cloudy"
"50.0826,8.2493","06/23/2020 08:00:00",18.4,18.4,18.4,11.3,63.11,,2.1,,55.0,,0.0,,0.0,10.0,0.0,1025.2,"",50.0826,8.2493,"50.0826,8.2493","50.0826,8.2493","","Clear"
"50.0826,8.2493","06/23/2020 09:00:00",20.7,20.7,20.7,10.9,53.62,,11.1,,86.0,,0.0,,0.0,12.9,0.0,1025.6,"",50.0826,8.2493,"50.0826,8.2493","50.0826,8.2493","","Clear"
"50.0826,8.2493","06/23/2020 10:00:00",22.1,22.1,22.1,9.1,43.63,,11.2,,62.0,,0.0,,0.0,13.4,1.1,1025.5,"",50.0826,8.2493,"50.0826,8.2493","50.0826,8.2493","","Clear"
"50.0826,8.2493","06/23/2020 11:00:00",23.1,23.1,23.1,9.1,40.89,,12.5,,76.0,,0.0,,0.0,13.2,1.2,1025.1,"",50.0826,8.2493,"50.0826,8.2493","50.0826,8.2493","","Clear"
"50.0826,8.2493","06/23/2020 12:00:00",23.7,23.7,23.7,9.0,39.14,,9.8,,81.0,,0.0,,0.0,12.3,2.2,1025.2,"",50.0826,8.2493,"50.0826,8.2493","50.0826,8.2493","","Clear"
"50.0826,8.2493","06/23/2020 13:00:00",24.4,24.4,24.4,9.2,38.02,,14.9,,56.0,,0.0,,0.0,13.1,1.1,1024.9,"",50.0826,8.2493,"50.0826,8.2493","50.0826,8.2493","","Clear"
"50.0826,8.2493","06/23/2020 14:00:00",25.2,25.2,25.2,9.2,36.28,,17.1,,89.0,,0.0,,0.0,12.1,1.1,1024.6,"",50.0826,8.2493,"50.0826,8.2493","50.0826,8.2493","","Clear"
"50.0826,8.2493","06/23/2020 15:00:00",25.5,25.5,25.5,9.1,35.41,,8.6,,48.0,,0.0,,0.0,10.0,1.1,1024.0,"",50.0826,8.2493,"50.0826,8.2493","50.0826,8.2493","","Clear"
"50.0826,8.2493","06/23/2020 16:00:00",26.5,26.5,26.5,10.0,35.4,,11.1,,55.0,,0.0,,0.0,12.2,1.1,1023.8,"",50.0826,8.2493,"50.0826,8.2493","50.0826,8.2493","","Clear"
"50.0826,8.2493","06/23/2020 17:00:00",26.7,26.7,26.7,9.0,32.77,26.4,15.7,,72.0,,0.0,,0.0,12.5,0.0,1023.1,"",50.0826,8.2493,"50.0826,8.2493","50.0826,8.2493","","Clear"
"50.0826,8.2493","06/23/2020 18:00:00",26.6,26.6,26.6,8.9,32.68,,17.5,,62.0,,0.0,,0.0,13.1,0.0,1022.8,"",50.0826,8.2493,"50.0826,8.2493","50.0826,8.2493","","Clear"
"50.0826,8.2493","06/23/2020 19:00:00",25.9,25.9,25.9,8.3,32.79,,14.7,,45.0,,0.0,,0.0,10.0,1.1,1023.1,"",50.0826,8.2493,"50.0826,8.2493","50.0826,8.2493","","Clear"
"50.0826,8.2493","06/23/2020 20:00:00",25.1,25.1,25.1,9.0,35.98,,18.0,,56.0,,0.0,,0.0,10.0,1.1,1022.7,"",50.0826,8.2493,"50.0826,8.2493","50.0826,8.2493","","Clear"
"50.0826,8.2493","06/23/2020 21:00:00",23.1,23.1,23.1,9.2,41.12,,11.6,,49.0,,0.0,,0.0,10.0,1.1,1022.7,"",50.0826,8.2493,"50.0826,8.2493","50.0826,8.2493","","Clear"
"50.0826,8.2493","06/23/2020 22:00:00",20.5,20.5,20.5,9.5,49.31,,9.0,,17.0,,0.0,,0.0,13.6,1.1,1023.1,"",50.0826,8.2493,"50.0826,8.2493","50.0826,8.2493","","Clear"
"50.0826,8.2493","06/23/2020 23:00:00",20.0,20.0,20.0,9.7,51.58,,8.8,,16.0,,0.0,,0.0,13.3,1.1,1023.4,"",50.0826,8.2493,"50.0826,8.2493","50.0826,8.2493","","Clear"
"50.0826,8.2493","06/24/2020 00:00:00",19.6,19.6,19.6,9.7,52.94,,9.3,,17.0,,0.0,,0.0,13.7,1.1,1023.4,"",50.0826,8.2493,"50.0826,8.2493","50.0826,8.2493","","Clear"
"50.0826,8.2493","06/24/2020 01:00:00",18.9,18.9,18.9,9.8,55.6,,8.9,,17.0,,0.0,,0.0,16.5,0.0,1023.4,"",50.0826,8.2493,"50.0826,8.2493","50.0826,8.2493","","Clear"
"50.0826,8.2493","06/24/2020 02:00:00",17.2,17.2,17.2,9.8,61.89,,9.1,,50.0,,0.0,,0.0,13.7,0.0,1023.6,"",50.0826,8.2493,"50.0826,8.2493","50.0826,8.2493","","Clear"
"50.0826,8.2493","06/24/2020 03:00:00",16.7,16.7,16.7,9.8,63.63,,7.3,,42.0,,0.0,,0.0,13.7,0.0,1023.5,"",50.0826,8.2493,"50.0826,8.2493","50.0826,8.2493","","Clear"
"50.0826,8.2493","06/24/2020 04:00:00",15.8,15.8,15.8,9.9,67.98,,5.1,,38.0,,0.0,,0.0,13.7,0.0,1023.4,"",50.0826,8.2493,"50.0826,8.2493","50.0826,8.2493","","Clear"
"50.0826,8.2493","06/24/2020 05:00:00",16.1,16.1,16.1,8.9,62.14,,8.8,,57.0,,0.0,,0.0,13.7,1.1,1022.8,"",50.0826,8.2493,"50.0826,8.2493","50.0826,8.2493","","Clear"
"50.0826,8.2493","06/24/2020 06:00:00",16.0,16.0,16.0,9.0,63.0,,6.8,,37.0,,0.0,,0.0,13.7,1.1,1023.0,"",50.0826,8.2493,"50.0826,8.2493","50.0826,8.2493","","Clear"
"50.0826,8.2493","06/24/2020 07:00:00",17.6,17.6,17.6,8.9,56.7,,11.8,,52.0,,0.0,,0.0,10.0,1.1,1023.1,"",50.0826,8.2493,"50.0826,8.2493","50.0826,8.2493","","Clear"
"50.0826,8.2493","06/24/2020 08:00:00",20.2,20.2,20.2,8.9,48.34,,17.6,,52.0,,0.0,,0.0,13.1,1.1,1023.0,"",50.0826,8.2493,"50.0826,8.2493","50.0826,8.2493","","Clear"
"50.0826,8.2493","06/24/2020 09:00:00",21.7,21.7,21.7,8.1,41.68,,15.7,,77.0,,0.0,,0.0,10.0,1.1,1023.0,"",50.0826,8.2493,"50.0826,8.2493","50.0826,8.2493","","Clear"
"50.0826,8.2493","06/24/2020 10:00:00",23.2,23.2,23.2,7.7,36.92,,13.0,,62.0,,0.0,,0.0,10.0,1.1,1023.0,"",50.0826,8.2493,"50.0826,8.2493","50.0826,8.2493","","Clear"
"50.0826,8.2493","06/24/2020 11:00:00",23.9,23.9,23.9,8.1,36.28,,15.2,,70.0,,0.0,,0.0,10.0,1.1,1023.0,"",50.0826,8.2493,"50.0826,8.2493","50.0826,8.2493","","Clear"
"50.0826,8.2493","06/24/2020 12:00:00",24.9,24.9,24.9,7.6,33.04,,20.0,,62.0,,0.0,,0.0,12.5,0.0,1022.4,"",50.0826,8.2493,"50.0826,8.2493","50.0826,8.2493","","Clear"
"50.0826,8.2493","06/24/2020 13:00:00",25.4,25.4,25.4,4.8,26.55,,13.7,,46.0,,0.0,,0.0,10.0,27.3,1022.0,"",50.0826,8.2493,"50.0826,8.2493","50.0826,8.2493","","Partially cloudy"
"50.0826,8.2493","06/24/2020 14:00:00",26.3,26.3,26.3,6.2,27.9,,18.4,,71.0,,0.0,,0.0,10.0,1.1,1021.5,"",50.0826,8.2493,"50.0826,8.2493","50.0826,8.2493","","Clear"
"50.0826,8.2493","06/24/2020 15:00:00",27.0,27.0,27.0,6.7,27.55,26.4,13.9,,44.0,,0.0,,0.0,13.3,27.3,1020.9,"",50.0826,8.2493,"50.0826,8.2493","50.0826,8.2493","","Partially cloudy"
"50.0826,8.2493","06/24/2020 16:00:00",27.3,27.3,27.3,6.9,27.5,26.5,13.5,,36.0,,0.0,,0.0,12.9,1.1,1020.5,"",50.0826,8.2493,"50.0826,8.2493","50.0826,8.2493","","Clear"
"50.0826,8.2493","06/24/2020 17:00:00",27.4,27.4,27.4,7.6,28.65,26.6,10.6,,27.0,,0.0,,0.0,10.0,1.1,1020.7,"",50.0826,8.2493,"50.0826,8.2493","50.0826,8.2493","","Clear"
"50.0826,8.2493","06/24/2020 18:00:00",27.4,27.4,27.4,8.2,29.93,26.7,13.2,,37.0,,0.0,,0.0,10.0,1.1,1020.3,"",50.0826,8.2493,"50.0826,8.2493","50.0826,8.2493","","Clear"
"50.0826,8.2493","06/24/2020 19:00:00",26.8,26.8,26.8,8.3,31.03,26.3,11.5,,24.0,,0.0,,0.0,10.0,0.0,1019.9,"",50.0826,8.2493,"50.0826,8.2493","50.0826,8.2493","","Clear"
"50.0826,8.2493","06/24/2020 20:00:00",25.8,25.8,25.8,9.1,34.79,,14.6,,58.0,,0.0,,0.0,10.0,1.2,1019.9,"",50.0826,8.2493,"50.0826,8.2493","50.0826,8.2493","","Clear"
"50.0826,8.2493","06/24/2020 21:00:00",24.4,24.4,24.4,10.6,41.67,,14.5,,72.0,,0.0,,0.0,10.0,50.0,1019.9,"",50.0826,8.2493,"50.0826,8.2493","50.0826,8.2493","","Partially cloudy"
"50.0826,8.2493","06/24/2020 22:00:00",22.8,22.8,22.8,10.5,45.79,,11.7,,43.0,,0.0,,0.0,10.0,0.0,1020.3,"",50.0826,8.2493,"50.0826,8.2493","50.0826,8.2493","","Clear"
"50.0826,8.2493","06/24/2020 23:00:00",21.5,21.5,21.5,10.3,48.99,,18.6,,52.0,,0.0,,0.0,13.6,0.0,1020.6,"",50.0826,8.2493,"50.0826,8.2493","50.0826,8.2493","","Clear"
"50.0826,8.2493","06/25/2020 00:00:00",20.5,20.5,20.5,10.4,52.23,,16.9,,54.0,,0.0,,0.0,10.0,0.0,1020.6,"",50.0826,8.2493,"50.0826,8.2493","50.0826,8.2493","","Clear"
"50.0826,8.2493","06/25/2020 01:00:00",19.4,19.4,19.4,10.6,56.43,,15.2,,54.0,,0.0,,0.0,10.0,1.1,1021.0,"",50.0826,8.2493,"50.0826,8.2493","50.0826,8.2493","","Clear"
"50.0826,8.2493","06/25/2020 02:00:00",18.8,18.8,18.8,10.6,58.79,,16.3,,54.0,,0.0,,0.0,13.5,1.1,1020.6,"",50.0826,8.2493,"50.0826,8.2493","50.0826,8.2493","","Clear"
"50.0826,8.2493","06/25/2020 03:00:00",18.3,18.3,18.3,10.7,61.05,,16.5,,52.0,,0.0,,0.0,10.0,0.0,1020.4,"",50.0826,8.2493,"50.0826,8.2493","50.0826,8.2493","","Clear"
"50.0826,8.2493","06/25/2020 04:00:00",17.9,17.9,17.9,10.9,63.58,,16.8,,52.0,,0.0,,0.0,13.0,1.1,1020.4,"",50.0826,8.2493,"50.0826,8.2493","50.0826,8.2493","","Clear"
"50.0826,8.2493","06/25/2020 05:00:00",17.3,17.3,17.3,11.2,67.17,,17.0,,61.0,,0.0,,0.0,10.0,1.1,1020.3,"",50.0826,8.2493,"50.0826,8.2493","50.0826,8.2493","","Clear"
"50.0826,8.2493","06/25/2020 06:00:00",17.1,17.1,17.1,11.4,69.01,,18.7,,54.0,,0.0,,0.0,13.3,1.1,1020.1,"",50.0826,8.2493,"50.0826,8.2493","50.0826,8.2493","","Clear"
"50.0826,8.2493","06/25/2020 07:00:00",18.2,18.2,18.2,11.9,66.49,,17.2,,77.0,,0.0,,0.0,10.0,1.1,1020.0,"",50.0826,8.2493,"50.0826,8.2493","50.0826,8.2493","","Clear"
"50.0826,8.2493","06/25/2020 08:00:00",20.0,20.0,20.0,12.0,59.74,,12.1,,107.0,,0.0,,0.0,15.9,1.1,1019.6,"",50.0826,8.2493,"50.0826,8.2493","50.0826,8.2493","","Clear"
"50.0826,8.2493","06/25/2020 09:00:00",21.5,21.5,21.5,11.9,54.6,,17.7,,78.0,,0.0,,0.0,13.7,1.1,1019.6,"",50.0826,8.2493,"50.0826,8.2493","50.0826,8.2493","","Clear"
"50.0826,8.2493","06/25/2020 10:00:00",22.9,22.9,22.9,12.4,51.78,,14.5,,70.0,,0.0,,0.0,16.6,1.1,1019.3,"",50.0826,8.2493,"50.0826,8.2493","50.0826,8.2493","","Clear"
"50.0826,8.2493","06/25/2020 11:00:00",24.0,24.0,24.0,12.9,49.82,,16.4,,62.0,,0.0,,0.0,16.1,1.1,1019.0,"",50.0826,8.2493,"50.0826,8.2493","50.0826,8.2493","","Clear"
"50.0826,8.2493","06/25/2020 12:00:00",24.9,24.9,24.9,13.7,49.81,,13.3,,85.0,,0.0,,0.0,13.7,0.0,1019.0,"",50.0826,8.2493,"50.0826,8.2493","50.0826,8.2493","","Clear"
"50.0826,8.2493","06/25/2020 13:00:00",25.3,25.3,25.3,14.2,50.35,,15.3,,80.0,,0.0,,0.0,13.3,0.0,1018.6,"",50.0826,8.2493,"50.0826,8.2493","50.0826,8.2493","","Clear"
"50.0826,8.2493","06/25/2020 14:00:00",24.2,24.2,24.2,14.5,54.46,,17.7,,63.0,,0.0,,0.0,10.0,50.0,1018.3,"",50.0826,8.2493,"50.0826,8.2493","50.0826,8.2493","","Partially cloudy"
"50.0826,8.2493","06/25/2020 15:00:00",24.1,24.1,24.1,14.9,56.56,,17.9,,54.0,,0.0,,0.0,12.5,30.0,1018.0,"",50.0826,8.2493,"50.0826,8.2493","50.0826,8.2493","","Partially cloudy"
"50.0826,8.2493","06/25/2020 16:00:00",23.4,23.4,23.4,14.7,58.21,,17.9,,93.0,,0.0,,0.0,10.0,50.0,1018.0,"",50.0826,8.2493,"50.0826,8.2493","50.0826,8.2493","","Partially cloudy"
"50.0826,8.2493","06/25/2020 17:00:00",24.8,24.8,24.8,14.9,54.29,,7.6,,108.0,,0.0,,0.0,12.2,0.0,1017.3,"",50.0826,8.2493,"50.0826,8.2493","50.0826,8.2493","","Clear"
"50.0826,8.2493","06/25/2020 18:00:00",25.5,25.5,25.5,13.7,48.01,,12.3,,92.0,,0.0,,0.0,10.0,30.0,1016.6,"",50.0826,8.2493,"50.0826,8.2493","50.0826,8.2493","","Partially cloudy"
"50.0826,8.2493","06/25/2020 19:00:00",24.9,24.9,24.9,13.6,49.52,,14.7,,97.0,,0.0,,0.0,10.0,30.0,1016.3,"",50.0826,8.2493,"50.0826,8.2493","50.0826,8.2493","","Partially cloudy"
"50.0826,8.2493","06/25/2020 20:00:00",24.5,24.5,24.5,13.6,50.74,,8.6,,78.0,,0.0,,0.0,10.0,27.3,1016.3,"",50.0826,8.2493,"50.0826,8.2493","50.0826,8.2493","","Partially cloudy"
"50.0826,8.2493","06/25/2020 21:00:00",22.8,22.8,22.8,13.3,55.11,,10.0,,111.0,,0.0,,0.0,13.6,1.1,1016.3,"",50.0826,8.2493,"50.0826,8.2493","50.0826,8.2493","","Clear"
"50.0826,8.2493","06/25/2020 22:00:00",20.2,20.2,20.2,12.4,61.0,,10.1,,77.0,,0.0,,0.0,10.0,1.1,1016.6,"",50.0826,8.2493,"50.0826,8.2493","50.0826,8.2493","","Clear"
"50.0826,8.2493","06/25/2020 23:00:00",19.4,19.4,19.4,12.5,64.55,,2.3,,94.0,,0.0,,0.0,10.0,1.1,1016.6,"",50.0826,8.2493,"50.0826,8.2493","50.0826,8.2493","","Clear"
"50.0826,8.2493","06/26/2020 00:00:00",18.4,18.4,18.4,12.5,68.28,,2.2,,95.0,,0.0,,0.0,10.0,0.0,1016.3,"",50.0826,8.2493,"50.0826,8.2493","50.0826,8.2493","","Clear"
"50.0826,8.2493","06/26/2020 01:00:00",17.9,17.9,17.9,12.3,69.78,,2.1,,89.0,,0.0,,0.0,10.0,0.0,1016.0,"",50.0826,8.2493,"50.0826,8.2493","50.0826,8.2493","","Clear"
"50.0826,8.2493","06/26/2020 02:00:00",16.9,16.9,16.9,12.1,72.94,,6.9,,64.0,,0.0,,0.0,10.0,0.0,1015.4,"",50.0826,8.2493,"50.0826,8.2493","50.0826,8.2493","","Clear"
"50.0826,8.2493","06/26/2020 03:00:00",17.0,17.0,17.0,11.7,71.21,,11.7,,66.0,,0.0,,0.0,10.0,0.0,1015.0,"",50.0826,8.2493,"50.0826,8.2493","50.0826,8.2493","","Clear"
"50.0826,8.2493","06/26/2020 04:00:00",16.4,16.4,16.4,11.4,72.5,,13.4,,61.0,,0.0,,0.0,10.0,0.0,1015.0,"",50.0826,8.2493,"50.0826,8.2493","50.0826,8.2493","","Clear"
"50.0826,8.2493","06/26/2020 05:00:00",16.4,16.4,16.4,11.2,71.64,,11.6,,52.0,,0.0,,0.0,10.0,1.1,1014.6,"",50.0826,8.2493,"50.0826,8.2493","50.0826,8.2493","","Clear"
"50.0826,8.2493","06/26/2020 06:00:00",16.9,16.9,16.9,11.3,69.51,,11.8,,61.0,,0.0,,0.0,10.0,1.1,1014.4,"",50.0826,8.2493,"50.0826,8.2493","50.0826,8.2493","","Clear"
"50.0826,8.2493","06/26/2020 07:00:00",17.9,17.9,17.9,11.6,66.4,,16.9,,63.0,,0.0,,0.0,13.1,1.1,1014.3,"",50.0826,8.2493,"50.0826,8.2493","50.0826,8.2493","","Clear"
"50.0826,8.2493","06/26/2020 08:00:00",19.3,19.3,19.3,11.4,60.45,,16.9,,72.0,,0.0,,0.0,13.7,1.1,1014.6,"",50.0826,8.2493,"50.0826,8.2493","50.0826,8.2493","","Clear"
"50.0826,8.2493","06/26/2020 09:00:00",21.1,21.1,21.1,11.7,55.09,,20.3,,84.0,,0.0,,0.0,13.7,1.1,1014.6,"",50.0826,8.2493,"50.0826,8.2493","50.0826,8.2493","","Clear"
"50.0826,8.2493","06/26/2020 10:00:00",22.4,22.4,22.4,11.8,51.05,,18.8,,83.0,,0.0,,0.0,16.4,1.1,1013.9,"",50.0826,8.2493,"50.0826,8.2493","50.0826,8.2493","","Clear"
"50.0826,8.2493","06/26/2020 11:00:00",24.2,24.2,24.2,11.9,46.15,,15.9,,85.0,,0.0,,0.0,10.0,1.1,1013.5,"",50.0826,8.2493,"50.0826,8.2493","50.0826,8.2493","","Clear"
"50.0826,8.2493","06/26/2020 12:00:00",25.5,25.5,25.5,11.0,40.48,,16.8,,110.0,,0.0,,0.0,10.0,1.1,1013.2,"",50.0826,8.2493,"50.0826,8.2493","50.0826,8.2493","","Clear"
"50.0826,8.2493","06/26/2020 13:00:00",26.5,26.5,26.5,10.8,37.34,,11.7,,71.0,,0.0,,0.0,12.8,1.1,1012.9,"",50.0826,8.2493,"50.0826,8.2493","50.0826,8.2493","","Clear"
"50.0826,8.2493","06/26/2020 14:00:00",27.6,27.6,27.6,11.5,36.75,27.2,14.1,,113.0,,0.0,,0.0,12.9,1.1,1012.2,"",50.0826,8.2493,"50.0826,8.2493","50.0826,8.2493","","Clear"
"50.0826,8.2493","06/26/2020 15:00:00",28.3,28.3,28.3,12.0,36.45,27.7,1.8,,88.0,,0.0,,0.0,10.0,1.1,1011.4,"",50.0826,8.2493,"50.0826,8.2493","50.0826,8.2493","","Clear"
"50.0826,8.2493","06/26/2020 16:00:00",28.8,28.8,28.8,11.5,34.24,28.0,8.0,,306.0,,0.0,,0.0,13.2,1.1,1010.8,"",50.0826,8.2493,"50.0826,8.2493","50.0826,8.2493","","Clear"
"50.0826,8.2493","06/26/2020 17:00:00",29.8,29.8,29.8,11.5,32.44,28.7,5.8,,240.0,,0.0,,0.0,10.0,0.0,1010.7,"",50.0826,8.2493,"50.0826,8.2493","50.0826,8.2493","","Clear"
"50.0826,8.2493","06/26/2020 18:00:00",28.7,28.7,28.7,12.0,35.57,28.0,6.2,,138.0,,0.0,,0.0,10.0,1.2,1010.4,"",50.0826,8.2493,"50.0826,8.2493","50.0826,8.2493","","Clear"
"50.0826,8.2493","06/26/2020 19:00:00",25.2,25.2,25.2,13.9,49.59,,35.7,,214.0,,0.0,,0.0,10.0,50.0,1011.5,"",50.0826,8.2493,"50.0826,8.2493","50.0826,8.2493","","Partially cloudy"
"50.0826,8.2493","06/26/2020 20:00:00",21.2,21.2,21.2,15.7,70.95,,16.7,50.0,261.0,,0.01,,0.0,16.6,0.0,1011.3,"",50.0826,8.2493,"50.0826,8.2493","50.0826,8.2493","","Rain"
"50.0826,8.2493","06/26/2020 21:00:00",21.7,21.7,21.7,15.3,66.89,,9.7,,352.0,,0.0,,0.0,15.2,50.0,1010.6,"",50.0826,8.2493,"50.0826,8.2493","50.0826,8.2493","","Partially cloudy"
"50.0826,8.2493","06/26/2020 22:00:00",20.6,20.6,20.6,15.4,71.91,,12.7,,136.0,,0.0,,0.0,13.3,0.0,1011.6,"",50.0826,8.2493,"50.0826,8.2493","50.0826,8.2493","","Clear"
"50.0826,8.2493","06/26/2020 23:00:00",19.8,19.8,19.8,16.1,79.25,,9.6,,239.0,,0.0,,0.0,13.3,0.0,1011.9,"",50.0826,8.2493,"50.0826,8.2493","50.0826,8.2493","","Clear"
"50.0826,8.2493","06/27/2020 00:00:00",19.1,19.1,19.1,15.8,81.23,,6.3,,266.0,,0.0,,0.0,16.1,0.0,1012.2,"",50.0826,8.2493,"50.0826,8.2493","50.0826,8.2493","","Clear"
"50.0826,8.2493","06/27/2020 01:00:00",18.8,18.8,18.8,15.9,83.45,,1.5,,200.0,,0.0,,0.0,13.3,50.0,1012.1,"",50.0826,8.2493,"50.0826,8.2493","50.0826,8.2493","","Partially cloudy"
"50.0826,8.2493","06/27/2020 02:00:00",18.2,18.2,18.2,16.1,87.77,,1.4,,195.0,,0.0,,0.0,13.3,0.0,1011.4,"",50.0826,8.2493,"50.0826,8.2493","50.0826,8.2493","","Clear"
"50.0826,8.2493","06/27/2020 03:00:00",17.2,17.2,17.2,15.6,90.26,,1.6,,215.0,,0.0,,0.0,16.2,30.0,1012.1,"",50.0826,8.2493,"50.0826,8.2493","50.0826,8.2493","","Partially cloudy"
"50.0826,8.2493","06/27/2020 04:00:00",16.7,16.7,16.7,15.5,92.33,,1.1,,224.0,,0.0,,0.0,9.2,0.0,1011.8,"Mist",50.0826,8.2493,"50.0826,8.2493","50.0826,8.2493","","Clear"
"50.0826,8.2493","06/27/2020 05:00:00",16.7,16.7,16.7,15.7,94.12,,1.2,,245.0,,0.0,,0.0,11.1,0.0,1011.8,"Mist",50.0826,8.2493,"50.0826,8.2493","50.0826,8.2493","","Clear"
"50.0826,8.2493","06/27/2020 06:00:00",16.5,16.5,16.5,15.7,95.05,,1.5,,220.0,,0.0,,0.0,9.0,0.0,1011.5,"Mist",50.0826,8.2493,"50.0826,8.2493","50.0826,8.2493","","Clear"
"50.0826,8.2493","06/27/2020 07:00:00",18.3,18.3,18.3,16.8,90.55,,1.8,,224.0,,0.0,,0.0,11.9,30.0,1011.9,"",50.0826,8.2493,"50.0826,8.2493","50.0826,8.2493","","Partially cloudy"
"50.0826,8.2493","06/27/2020 08:00:00",19.2,19.2,19.2,17.3,88.7,,15.8,,237.0,,0.09,,0.0,13.7,0.0,1012.6,"",50.0826,8.2493,"50.0826,8.2493","50.0826,8.2493","","Rain"
"50.0826,8.2493","06/27/2020 09:00:00",18.6,18.6,18.6,17.9,95.85,,1.9,,265.0,,4.42,,0.0,11.9,30.0,1012.1,"Light Rain",50.0826,8.2493,"50.0826,8.2493","50.0826,8.2493","","Rain, Partially cloudy"
"50.0826,8.2493","06/27/2020 10:00:00",20.8,20.8,20.8,17.4,80.98,,1.3,,239.0,,0.09,,0.0,15.7,30.0,1012.0,"",50.0826,8.2493,"50.0826,8.2493","50.0826,8.2493","","Rain, Partially cloudy"
"50.0826,8.2493","06/27/2020 11:00:00",21.5,21.5,21.5,17.3,77.04,,9.7,,209.0,,0.0,,0.0,13.3,50.0,1012.6,"",50.0826,8.2493,"50.0826,8.2493","50.0826,8.2493","","Partially cloudy"
"50.0826,8.2493","06/27/2020 12:00:00",23.1,23.1,23.1,17.2,69.22,,7.0,,219.0,,0.0,,0.0,15.5,50.0,1012.6,"",50.0826,8.2493,"50.0826,8.2493","50.0826,8.2493","","Partially cloudy"
"50.0826,8.2493","06/27/2020 13:00:00",23.0,23.0,23.0,16.8,68.09,,20.5,,210.0,,0.0,,0.0,14.2,30.0,1012.6,"",50.0826,8.2493,"50.0826,8.2493","50.0826,8.2493","","Partially cloudy"
"50.0826,8.2493","06/27/2020 14:00:00",25.4,25.4,25.4,16.8,59.26,,18.6,,195.0,,0.0,,0.0,12.9,50.0,1012.2,"",50.0826,8.2493,"50.0826,8.2493","50.0826,8.2493","","Partially cloudy"
"50.0826,8.2493","06/27/2020 15:00:00",25.1,25.1,25.1,16.6,59.55,,14.8,,213.0,,0.0,,0.0,10.0,30.0,1011.9,"",50.0826,8.2493,"50.0826,8.2493","50.0826,8.2493","","Partially cloudy"
"50.0826,8.2493","06/27/2020 16:00:00",27.1,27.1,27.1,15.2,48.13,27.4,22.2,,222.0,,0.0,,0.0,10.0,0.0,1011.5,"",50.0826,8.2493,"50.0826,8.2493","50.0826,8.2493","","Clear"
"50.0826,8.2493","06/27/2020 17:00:00",27.5,27.5,27.5,14.7,45.66,27.6,26.8,,229.0,,0.0,,0.0,10.0,30.0,1011.1,"",50.0826,8.2493,"50.0826,8.2493","50.0826,8.2493","","Partially cloudy"
"50.0826,8.2493","06/27/2020 18:00:00",27.8,27.8,27.8,15.1,45.96,27.9,21.8,,230.0,,0.0,,0.0,10.0,0.0,1010.5,"",50.0826,8.2493,"50.0826,8.2493","50.0826,8.2493","","Clear"
"50.0826,8.2493","06/27/2020 19:00:00",27.2,27.2,27.2,14.8,46.83,27.4,21.8,,223.0,,0.0,,0.0,10.0,0.0,1010.8,"",50.0826,8.2493,"50.0826,8.2493","50.0826,8.2493","","Clear"
"50.0826,8.2493","06/27/2020 20:00:00",26.4,26.4,26.4,15.4,50.98,,18.0,,238.0,,0.02,,0.0,10.0,0.0,1011.2,"",50.0826,8.2493,"50.0826,8.2493","50.0826,8.2493","","Rain"
"50.0826,8.2493","06/27/2020 21:00:00",24.6,24.6,24.6,14.5,53.68,,13.4,,248.0,,0.02,,0.0,13.4,1.2,1011.2,"",50.0826,8.2493,"50.0826,8.2493","50.0826,8.2493","","Rain"
"50.0826,8.2493","06/27/2020 22:00:00",22.3,22.3,22.3,14.5,61.44,,11.6,,258.0,,0.0,,0.0,13.5,0.0,1011.9,"",50.0826,8.2493,"50.0826,8.2493","50.0826,8.2493","","Clear"
"50.0826,8.2493","06/27/2020 23:00:00",21.0,21.0,21.0,14.8,67.7,,1.7,,234.0,,0.0,,0.0,10.0,30.0,1012.6,"",50.0826,8.2493,"50.0826,8.2493","50.0826,8.2493","","Partially cloudy"
"50.0826,8.2493","06/28/2020 00:00:00",20.0,20.0,20.0,14.6,71.09,,6.0,,188.0,,0.0,,0.0,10.0,1.1,1012.6,"",50.0826,8.2493,"50.0826,8.2493","50.0826,8.2493","","Clear"
"50.0826,8.2493","06/28/2020 01:00:00",18.8,18.8,18.8,14.9,78.08,,7.8,,162.0,,0.0,,0.0,10.0,50.0,1012.6,"",50.0826,8.2493,"50.0826,8.2493","50.0826,8.2493","","Partially cloudy"
"50.0826,8.2493","06/28/2020 02:00:00",18.2,18.2,18.2,15.1,82.28,,1.8,,199.0,,0.0,,0.0,10.0,0.0,1012.9,"",50.0826,8.2493,"50.0826,8.2493","50.0826,8.2493","","Clear"
"50.0826,8.2493","06/28/2020 03:00:00",18.2,18.2,18.2,15.2,82.95,,1.5,,235.0,,0.0,,0.0,13.6,30.0,1012.6,"",50.0826,8.2493,"50.0826,8.2493","50.0826,8.2493","","Partially cloudy"
"50.0826,8.2493","06/28/2020 04:00:00",17.9,17.9,17.9,15.6,86.5,,1.6,,210.0,,0.0,,0.0,16.5,30.0,1012.2,"",50.0826,8.2493,"50.0826,8.2493","50.0826,8.2493","","Partially cloudy"
"50.0826,8.2493","06/28/2020 05:00:00",18.0,18.0,18.0,15.7,86.3,,1.7,,250.0,,0.0,,0.0,16.5,0.0,1012.2,"",50.0826,8.2493,"50.0826,8.2493","50.0826,8.2493","","Clear"
"50.0826,8.2493","06/28/2020 06:00:00",18.3,18.3,18.3,16.0,86.47,,6.3,,277.0,,0.0,,0.0,16.0,0.0,1012.5,"",50.0826,8.2493,"50.0826,8.2493","50.0826,8.2493","","Clear"
"50.0826,8.2493","06/28/2020 07:00:00",18.8,18.8,18.8,16.3,85.4,,1.9,,219.0,,0.0,,0.0,16.3,0.0,1012.9,"",50.0826,8.2493,"50.0826,8.2493","50.0826,8.2493","","Clear"
"50.0826,8.2493","06/28/2020 08:00:00",20.3,20.3,20.3,15.3,73.11,,17.9,,210.0,,0.0,,0.0,13.6,50.0,1013.1,"",50.0826,8.2493,"50.0826,8.2493","50.0826,8.2493","","Partially cloudy"
"50.0826,8.2493","06/28/2020 09:00:00",21.1,21.1,21.1,13.9,63.44,,22.0,,230.0,,0.0,,0.0,10.0,50.0,1013.1,"",50.0826,8.2493,"50.0826,8.2493","50.0826,8.2493","","Partially cloudy"
"50.0826,8.2493","06/28/2020 10:00:00",21.4,21.4,21.4,13.5,60.91,,18.7,,237.0,,0.0,,0.0,10.0,0.0,1013.5,"",50.0826,8.2493,"50.0826,8.2493","50.0826,8.2493","","Clear"
"50.0826,8.2493","06/28/2020 11:00:00",21.2,21.2,21.2,11.0,51.93,,24.2,,222.0,,0.0,,0.0,10.0,30.0,1014.3,"",50.0826,8.2493,"50.0826,8.2493","50.0826,8.2493","","Partially cloudy"
"50.0826,8.2493","06/28/2020 12:00:00",21.4,21.4,21.4,10.4,49.41,,25.5,,222.0,,0.0,,0.0,12.9,50.0,1014.6,"",50.0826,8.2493,"50.0826,8.2493","50.0826,8.2493","","Partially cloudy"
"50.0826,8.2493","06/28/2020 13:00:00",21.7,21.7,21.7,10.4,48.68,,22.6,,241.0,,0.0,,0.0,13.2,50.0,1015.0,"",50.0826,8.2493,"50.0826,8.2493","50.0826,8.2493","","Partially cloudy"
"50.0826,8.2493","06/28/2020 14:00:00",20.6,20.6,20.6,10.1,51.02,,21.8,,243.0,,0.0,,0.0,13.1,50.0,1015.0,"",50.0826,8.2493,"50.0826,8.2493","50.0826,8.2493","","Partially cloudy"
"50.0826,8.2493","06/28/2020 15:00:00",19.8,19.8,19.8,10.4,54.7,,20.3,,250.0,,0.0,,0.0,10.0,0.0,1015.4,"",50.0826,8.2493,"50.0826,8.2493","50.0826,8.2493","","Clear"
"50.0826,8.2493","06/28/2020 16:00:00",19.3,19.3,19.3,11.5,60.34,,18.4,,223.0,,0.0,,0.0,10.9,30.0,1015.5,"Light Rain",50.0826,8.2493,"50.0826,8.2493","50.0826,8.2493","","Partially cloudy"
"50.0826,8.2493","06/28/2020 17:00:00",18.0,18.0,18.0,11.5,65.83,,10.4,,229.0,,0.07,,0.0,13.4,50.0,1015.9,"Light Rain",50.0826,8.2493,"50.0826,8.2493","50.0826,8.2493","","Rain, Partially cloudy"
"50.0826,8.2493","06/28/2020 18:00:00",18.5,18.5,18.5,11.1,62.17,,15.3,,219.0,,0.01,,0.0,16.2,0.0,1015.8,"",50.0826,8.2493,"50.0826,8.2493","50.0826,8.2493","","Rain"
"50.0826,8.2493","06/28/2020 19:00:00",18.1,18.1,18.1,11.0,63.07,,14.5,,217.0,,0.0,,0.0,13.7,30.0,1015.5,"",50.0826,8.2493,"50.0826,8.2493","50.0826,8.2493","","Partially cloudy"
"50.0826,8.2493","06/28/2020 20:00:00",17.7,17.7,17.7,11.2,66.0,,15.9,,217.0,,0.0,,0.0,10.0,0.0,1015.4,"",50.0826,8.2493,"50.0826,8.2493","50.0826,8.2493","","Clear"
"50.0826,8.2493","06/28/2020 21:00:00",17.2,17.2,17.2,11.3,68.31,,9.7,,208.0,,0.0,,0.0,10.0,0.0,1015.2,"",50.0826,8.2493,"50.0826,8.2493","50.0826,8.2493","","Clear"
"50.0826,8.2493","06/28/2020 22:00:00",16.3,16.3,16.3,11.9,75.05,,9.6,,190.0,,0.0,,0.0,10.0,0.0,1015.1,"",50.0826,8.2493,"50.0826,8.2493","50.0826,8.2493","","Clear"
"50.0826,8.2493","06/28/2020 23:00:00",14.9,14.9,14.9,11.9,82.27,,9.8,,174.0,,0.0,,0.0,13.0,0.0,1015.5,"",50.0826,8.2493,"50.0826,8.2493","50.0826,8.2493","","Clear"
"50.0826,8.2493","06/29/2020 00:00:00",14.2,14.2,14.2,12.1,86.74,,10.0,,167.0,,0.0,,0.0,11.6,0.0,1015.8,"",50.0826,8.2493,"50.0826,8.2493","50.0826,8.2493","","Clear"
"50.0826,8.2493","06/29/2020 01:00:00",13.7,13.7,13.7,11.8,88.51,,9.7,,203.0,,0.0,,0.0,12.8,30.0,1015.5,"",50.0826,8.2493,"50.0826,8.2493","50.0826,8.2493","","Partially cloudy"
"50.0826,8.2493","06/29/2020 02:00:00",12.8,12.8,12.8,11.5,91.72,,11.0,,213.0,,0.0,,0.0,13.3,0.0,1015.5,"",50.0826,8.2493,"50.0826,8.2493","50.0826,8.2493","","Clear"
"50.0826,8.2493","06/29/2020 03:00:00",12.2,12.2,12.2,11.3,94.57,,1.7,,219.0,,0.0,,0.0,12.6,0.0,1015.6,"",50.0826,8.2493,"50.0826,8.2493","50.0826,8.2493","","Clear"
"50.0826,8.2493","06/29/2020 04:00:00",11.8,11.8,11.8,11.1,95.52,,1.6,,224.0,,0.0,,0.0,12.3,0.0,1015.3,"",50.0826,8.2493,"50.0826,8.2493","50.0826,8.2493","","Clear"
"50.0826,8.2493","06/29/2020 05:00:00",11.9,11.9,11.9,11.2,95.42,,1.3,,264.0,,0.0,,0.0,11.3,0.0,1014.7,"",50.0826,8.2493,"50.0826,8.2493","50.0826,8.2493","","Clear"
"50.0826,8.2493","06/29/2020 06:00:00",12.7,12.7,12.7,11.9,95.18,,1.1,,249.0,,0.0,,0.0,11.3,0.0,1014.6,"",50.0826,8.2493,"50.0826,8.2493","50.0826,8.2493","","Clear"
"50.0826,8.2493","06/29/2020 07:00:00",13.0,13.0,13.0,12.2,95.25,,7.3,,121.0,,0.0,,0.0,11.3,0.0,1013.9,"",50.0826,8.2493,"50.0826,8.2493","50.0826,8.2493","","Clear"
"50.0826,8.2493","06/29/2020 08:00:00",14.1,14.1,14.1,12.5,89.89,,1.4,,200.0,,0.0,,0.0,11.3,0.0,1014.2,"",50.0826,8.2493,"50.0826,8.2493","50.0826,8.2493","","Clear"
"50.0826,8.2493","06/29/2020 09:00:00",15.8,15.8,15.8,12.8,82.05,,14.1,,247.0,,0.0,,0.0,11.3,0.0,1014.5,"",50.0826,8.2493,"50.0826,8.2493","50.0826,8.2493","","Clear"
"50.0826,8.2493","06/29/2020 10:00:00",16.5,16.5,16.5,12.5,77.42,,11.0,,292.0,,0.0,,0.0,12.3,0.0,1014.9,"",50.0826,8.2493,"50.0826,8.2493","50.0826,8.2493","","Clear"
"50.0826,8.2493","06/29/2020 11:00:00",11.7,11.7,11.7,10.1,89.97,,8.5,,338.0,,2.56,,0.0,9.0,0.0,1014.9,"Mist, Rain",50.0826,8.2493,"50.0826,8.2493","50.0826,8.2493","","Rain"
"50.0826,8.2493","06/29/2020 12:00:00",16.3,16.3,16.3,12.0,75.85,,9.7,,236.0,,0.51,,0.0,13.3,45.5,1014.6,"",50.0826,8.2493,"50.0826,8.2493","50.0826,8.2493","","Rain, Partially cloudy"
"50.0826,8.2493","06/29/2020 13:00:00",18.7,18.7,18.7,12.8,68.8,,6.5,,220.0,,0.0,,0.0,13.2,46.6,1014.2,"",50.0826,8.2493,"50.0826,8.2493","50.0826,8.2493","","Partially cloudy"
"50.0826,8.2493","06/29/2020 14:00:00",20.3,20.3,20.3,12.2,59.65,,14.5,,231.0,,0.0,,0.0,10.0,50.0,1013.5,"",50.0826,8.2493,"50.0826,8.2493","50.0826,8.2493","","Partially cloudy"
"50.0826,8.2493","06/29/2020 15:00:00",21.6,21.6,21.6,10.3,48.75,,14.8,,265.0,,0.0,,0.0,10.0,46.7,1012.8,"",50.0826,8.2493,"50.0826,8.2493","50.0826,8.2493","","Partially cloudy"
"50.0826,8.2493","06/29/2020 16:00:00",22.9,22.9,22.9,9.6,42.66,,17.2,,265.0,,0.0,,0.0,10.0,0.0,1012.1,"",50.0826,8.2493,"50.0826,8.2493","50.0826,8.2493","","Clear"
"50.0826,8.2493","06/29/2020 17:00:00",23.5,23.5,23.5,7.4,35.41,,17.5,,270.0,,0.0,,0.0,10.0,30.0,1011.4,"",50.0826,8.2493,"50.0826,8.2493","50.0826,8.2493","","Partially cloudy"
"50.0826,8.2493","06/29/2020 18:00:00",23.4,23.4,23.4,6.5,33.8,,27.8,,268.0,,0.0,,0.0,10.0,30.0,1011.4,"",50.0826,8.2493,"50.0826,8.2493","50.0826,8.2493","","Partially cloudy"
"50.0826,8.2493","06/29/2020 19:00:00",22.6,22.6,22.6,6.0,34.16,,23.1,,280.0,,0.0,,0.0,10.0,1.2,1011.4,"",50.0826,8.2493,"50.0826,8.2493","50.0826,8.2493","","Clear"
"50.0826,8.2493","06/29/2020 20:00:00",21.4,21.4,21.4,6.5,37.96,,21.5,,279.0,,0.0,,0.0,10.0,0.0,1011.4,"",50.0826,8.2493,"50.0826,8.2493","50.0826,8.2493","","Clear"
"50.0826,8.2493","06/29/2020 21:00:00",19.5,19.5,19.5,5.8,40.66,,17.5,,287.0,,0.0,,0.0,10.0,26.1,1012.1,"",50.0826,8.2493,"50.0826,8.2493","50.0826,8.2493","","Partially cloudy"
"50.0826,8.2493","06/29/2020 22:00:00",17.1,17.1,17.1,6.0,48.19,,8.8,,302.0,,0.0,,0.0,10.0,27.2,1012.9,"",50.0826,8.2493,"50.0826,8.2493","50.0826,8.2493","","Partially cloudy"
"50.0826,8.2493","06/29/2020 23:00:00",14.9,14.9,14.9,6.4,56.77,,10.2,,285.0,,0.0,,0.0,10.0,1.2,1013.4,"",50.0826,8.2493,"50.0826,8.2493","50.0826,8.2493","","Clear"
"50.0826,8.2493","06/30/2020 00:00:00",14.1,14.1,14.1,6.6,60.53,,8.6,,311.0,,0.0,,0.0,10.0,1.2,1013.3,"",50.0826,8.2493,"50.0826,8.2493","50.0826,8.2493","","Clear"
"50.0826,8.2493","06/30/2020 01:00:00",13.8,13.8,13.8,6.7,61.92,,1.7,,234.0,,0.0,,0.0,10.0,0.0,1013.3,"",50.0826,8.2493,"50.0826,8.2493","50.0826,8.2493","","Clear"
"50.0826,8.2493","06/30/2020 02:00:00",13.1,13.1,13.1,6.9,65.81,,1.6,,254.0,,0.0,,0.0,10.0,0.0,1013.1,"",50.0826,8.2493,"50.0826,8.2493","50.0826,8.2493","","Clear"
"50.0826,8.2493","06/30/2020 03:00:00",12.8,12.8,12.8,7.4,69.63,,1.9,,234.0,,0.0,,0.0,10.0,0.0,1013.1,"",50.0826,8.2493,"50.0826,8.2493","50.0826,8.2493","","Clear"
"50.0826,8.2493","06/30/2020 04:00:00",11.4,11.4,11.4,7.3,75.64,,1.8,,244.0,,0.0,,0.0,10.0,0.0,1013.1,"",50.0826,8.2493,"50.0826,8.2493","50.0826,8.2493","","Clear"
"50.0826,8.2493","06/30/2020 05:00:00",10.6,10.6,10.6,7.2,79.49,,1.6,,244.0,,0.0,,0.0,10.0,0.0,1013.1,"",50.0826,8.2493,"50.0826,8.2493","50.0826,8.2493","","Clear"
"50.0826,8.2493","06/30/2020 06:00:00",9.7,9.7,9.7,7.4,85.62,,1.7,,229.0,,0.0,,0.0,13.6,0.0,1013.2,"",50.0826,8.2493,"50.0826,8.2493","50.0826,8.2493","","Clear"
"50.0826,8.2493","06/30/2020 07:00:00",11.0,11.0,11.0,8.4,83.56,,1.6,,224.0,,0.0,,0.0,12.8,30.0,1013.5,"",50.0826,8.2493,"50.0826,8.2493","50.0826,8.2493","","Partially cloudy"
"50.0826,8.2493","06/30/2020 08:00:00",14.0,14.0,14.0,8.3,68.55,,9.3,,272.0,,0.0,,0.0,12.8,0.0,1013.4,"",50.0826,8.2493,"50.0826,8.2493","50.0826,8.2493","","Clear"
"50.0826,8.2493","06/30/2020 09:00:00",16.1,16.1,16.1,8.3,60.11,,9.5,,220.0,,0.0,,0.0,13.7,0.0,1013.4,"",50.0826,8.2493,"50.0826,8.2493","50.0826,8.2493","","Clear"
"50.0826,8.2493","06/30/2020 10:00:00",17.4,17.4,17.4,8.2,54.68,,14.9,,225.0,,0.0,,0.0,10.0,0.0,1013.1,"",50.0826,8.2493,"50.0826,8.2493","50.0826,8.2493","","Clear"
"50.0826,8.2493","06/30/2020 11:00:00",17.8,17.8,17.8,8.2,53.27,,21.3,,249.0,,0.0,,0.0,13.3,0.0,1013.2,"",50.0826,8.2493,"50.0826,8.2493","50.0826,8.2493","","Clear"
"50.0826,8.2493","06/30/2020 12:00:00",18.8,18.8,18.8,8.7,51.88,,20.0,,263.0,,0.0,,0.0,15.8,0.0,1012.8,"",50.0826,8.2493,"50.0826,8.2493","50.0826,8.2493","","Clear"
"50.0826,8.2493","06/30/2020 13:00:00",18.7,18.7,18.7,9.2,53.73,,23.5,,257.0,,0.0,,0.0,13.3,0.0,1012.5,"",50.0826,8.2493,"50.0826,8.2493","50.0826,8.2493","","Clear"
"50.0826,8.2493","06/30/2020 14:00:00",18.8,18.8,18.8,9.5,54.9,,20.2,,264.0,,0.0,,0.0,13.7,0.0,1012.5,"",50.0826,8.2493,"50.0826,8.2493","50.0826,8.2493","","Clear"
"50.0826,8.2493","06/30/2020 15:00:00",19.8,19.8,19.8,9.8,52.63,,25.8,,272.0,,0.0,,0.0,16.4,0.0,1012.2,"",50.0826,8.2493,"50.0826,8.2493","50.0826,8.2493","","Clear"
"50.0826,8.2493","06/30/2020 16:00:00",20.8,20.8,20.8,10.1,50.46,,24.8,,264.0,,0.0,,0.0,13.7,0.0,1011.8,"",50.0826,8.2493,"50.0826,8.2493","50.0826,8.2493","","Clear"
"50.0826,8.2493","06/30/2020 17:00:00",21.1,21.1,21.1,9.9,48.73,,20.9,,257.0,,0.0,,0.0,13.7,0.0,1011.8,"",50.0826,8.2493,"50.0826,8.2493","50.0826,8.2493","","Clear"
"50.0826,8.2493","06/30/2020 18:00:00",21.3,21.3,21.3,10.1,48.78,,25.4,,254.0,,0.0,,0.0,13.7,0.0,1011.2,"",50.0826,8.2493,"50.0826,8.2493","50.0826,8.2493","","Clear"
"50.0826,8.2493","06/30/2020 19:00:00",21.8,21.8,21.8,9.6,46.06,,21.9,,263.0,,0.0,,0.0,10.0,50.0,1010.8,"",50.0826,8.2493,"50.0826,8.2493","50.0826,8.2493","","Partially cloudy"
"50.0826,8.2493","06/30/2020 20:00:00",20.8,20.8,20.8,9.9,49.76,,17.0,,247.0,,0.0,,0.0,12.9,0.0,1010.8,"",50.0826,8.2493,"50.0826,8.2493","50.0826,8.2493","","Clear"
"50.0826,8.2493","06/30/2020 21:00:00",19.7,19.7,19.7,10.5,55.09,,16.1,,257.0,,0.0,,0.0,10.0,50.0,1010.7,"",50.0826,8.2493,"50.0826,8.2493","50.0826,8.2493","","Partially cloudy"
"50.0826,8.2493","06/30/2020 22:00:00",18.4,18.4,18.4,10.9,61.37,,16.5,,249.0,,0.0,,0.0,10.0,0.0,1011.0,"",50.0826,8.2493,"50.0826,8.2493","50.0826,8.2493","","Clear"
"50.0826,8.2493","06/30/2020 23:00:00",17.5,17.5,17.5,11.2,66.45,,11.7,,247.0,,0.0,,0.0,10.0,1.2,1011.4,"",50.0826,8.2493,"50.0826,8.2493","50.0826,8.2493","","Clear"
"50.0826,8.2493","07/01/2020 00:00:00",16.3,16.3,16.3,11.4,72.7,,6.3,,204.0,,0.0,,0.0,13.4,50.0,1011.4,"",50.0826,8.2493,"50.0826,8.2493","50.0826,8.2493","","Partially cloudy"
"50.0826,8.2493","07/01/2020 01:00:00",15.2,15.2,15.2,11.2,77.18,,1.8,,234.0,,0.0,,0.0,10.0,0.0,1011.0,"",50.0826,8.2493,"50.0826,8.2493","50.0826,8.2493","","Clear"
"50.0826,8.2493","07/01/2020 02:00:00",14.7,14.7,14.7,11.3,80.18,,1.6,,229.0,,0.0,,0.0,10.0,0.0,1011.1,"",50.0826,8.2493,"50.0826,8.2493","50.0826,8.2493","","Clear"
"50.0826,8.2493","07/01/2020 03:00:00",13.9,13.9,13.9,11.4,85.14,,1.5,,224.0,,0.0,,0.0,10.0,1.2,1010.4,"",50.0826,8.2493,"50.0826,8.2493","50.0826,8.2493","","Clear"
"50.0826,8.2493","07/01/2020 04:00:00",13.9,13.9,13.9,11.6,86.41,,1.4,,265.0,,0.0,,0.0,10.0,0.0,1010.4,"",50.0826,8.2493,"50.0826,8.2493","50.0826,8.2493","","Clear"
"50.0826,8.2493","07/01/2020 05:00:00",12.8,12.8,12.8,11.3,90.21,,1.6,,224.0,,0.0,,0.0,10.0,0.0,1010.5,"",50.0826,8.2493,"50.0826,8.2493","50.0826,8.2493","","Clear"
"50.0826,8.2493","07/01/2020 06:00:00",12.9,12.9,12.9,11.2,89.53,,1.3,,225.0,,0.0,,0.0,10.0,1.2,1010.1,"",50.0826,8.2493,"50.0826,8.2493","50.0826,8.2493","","Clear"
"50.0826,8.2493","07/01/2020 07:00:00",14.8,14.8,14.8,12.3,84.95,,6.5,,303.0,,0.0,,0.0,12.5,1.1,1010.4,"",50.0826,8.2493,"50.0826,8.2493","50.0826,8.2493","","Clear"
"50.0826,8.2493","07/01/2020 08:00:00",17.0,17.0,17.0,12.6,75.33,,6.4,,287.0,,0.0,,0.0,13.4,0.0,1010.3,"",50.0826,8.2493,"50.0826,8.2493","50.0826,8.2493","","Clear"
"50.0826,8.2493","07/01/2020 09:00:00",18.7,18.7,18.7,12.8,68.34,,14.1,,236.0,,0.0,,0.0,12.4,0.0,1010.3,"",50.0826,8.2493,"50.0826,8.2493","50.0826,8.2493","","Clear"
"50.0826,8.2493","07/01/2020 10:00:00",20.4,20.4,20.4,13.4,64.04,,13.2,,217.0,,0.0,,0.0,16.5,0.0,1009.9,"",50.0826,8.2493,"50.0826,8.2493","50.0826,8.2493","","Clear"
"50.0826,8.2493","07/01/2020 11:00:00",21.3,21.3,21.3,13.8,62.52,,15.6,,236.0,,0.0,,0.0,15.6,0.0,1009.6,"",50.0826,8.2493,"50.0826,8.2493","50.0826,8.2493","","Clear"
"50.0826,8.2493","07/01/2020 12:00:00",23.4,23.4,23.4,14.3,56.54,,22.1,,230.0,,0.0,,0.0,13.3,50.0,1008.9,"",50.0826,8.2493,"50.0826,8.2493","50.0826,8.2493","","Partially cloudy"
"50.0826,8.2493","07/01/2020 13:00:00",24.4,24.4,24.4,14.7,54.69,,20.6,,244.0,,0.0,,0.0,12.7,50.0,1008.9,"",50.0826,8.2493,"50.0826,8.2493","50.0826,8.2493","","Partially cloudy"
"50.0826,8.2493","07/01/2020 14:00:00",25.3,25.3,25.3,14.8,52.24,,22.3,,244.0,,0.0,,0.0,10.0,0.0,1008.6,"",50.0826,8.2493,"50.0826,8.2493","50.0826,8.2493","","Clear"
"50.0826,8.2493","07/01/2020 15:00:00",26.6,26.6,26.6,14.5,47.34,,25.2,,262.0,,0.0,,0.0,10.0,0.0,1008.2,"",50.0826,8.2493,"50.0826,8.2493","50.0826,8.2493","","Clear"
"50.0826,8.2493","07/01/2020 16:00:00",26.1,26.1,26.1,14.2,48.03,,27.2,,237.0,,0.0,,0.0,10.0,0.0,1007.9,"",50.0826,8.2493,"50.0826,8.2493","50.0826,8.2493","","Clear"
"50.0826,8.2493","07/01/2020 17:00:00",26.0,26.0,26.0,14.1,47.79,,29.4,,251.0,,0.0,,0.0,13.5,0.0,1007.9,"",50.0826,8.2493,"50.0826,8.2493","50.0826,8.2493","","Clear"
"50.0826,8.2493","07/01/2020 18:00:00",25.4,25.4,25.4,13.9,48.82,,26.6,,250.0,,0.0,,0.0,10.0,0.0,1007.9,"",50.0826,8.2493,"50.0826,8.2493","50.0826,8.2493","","Clear"
"50.0826,8.2493","07/01/2020 19:00:00",25.2,25.2,25.2,13.9,49.55,,25.1,,267.0,,0.0,,0.0,10.0,0.0,1007.5,"",50.0826,8.2493,"50.0826,8.2493","50.0826,8.2493","","Clear"
"50.0826,8.2493","07/01/2020 20:00:00",24.6,24.6,24.6,13.6,50.5,,22.9,,267.0,,0.0,,0.0,10.0,0.0,1007.9,"",50.0826,8.2493,"50.0826,8.2493","50.0826,8.2493","","Clear"
"50.0826,8.2493","07/01/2020 21:00:00",23.2,23.2,23.2,13.6,54.74,,19.6,,268.0,,0.0,,0.0,10.0,0.0,1007.8,"",50.0826,8.2493,"50.0826,8.2493","50.0826,8.2493","","Clear"
"50.0826,8.2493","07/01/2020 22:00:00",22.1,22.1,22.1,13.6,58.85,,11.0,,276.0,,0.0,,0.0,10.0,0.0,1007.8,"",50.0826,8.2493,"50.0826,8.2493","50.0826,8.2493","","Clear"
"50.0826,8.2493","07/01/2020 23:00:00",20.9,20.9,20.9,14.0,64.91,,12.5,,255.0,,0.0,,0.0,10.0,0.0,1008.8,"",50.0826,8.2493,"50.0826,8.2493","50.0826,8.2493","","Clear"
"50.0826,8.2493","07/02/2020 00:00:00",20.2,20.2,20.2,14.2,68.18,,12.7,,247.0,,0.0,,0.0,10.0,0.0,1009.1,"",50.0826,8.2493,"50.0826,8.2493","50.0826,8.2493","","Clear"
"50.0826,8.2493","07/02/2020 01:00:00",19.9,19.9,19.9,14.3,70.01,,9.8,,311.0,,0.01,,0.0,13.6,0.0,1009.4,"",50.0826,8.2493,"50.0826,8.2493","50.0826,8.2493","","Rain"
"50.0826,8.2493","07/02/2020 02:00:00",17.0,17.0,17.0,14.8,87.16,,9.0,,320.0,,0.14,,0.0,11.8,0.0,1010.5,"Light Rain",50.0826,8.2493,"50.0826,8.2493","50.0826,8.2493","","Rain"
"50.0826,8.2493","07/02/2020 03:00:00",16.5,16.5,16.5,15.4,93.1,,1.5,,274.0,,0.15,,0.0,10.9,0.0,1010.9,"",50.0826,8.2493,"50.0826,8.2493","50.0826,8.2493","","Rain"
"50.0826,8.2493","07/02/2020 04:00:00",16.5,16.5,16.5,15.2,92.46,,1.3,,233.0,,0.0,,0.0,13.5,0.0,1010.5,"",50.0826,8.2493,"50.0826,8.2493","50.0826,8.2493","","Clear"
"50.0826,8.2493","07/02/2020 05:00:00",16.1,16.1,16.1,15.1,93.83,,1.1,,254.0,,0.0,,0.0,11.8,0.0,1010.9,"",50.0826,8.2493,"50.0826,8.2493","50.0826,8.2493","","Clear"
"50.0826,8.2493","07/02/2020 06:00:00",16.3,16.3,16.3,15.3,93.9,,0.7,,239.0,,0.0,,0.0,12.6,0.0,1010.9,"",50.0826,8.2493,"50.0826,8.2493","50.0826,8.2493","","Clear"
"50.0826,8.2493","07/02/2020 07:00:00",16.9,16.9,16.9,15.6,91.96,,0.8,,209.0,,0.0,,0.0,11.8,0.0,1011.2,"",50.0826,8.2493,"50.0826,8.2493","50.0826,8.2493","","Clear"
"50.0826,8.2493","07/02/2020 08:00:00",17.9,17.9,17.9,15.5,85.98,,1.0,,204.0,,0.0,,0.0,14.7,0.0,1011.3,"",50.0826,8.2493,"50.0826,8.2493","50.0826,8.2493","","Clear"
"50.0826,8.2493","07/02/2020 09:00:00",19.3,19.3,19.3,15.5,78.42,,11.4,,175.0,,0.0,,0.0,13.1,0.0,1011.2,"",50.0826,8.2493,"50.0826,8.2493","50.0826,8.2493","","Clear"
"50.0826,8.2493","07/02/2020 10:00:00",20.6,20.6,20.6,14.3,67.42,,14.2,,251.0,,0.0,,0.0,14.5,0.0,1011.2,"",50.0826,8.2493,"50.0826,8.2493","50.0826,8.2493","","Clear"
"50.0826,8.2493","07/02/2020 11:00:00",22.3,22.3,22.3,13.0,55.66,,14.4,,270.0,,0.0,,0.0,16.4,0.0,1010.8,"",50.0826,8.2493,"50.0826,8.2493","50.0826,8.2493","","Clear"
"50.0826,8.2493","07/02/2020 12:00:00",24.0,24.0,24.0,12.0,46.88,,14.8,,248.0,,0.0,,0.0,10.0,30.0,1010.8,"",50.0826,8.2493,"50.0826,8.2493","50.0826,8.2493","","Partially cloudy"
"50.0826,8.2493","07/02/2020 13:00:00",25.2,25.2,25.2,10.5,39.77,,20.7,,247.0,,0.0,,0.0,12.9,50.0,1010.8,"",50.0826,8.2493,"50.0826,8.2493","50.0826,8.2493","","Partially cloudy"
"50.0826,8.2493","07/02/2020 14:00:00",25.4,25.4,25.4,9.5,36.62,,26.0,,241.0,,0.0,,0.0,10.0,50.0,1010.5,"",50.0826,8.2493,"50.0826,8.2493","50.0826,8.2493","","Partially cloudy"
"50.0826,8.2493","07/02/2020 15:00:00",24.8,24.8,24.8,10.1,39.54,,23.6,,266.0,,0.0,,0.0,13.5,50.0,1010.9,"",50.0826,8.2493,"50.0826,8.2493","50.0826,8.2493","","Partially cloudy"
"50.0826,8.2493","07/02/2020 16:00:00",24.0,24.0,24.0,9.6,40.18,,23.3,,287.0,,0.0,,0.0,10.0,50.0,1010.9,"",50.0826,8.2493,"50.0826,8.2493","50.0826,8.2493","","Partially cloudy"
"50.0826,8.2493","07/02/2020 17:00:00",23.6,23.6,23.6,11.0,45.0,,21.3,,271.0,,0.0,,0.0,10.0,0.0,1010.9,"",50.0826,8.2493,"50.0826,8.2493","50.0826,8.2493","","Clear"
"50.0826,8.2493","07/02/2020 18:00:00",22.9,22.9,22.9,12.1,50.46,,13.2,,311.0,,0.0,,0.0,10.0,0.0,1011.3,"",50.0826,8.2493,"50.0826,8.2493","50.0826,8.2493","","Clear"
"50.0826,8.2493","07/02/2020 19:00:00",22.0,22.0,22.0,12.0,53.11,,14.8,,327.0,,0.0,,0.0,10.0,50.0,1011.3,"",50.0826,8.2493,"50.0826,8.2493","50.0826,8.2493","","Partially cloudy"
"50.0826,8.2493","07/02/2020 20:00:00",17.0,17.0,17.0,12.6,75.25,,27.2,,314.0,,0.15,,0.0,13.7,0.0,1013.1,"",50.0826,8.2493,"50.0826,8.2493","50.0826,8.2493","","Rain"
"50.0826,8.2493","07/02/2020 21:00:00",16.8,16.8,16.8,13.2,79.32,,14.7,,292.0,,0.33,,0.0,11.0,0.0,1013.8,"",50.0826,8.2493,"50.0826,8.2493","50.0826,8.2493","","Rain"
"50.0826,8.2493","07/02/2020 22:00:00",16.2,16.2,16.2,13.2,82.3,,13.3,,272.0,,0.0,,0.0,11.8,50.0,1014.4,"",50.0826,8.2493,"50.0826,8.2493","50.0826,8.2493","","Partially cloudy"
"50.0826,8.2493","07/02/2020 23:00:00",15.7,15.7,15.7,13.0,83.86,,11.4,,287.0,,0.0,,0.0,10.4,0.0,1015.1,"",50.0826,8.2493,"50.0826,8.2493","50.0826,8.2493","","Clear"
"50.0826,8.2493","07/03/2020 00:00:00",15.3,15.3,15.3,12.9,85.87,,10.7,,264.0,,0.0,,0.0,10.4,0.0,1015.3,"",50.0826,8.2493,"50.0826,8.2493","50.0826,8.2493","","Clear"
"50.0826,8.2493","07/03/2020 01:00:00",13.8,13.8,13.8,12.0,89.13,,10.7,,276.0,,0.0,,0.0,9.4,0.0,1015.7,"",50.0826,8.2493,"50.0826,8.2493","50.0826,8.2493","","Clear"
"50.0826,8.2493","07/03/2020 02:00:00",13.9,13.9,13.9,12.1,89.29,,7.8,,279.0,,0.0,,0.0,9.2,30.0,1016.0,"",50.0826,8.2493,"50.0826,8.2493","50.0826,8.2493","","Partially cloudy"
"50.0826,8.2493","07/03/2020 03:00:00",13.0,13.0,13.0,11.5,90.44,,8.3,,289.0,,0.0,,0.0,10.0,0.0,1016.4,"",50.0826,8.2493,"50.0826,8.2493","50.0826,8.2493","","Clear"
"50.0826,8.2493","07/03/2020 04:00:00",13.3,13.3,13.3,10.5,83.62,,9.8,,291.0,,0.0,,0.0,12.7,0.0,1016.8,"",50.0826,8.2493,"50.0826,8.2493","50.0826,8.2493","","Clear"
"50.0826,8.2493","07/03/2020 05:00:00",12.7,12.7,12.7,10.0,83.92,,9.5,,296.0,,0.0,,0.0,13.4,1.1,1016.8,"",50.0826,8.2493,"50.0826,8.2493","50.0826,8.2493","","Clear"
"50.0826,8.2493","07/03/2020 06:00:00",11.4,11.4,11.4,9.9,90.42,,1.2,,7.0,,0.0,,0.0,14.0,1.1,1017.6,"",50.0826,8.2493,"50.0826,8.2493","50.0826,8.2493","","Clear"
"50.0826,8.2493","07/03/2020 07:00:00",13.5,13.5,13.5,10.3,80.88,,9.4,,284.0,,0.0,,0.0,15.0,1.1,1017.8,"",50.0826,8.2493,"50.0826,8.2493","50.0826,8.2493","","Clear"
"50.0826,8.2493","07/03/2020 08:00:00",15.2,15.2,15.2,10.4,72.94,,10.9,,276.0,,0.0,,0.0,15.7,1.1,1018.3,"",50.0826,8.2493,"50.0826,8.2493","50.0826,8.2493","","Clear"
"50.0826,8.2493","07/03/2020 09:00:00",16.6,16.6,16.6,10.0,65.05,,14.5,,269.0,,0.0,,0.0,10.0,0.0,1018.6,"",50.0826,8.2493,"50.0826,8.2493","50.0826,8.2493","","Clear"
"50.0826,8.2493","07/03/2020 10:00:00",17.7,17.7,17.7,9.8,59.56,,14.6,,262.0,,0.0,,0.0,12.4,0.0,1018.6,"",50.0826,8.2493,"50.0826,8.2493","50.0826,8.2493","","Clear"
"50.0826,8.2493","07/03/2020 11:00:00",19.7,19.7,19.7,9.6,52.04,,14.4,,254.0,,0.0,,0.0,12.9,1.2,1018.5,"",50.0826,8.2493,"50.0826,8.2493","50.0826,8.2493","","Clear"
"50.0826,8.2493","07/03/2020 12:00:00",19.9,19.9,19.9,9.0,49.16,,18.8,,252.0,,0.0,,0.0,10.0,0.0,1018.5,"",50.0826,8.2493,"50.0826,8.2493","50.0826,8.2493","","Clear"
"50.0826,8.2493","07/03/2020 13:00:00",20.7,20.7,20.7,8.7,46.04,,12.6,,270.0,,0.0,,0.0,10.0,0.0,1018.5,"",50.0826,8.2493,"50.0826,8.2493","50.0826,8.2493","","Clear"
"50.0826,8.2493","07/03/2020 14:00:00",21.8,21.8,21.8,8.7,43.1,,14.3,,281.0,,0.0,,0.0,10.0,0.0,1018.5,"",50.0826,8.2493,"50.0826,8.2493","50.0826,8.2493","","Clear"
"50.0826,8.2493","07/03/2020 15:00:00",22.4,22.4,22.4,8.8,41.94,,17.0,,278.0,,0.0,,0.0,10.0,50.0,1018.2,"",50.0826,8.2493,"50.0826,8.2493","50.0826,8.2493","","Partially cloudy"
"50.0826,8.2493","07/03/2020 16:00:00",23.2,23.2,23.2,8.2,38.22,,22.0,,253.0,,0.0,,0.0,10.0,0.0,1017.8,"",50.0826,8.2493,"50.0826,8.2493","50.0826,8.2493","","Clear"
"50.0826,8.2493","07/03/2020 17:00:00",23.3,23.3,23.3,7.9,37.25,,12.1,,237.0,,0.0,,0.0,10.0,50.0,1017.5,"",50.0826,8.2493,"50.0826,8.2493","50.0826,8.2493","","Partially cloudy"
"50.0826,8.2493","07/03/2020 18:00:00",23.3,23.3,23.3,7.7,36.65,,15.5,,258.0,,0.0,,0.0,10.0,30.0,1017.5,"",50.0826,8.2493,"50.0826,8.2493","50.0826,8.2493","","Partially cloudy"
"50.0826,8.2493","07/03/2020 19:00:00",23.3,23.3,23.3,7.6,36.6,,15.8,,259.0,,0.0,,0.0,10.0,30.0,1017.2,"",50.0826,8.2493,"50.0826,8.2493","50.0826,8.2493","","Partially cloudy"
"50.0826,8.2493","07/03/2020 20:00:00",22.2,22.2,22.2,8.0,40.12,,19.4,,261.0,,0.0,,0.0,10.0,0.0,1017.4,"",50.0826,8.2493,"50.0826,8.2493","50.0826,8.2493","","Clear"
"50.0826,8.2493","07/03/2020 21:00:00",20.5,20.5,20.5,7.8,43.73,,16.1,,268.0,,0.0,,0.0,10.0,0.0,1017.8,"",50.0826,8.2493,"50.0826,8.2493","50.0826,8.2493","","Clear"
"50.0826,8.2493","07/03/2020 22:00:00",17.6,17.6,17.6,8.3,54.26,,9.7,,285.0,,0.0,,0.0,10.0,0.0,1018.2,"",50.0826,8.2493,"50.0826,8.2493","50.0826,8.2493","","Clear"
"50.0826,8.2493","07/03/2020 23:00:00",16.5,16.5,16.5,8.5,59.09,,1.7,,254.0,,0.0,,0.0,10.0,0.0,1018.9,"",50.0826,8.2493,"50.0826,8.2493","50.0826,8.2493","","Clear"
"50.0826,8.2493","07/04/2020 00:00:00",14.8,14.8,14.8,8.5,66.31,,7.6,,282.0,,0.0,,0.0,10.0,0.0,1018.9,"",50.0826,8.2493,"50.0826,8.2493","50.0826,8.2493","","Clear"
"50.0826,8.2493","07/04/2020 01:00:00",14.2,14.2,14.2,8.7,69.66,,7.9,,284.0,,0.0,,0.0,10.0,0.0,1019.3,"",50.0826,8.2493,"50.0826,8.2493","50.0826,8.2493","","Clear"
"50.0826,8.2493","07/04/2020 02:00:00",13.8,13.8,13.8,9.0,72.54,,5.9,,324.0,,0.0,,0.0,10.0,0.0,1019.2,"",50.0826,8.2493,"50.0826,8.2493","50.0826,8.2493","","Clear"
"50.0826,8.2493","07/04/2020 03:00:00",12.7,12.7,12.7,8.8,77.18,,7.5,,308.0,,0.0,,0.0,10.0,0.0,1019.6,"",50.0826,8.2493,"50.0826,8.2493","50.0826,8.2493","","Clear"
"50.0826,8.2493","07/04/2020 04:00:00",11.6,11.6,11.6,8.7,82.56,,1.5,,244.0,,0.0,,0.0,10.0,0.0,1019.3,"",50.0826,8.2493,"50.0826,8.2493","50.0826,8.2493","","Clear"
"50.0826,8.2493","07/04/2020 05:00:00",11.9,11.9,11.9,8.9,82.1,,1.5,,229.0,,0.0,,0.0,10.0,0.0,1018.9,"",50.0826,8.2493,"50.0826,8.2493","50.0826,8.2493","","Clear"
"50.0826,8.2493","07/04/2020 06:00:00",11.7,11.7,11.7,8.9,82.85,,7.7,,314.0,,0.0,,0.0,10.0,0.0,1018.9,"",50.0826,8.2493,"50.0826,8.2493","50.0826,8.2493","","Clear"
"50.0826,8.2493","07/04/2020 07:00:00",13.6,13.6,13.6,9.9,78.73,,6.1,,299.0,,0.0,,0.0,10.0,30.0,1019.2,"",50.0826,8.2493,"50.0826,8.2493","50.0826,8.2493","","Partially cloudy"
"50.0826,8.2493","07/04/2020 08:00:00",16.2,16.2,16.2,10.0,66.82,,8.3,,279.0,,0.0,,0.0,10.0,0.0,1019.1,"",50.0826,8.2493,"50.0826,8.2493","50.0826,8.2493","","Clear"
"50.0826,8.2493","07/04/2020 09:00:00",17.4,17.4,17.4,9.9,61.28,,10.1,,254.0,,0.0,,0.0,10.0,0.0,1019.1,"",50.0826,8.2493,"50.0826,8.2493","50.0826,8.2493","","Clear"
"50.0826,8.2493","07/04/2020 10:00:00",19.0,19.0,19.0,10.0,55.98,,13.3,,269.0,,0.0,,0.0,13.5,0.0,1019.1,"",50.0826,8.2493,"50.0826,8.2493","50.0826,8.2493","","Clear"
"50.0826,8.2493","07/04/2020 11:00:00",20.6,20.6,20.6,9.4,48.78,,23.7,,229.0,,0.0,,0.0,10.0,0.0,1018.8,"",50.0826,8.2493,"50.0826,8.2493","50.0826,8.2493","","Clear"
"50.0826,8.2493","07/04/2020 12:00:00",22.3,22.3,22.3,9.2,43.21,,22.4,,245.0,,0.0,,0.0,12.7,50.0,1017.8,"",50.0826,8.2493,"50.0826,8.2493","50.0826,8.2493","","Partially cloudy"
"50.0826,8.2493","07/04/2020 13:00:00",24.0,24.0,24.0,9.3,39.29,,28.5,,247.0,,0.0,,0.0,13.5,30.0,1017.4,"",50.0826,8.2493,"50.0826,8.2493","50.0826,8.2493","","Partially cloudy"
"50.0826,8.2493","07/04/2020 14:00:00",24.6,24.6,24.6,9.5,38.39,,24.1,,246.0,,0.0,,0.0,12.5,0.0,1017.1,"",50.0826,8.2493,"50.0826,8.2493","50.0826,8.2493","","Clear"
"50.0826,8.2493","07/04/2020 15:00:00",23.9,23.9,23.9,9.0,38.87,,20.8,,253.0,,0.0,,0.0,10.0,0.0,1017.2,"",50.0826,8.2493,"50.0826,8.2493","50.0826,8.2493","","Clear"
"50.0826,8.2493","07/04/2020 16:00:00",23.8,23.8,23.8,9.8,41.1,,22.4,,239.0,,0.0,,0.0,13.4,0.0,1016.8,"",50.0826,8.2493,"50.0826,8.2493","50.0826,8.2493","","Clear"
"50.0826,8.2493","07/04/2020 17:00:00",25.4,25.4,25.4,10.0,37.87,,26.7,,247.0,,0.0,,0.0,13.6,0.0,1016.1,"",50.0826,8.2493,"50.0826,8.2493","50.0826,8.2493","","Clear"
"50.0826,8.2493","07/04/2020 18:00:00",24.6,24.6,24.6,10.2,40.35,,19.0,,262.0,,0.0,,0.0,10.0,0.0,1016.1,"",50.0826,8.2493,"50.0826,8.2493","50.0826,8.2493","","Clear"
"50.0826,8.2493","07/04/2020 19:00:00",24.6,24.6,24.6,10.5,40.91,,31.8,,255.0,,0.0,,0.0,10.0,0.0,1015.7,"",50.0826,8.2493,"50.0826,8.2493","50.0826,8.2493","","Clear"
"50.0826,8.2493","07/04/2020 20:00:00",23.7,23.7,23.7,10.1,42.32,,25.1,,255.0,,0.0,,0.0,10.0,0.0,1015.7,"",50.0826,8.2493,"50.0826,8.2493","50.0826,8.2493","","Clear"
"50.0826,8.2493","07/04/2020 21:00:00",23.1,23.1,23.1,10.8,45.88,,26.1,,247.0,,0.0,,0.0,10.0,0.0,1016.0,"",50.0826,8.2493,"50.0826,8.2493","50.0826,8.2493","","Clear"
"50.0826,8.2493","07/04/2020 22:00:00",21.3,21.3,21.3,11.5,53.49,,21.6,,248.0,,0.0,,0.0,10.0,50.0,1016.4,"",50.0826,8.2493,"50.0826,8.2493","50.0826,8.2493","","Partially cloudy"
"50.0826,8.2493","07/04/2020 23:00:00",21.0,21.0,21.0,11.6,54.97,,14.4,,247.0,,0.0,,0.0,10.0,0.0,1016.3,"",50.0826,8.2493,"50.0826,8.2493","50.0826,8.2493","","Clear"
"50.0826,8.2493","07/05/2020 00:00:00",20.6,20.6,20.6,11.9,57.25,,13.0,,247.0,,0.0,,0.0,13.5,0.0,1016.3,"",50.0826,8.2493,"50.0826,8.2493","50.0826,8.2493","","Clear"
"50.0826,8.2493","07/05/2020 01:00:00",20.7,20.7,20.7,12.2,58.27,,17.4,,247.0,,0.0,,0.0,11.5,0.0,1015.9,"",50.0826,8.2493,"50.0826,8.2493","50.0826,8.2493","","Clear"
"50.0826,8.2493","07/05/2020 02:00:00",20.4,20.4,20.4,12.7,61.38,,13.0,,239.0,,0.0,,0.0,10.0,0.0,1015.9,"",50.0826,8.2493,"50.0826,8.2493","50.0826,8.2493","","Clear"
"50.0826,8.2493","07/05/2020 03:00:00",19.9,19.9,19.9,13.9,68.53,,10.1,,212.0,,0.01,,0.0,9.6,0.0,1015.6,"",50.0826,8.2493,"50.0826,8.2493","50.0826,8.2493","","Rain"
"50.0826,8.2493","07/05/2020 04:00:00",19.8,19.8,19.8,14.0,69.59,,12.8,,220.0,,0.06,,0.0,12.5,0.0,1015.2,"",50.0826,8.2493,"50.0826,8.2493","50.0826,8.2493","","Rain"
"50.0826,8.2493","07/05/2020 05:00:00",20.0,20.0,20.0,14.2,69.03,,14.5,,228.0,,0.0,,0.0,12.6,0.0,1014.6,"",50.0826,8.2493,"50.0826,8.2493","50.0826,8.2493","","Clear"
"50.0826,8.2493","07/05/2020 06:00:00",19.9,19.9,19.9,14.4,70.68,,16.6,,229.0,,0.0,,0.0,12.0,0.0,1014.9,"",50.0826,8.2493,"50.0826,8.2493","50.0826,8.2493","","Clear"
"50.0826,8.2493","07/05/2020 07:00:00",20.1,20.1,20.1,14.7,71.11,,20.8,,237.0,,0.0,,0.0,14.9,0.0,1014.6,"",50.0826,8.2493,"50.0826,8.2493","50.0826,8.2493","","Clear"
"50.0826,8.2493","07/05/2020 08:00:00",20.3,20.3,20.3,15.0,71.64,,23.3,,237.0,,0.0,,0.0,14.1,0.0,1014.6,"",50.0826,8.2493,"50.0826,8.2493","50.0826,8.2493","","Clear"
"50.0826,8.2493","07/05/2020 09:00:00",20.8,20.8,20.8,15.1,69.67,,23.7,,237.0,,0.0,,0.0,14.4,0.0,1014.9,"",50.0826,8.2493,"50.0826,8.2493","50.0826,8.2493","","Clear"
"50.0826,8.2493","07/05/2020 10:00:00",21.1,21.1,21.1,15.3,69.47,,26.9,,255.0,,0.0,,0.0,15.9,0.0,1015.0,"",50.0826,8.2493,"50.0826,8.2493","50.0826,8.2493","","Clear"
"50.0826,8.2493","07/05/2020 11:00:00",21.9,21.9,21.9,15.4,66.64,,31.7,,257.0,,0.0,,0.0,13.7,0.0,1015.2,"",50.0826,8.2493,"50.0826,8.2493","50.0826,8.2493","","Clear"
"50.0826,8.2493","07/05/2020 12:00:00",22.4,22.4,22.4,15.1,63.25,,25.1,,248.0,,0.0,,0.0,10.0,0.0,1015.0,"",50.0826,8.2493,"50.0826,8.2493","50.0826,8.2493","","Clear"
"50.0826,8.2493","07/05/2020 13:00:00",23.4,23.4,23.4,15.2,59.8,,27.1,,258.0,,0.0,,0.0,10.0,0.0,1014.6,"",50.0826,8.2493,"50.0826,8.2493","50.0826,8.2493","","Clear"
"50.0826,8.2493","07/05/2020 14:00:00",24.6,24.6,24.6,15.3,56.08,,30.2,,256.0,,0.0,,0.0,10.0,0.0,1014.6,"",50.0826,8.2493,"50.0826,8.2493","50.0826,8.2493","","Clear"
"50.0826,8.2493","07/05/2020 15:00:00",25.4,25.4,25.4,15.0,52.48,,32.0,,249.0,,0.0,,0.0,10.0,0.0,1013.8,"",50.0826,8.2493,"50.0826,8.2493","50.0826,8.2493","","Clear"
"50.0826,8.2493","07/05/2020 16:00:00",25.9,25.9,25.9,14.4,49.31,,32.2,,238.0,,0.0,,0.0,10.0,0.0,1013.5,"",50.0826,8.2493,"50.0826,8.2493","50.0826,8.2493","","Clear"
"50.0826,8.2493","07/05/2020 17:00:00",26.0,26.0,26.0,14.6,49.38,,30.5,,255.0,,0.0,,0.0,10.0,0.0,1013.1,"",50.0826,8.2493,"50.0826,8.2493","50.0826,8.2493","","Clear"
"50.0826,8.2493","07/05/2020 18:00:00",25.3,25.3,25.3,14.3,50.78,,36.6,,247.0,,0.0,,0.0,10.0,30.0,1012.8,"",50.0826,8.2493,"50.0826,8.2493","50.0826,8.2493","","Partially cloudy"
"50.0826,8.2493","07/05/2020 19:00:00",24.0,24.0,24.0,14.3,54.81,,25.7,47.9,247.0,,0.0,,0.0,10.0,0.0,1012.9,"",50.0826,8.2493,"50.0826,8.2493","50.0826,8.2493","","Clear"
"50.0826,8.2493","07/05/2020 20:00:00",23.6,23.6,23.6,14.6,56.97,,23.3,,256.0,,0.0,,0.0,13.2,0.0,1012.9,"",50.0826,8.2493,"50.0826,8.2493","50.0826,8.2493","","Clear"
"50.0826,8.2493","07/05/2020 21:00:00",23.3,23.3,23.3,15.2,60.44,,17.0,,266.0,,0.0,,0.0,10.0,0.0,1012.9,"",50.0826,8.2493,"50.0826,8.2493","50.0826,8.2493","","Clear"
"50.0826,8.2493","07/05/2020 22:00:00",22.0,22.0,22.0,15.1,65.12,,24.4,,259.0,,0.0,,0.0,10.0,0.0,1012.9,"",50.0826,8.2493,"50.0826,8.2493","50.0826,8.2493","","Clear"
"50.0826,8.2493","07/05/2020 23:00:00",20.3,20.3,20.3,15.3,72.63,,16.8,,249.0,,0.0,,0.0,10.0,1.1,1012.6,"",50.0826,8.2493,"50.0826,8.2493","50.0826,8.2493","","Clear"
"50.0826,8.2493","07/06/2020 00:00:00",19.4,19.4,19.4,15.4,77.7,,20.5,,257.0,,0.0,,0.0,10.0,30.0,1012.6,"",50.0826,8.2493,"50.0826,8.2493","50.0826,8.2493","","Partially cloudy"
"50.0826,8.2493","07/06/2020 01:00:00",18.8,18.8,18.8,15.5,81.33,,13.5,,267.0,,0.0,,0.0,13.0,0.0,1012.2,"",50.0826,8.2493,"50.0826,8.2493","50.0826,8.2493","","Clear"
"50.0826,8.2493","07/06/2020 02:00:00",17.8,17.8,17.8,15.4,85.65,,11.9,,292.0,,0.0,,0.0,13.2,0.0,1012.2,"",50.0826,8.2493,"50.0826,8.2493","50.0826,8.2493","","Clear"
"50.0826,8.2493","07/06/2020 03:00:00",17.9,17.9,17.9,15.1,84.01,,12.2,,269.0,,0.0,,0.0,12.0,0.0,1012.2,"",50.0826,8.2493,"50.0826,8.2493","50.0826,8.2493","","Clear"
"50.0826,8.2493","07/06/2020 04:00:00",18.0,18.0,18.0,12.2,69.14,,15.7,,304.0,,0.0,,0.0,10.0,50.0,1012.2,"",50.0826,8.2493,"50.0826,8.2493","50.0826,8.2493","","Partially cloudy"
"50.0826,8.2493","07/06/2020 05:00:00",16.0,16.0,16.0,7.4,56.95,,20.7,,307.0,,0.0,,0.0,13.1,1.1,1012.9,"",50.0826,8.2493,"50.0826,8.2493","50.0826,8.2493","","Clear"
"50.0826,8.2493","07/06/2020 06:00:00",13.9,13.9,13.9,6.4,60.71,,11.1,,282.0,,0.0,,0.0,13.0,0.0,1014.0,"",50.0826,8.2493,"50.0826,8.2493","50.0826,8.2493","","Clear"
"50.0826,8.2493","07/06/2020 07:00:00",13.8,13.8,13.8,6.6,61.82,,20.4,,282.0,,0.0,,0.0,15.7,1.2,1014.4,"",50.0826,8.2493,"50.0826,8.2493","50.0826,8.2493","","Clear"
"50.0826,8.2493","07/06/2020 08:00:00",14.2,14.2,14.2,6.8,61.25,,22.4,,288.0,,0.0,,0.0,14.3,1.2,1015.1,"",50.0826,8.2493,"50.0826,8.2493","50.0826,8.2493","","Clear"
"50.0826,8.2493","07/06/2020 09:00:00",15.4,15.4,15.4,6.5,55.66,,23.9,,290.0,,0.0,,0.0,15.4,0.0,1015.4,"",50.0826,8.2493,"50.0826,8.2493","50.0826,8.2493","","Clear"
"50.0826,8.2493","07/06/2020 10:00:00",15.8,15.8,15.8,5.8,51.52,,21.7,,304.0,,0.0,,0.0,14.2,0.0,1016.1,"",50.0826,8.2493,"50.0826,8.2493","50.0826,8.2493","","Clear"
"50.0826,8.2493","07/06/2020 11:00:00",17.2,17.2,17.2,5.6,46.4,,17.8,,279.0,,0.0,,0.0,14.7,0.0,1016.1,"",50.0826,8.2493,"50.0826,8.2493","50.0826,8.2493","","Clear"
"50.0826,8.2493","07/06/2020 12:00:00",17.6,17.6,17.6,4.8,42.76,,22.8,,277.0,,0.0,,0.0,15.1,0.0,1016.1,"",50.0826,8.2493,"50.0826,8.2493","50.0826,8.2493","","Clear"
"50.0826,8.2493","07/06/2020 13:00:00",18.2,18.2,18.2,4.4,39.95,,22.0,,269.0,,0.0,,0.0,13.3,0.0,1016.4,"",50.0826,8.2493,"50.0826,8.2493","50.0826,8.2493","","Clear"
"50.0826,8.2493","07/06/2020 14:00:00",18.8,18.8,18.8,4.7,39.36,,23.0,,286.0,,0.0,,0.0,13.3,0.0,1016.5,"",50.0826,8.2493,"50.0826,8.2493","50.0826,8.2493","","Clear"
"50.0826,8.2493","07/06/2020 15:00:00",19.0,19.0,19.0,4.5,38.41,,24.7,,287.0,,0.0,,0.0,13.7,0.0,1016.4,"",50.0826,8.2493,"50.0826,8.2493","50.0826,8.2493","","Clear"
"50.0826,8.2493","07/06/2020 16:00:00",20.0,20.0,20.0,3.9,34.68,,26.3,,271.0,,0.0,,0.0,13.7,50.0,1016.4,"",50.0826,8.2493,"50.0826,8.2493","50.0826,8.2493","","Partially cloudy"
"50.0826,8.2493","07/06/2020 17:00:00",17.6,17.6,17.6,5.8,45.74,,28.8,,325.0,,0.0,,0.0,15.7,0.0,1017.8,"",50.0826,8.2493,"50.0826,8.2493","50.0826,8.2493","","Clear"
"50.0826,8.2493","07/06/2020 18:00:00",18.0,18.0,18.0,6.1,45.61,,19.0,,308.0,,0.0,,0.0,16.5,0.0,1018.7,"",50.0826,8.2493,"50.0826,8.2493","50.0826,8.2493","","Clear"
"50.0826,8.2493","07/06/2020 19:00:00",16.9,16.9,16.9,6.4,49.88,,18.8,,310.0,,0.01,,0.0,10.0,0.0,1019.4,"",50.0826,8.2493,"50.0826,8.2493","50.0826,8.2493","","Rain"
"50.0826,8.2493","07/06/2020 20:00:00",16.6,16.6,16.6,6.4,51.03,,19.9,,335.0,,0.0,,0.0,10.0,0.0,1019.7,"",50.0826,8.2493,"50.0826,8.2493","50.0826,8.2493","","Clear"
"50.0826,8.2493","07/06/2020 21:00:00",15.4,15.4,15.4,6.7,56.41,,6.8,,321.0,,0.0,,0.0,13.7,0.0,1020.3,"",50.0826,8.2493,"50.0826,8.2493","50.0826,8.2493","","Clear"
"50.0826,8.2493","07/06/2020 22:00:00",14.3,14.3,14.3,7.2,62.63,,11.3,,327.0,,0.0,,0.0,16.3,0.0,1020.7,"",50.0826,8.2493,"50.0826,8.2493","50.0826,8.2493","","Clear"
"50.0826,8.2493","07/06/2020 23:00:00",13.9,13.9,13.9,7.3,64.51,,13.9,,307.0,,0.0,,0.0,16.4,0.0,1021.4,"",50.0826,8.2493,"50.0826,8.2493","50.0826,8.2493","","Clear"
"50.0826,8.2493","07/07/2020 00:00:00",13.5,13.5,13.5,6.9,64.16,,11.2,,303.0,,0.0,,0.0,16.4,0.0,1021.4,"",50.0826,8.2493,"50.0826,8.2493","50.0826,8.2493","","Clear"
"50.0826,8.2493","07/07/2020 01:00:00",12.9,12.9,12.9,6.9,66.55,,2.2,,269.0,,0.0,,0.0,15.9,1.1,1021.8,"",50.0826,8.2493,"50.0826,8.2493","50.0826,8.2493","","Clear"
"50.0826,8.2493","07/07/2020 02:00:00",11.3,11.3,11.3,6.9,74.41,,8.8,,276.0,,0.0,,0.0,16.7,1.1,1021.8,"",50.0826,8.2493,"50.0826,8.2493","50.0826,8.2493","","Clear"
"50.0826,8.2493","07/07/2020 03:00:00",10.5,10.5,10.5,7.0,79.18,,1.7,,259.0,,0.0,,0.0,15.9,2.2,1022.2,"",50.0826,8.2493,"50.0826,8.2493","50.0826,8.2493","","Clear"
"50.0826,8.2493","07/07/2020 04:00:00",9.6,9.6,9.6,6.9,83.29,,5.7,,302.0,9.2,0.0,,0.0,13.7,1.2,1022.1,"",50.0826,8.2493,"50.0826,8.2493","50.0826,8.2493","","Clear"
"50.0826,8.2493","07/07/2020 05:00:00",8.7,8.7,8.7,6.7,87.16,,1.5,,269.0,,0.0,,0.0,12.3,1.2,1022.2,"",50.0826,8.2493,"50.0826,8.2493","50.0826,8.2493","","Clear"
"50.0826,8.2493","07/07/2020 06:00:00",8.0,8.0,8.0,6.5,90.38,,1.4,,284.0,,0.0,,0.0,11.8,0.0,1022.6,"",50.0826,8.2493,"50.0826,8.2493","50.0826,8.2493","","Clear"
"50.0826,8.2493","07/07/2020 07:00:00",10.1,10.1,10.1,7.9,86.41,,1.0,,258.0,,0.0,,0.0,12.6,0.0,1022.5,"",50.0826,8.2493,"50.0826,8.2493","50.0826,8.2493","","Clear"
"50.0826,8.2493","07/07/2020 08:00:00",13.1,13.1,13.1,8.5,73.79,,0.9,,299.0,,0.0,,0.0,16.0,1.1,1022.8,"",50.0826,8.2493,"50.0826,8.2493","50.0826,8.2493","","Clear"
"50.0826,8.2493","07/07/2020 09:00:00",13.9,13.9,13.9,8.1,67.87,,0.9,,244.0,,0.0,,0.0,16.6,0.0,1022.4,"",50.0826,8.2493,"50.0826,8.2493","50.0826,8.2493","","Clear"
"50.0826,8.2493","07/07/2020 10:00:00",15.7,15.7,15.7,6.7,55.1,,5.5,,231.0,,0.0,,0.0,15.9,27.3,1022.1,"",50.0826,8.2493,"50.0826,8.2493","50.0826,8.2493","","Partially cloudy"
"50.0826,8.2493","07/07/2020 11:00:00",17.0,17.0,17.0,6.4,49.8,,1.2,,290.0,,0.0,,0.0,10.0,0.0,1021.7,"",50.0826,8.2493,"50.0826,8.2493","50.0826,8.2493","","Clear"
"50.0826,8.2493","07/07/2020 12:00:00",18.9,18.9,18.9,5.6,41.78,,10.7,,252.0,,0.0,,0.0,10.0,0.0,1021.0,"",50.0826,8.2493,"50.0826,8.2493","50.0826,8.2493","","Clear"
"50.0826,8.2493","07/07/2020 13:00:00",19.1,19.1,19.1,5.3,40.39,,14.2,,284.0,,0.0,,0.0,10.0,0.0,1021.0,"",50.0826,8.2493,"50.0826,8.2493","50.0826,8.2493","","Clear"
"50.0826,8.2493","07/07/2020 14:00:00",19.6,19.6,19.6,4.9,37.98,,11.1,,265.0,,0.0,,0.0,10.0,0.0,1020.7,"",50.0826,8.2493,"50.0826,8.2493","50.0826,8.2493","","Clear"
"50.0826,8.2493","07/07/2020 15:00:00",19.5,19.5,19.5,5.0,38.5,,12.5,,260.0,,0.0,,0.0,,,1019.9,"",50.0826,8.2493,"50.0826,8.2493","50.0826,8.2493","","Clear"
"50.0826,8.2493","07/07/2020 16:00:00",21.0,21.0,21.0,4.1,32.94,,14.1,,277.0,,0.0,,0.0,13.3,0.0,1019.4,"",50.0826,8.2493,"50.0826,8.2493","50.0826,8.2493","","Clear"
"50.0826,8.2493","07/07/2020 17:00:00",21.6,21.6,21.6,4.7,33.09,,11.0,,257.0,,0.0,,0.0,10.0,0.0,1018.7,"",50.0826,8.2493,"50.0826,8.2493","50.0826,8.2493","","Clear"
"50.0826,8.2493","07/07/2020 18:00:00",20.8,20.8,20.8,5.1,35.91,,6.7,,280.0,,0.0,,0.0,,,1018.1,"",50.0826,8.2493,"50.0826,8.2493","50.0826,8.2493","","Clear"
"50.0826,8.2493","07/07/2020 19:00:00",20.5,20.5,20.5,5.0,36.28,,8.3,,250.0,,0.0,,0.0,,,1017.6,"",50.0826,8.2493,"50.0826,8.2493","50.0826,8.2493","","Clear"
"50.0826,8.2493","07/07/2020 20:00:00",20.3,20.3,20.3,5.4,37.73,,9.0,,285.0,,0.0,,0.0,10.0,0.0,1017.6,"",50.0826,8.2493,"50.0826,8.2493","50.0826,8.2493","","Clear"
"50.0826,8.2493","07/07/2020 21:00:00",18.2,18.2,18.2,6.6,46.53,,5.6,,280.0,,0.0,,0.0,10.0,0.0,1017.6,"",50.0826,8.2493,"50.0826,8.2493","50.0826,8.2493","","Clear"
"50.0826,8.2493","07/07/2020 22:00:00",17.4,17.4,17.4,6.5,48.69,,5.5,,327.0,,0.0,,0.0,10.0,0.0,1017.6,"",50.0826,8.2493,"50.0826,8.2493","50.0826,8.2493","","Clear"
"50.0826,8.2493","07/07/2020 23:00:00",15.9,15.9,15.9,7.3,56.73,,1.0,,305.0,,0.0,,0.0,10.0,0.0,1017.6,"",50.0826,8.2493,"50.0826,8.2493","50.0826,8.2493","","Clear"
"50.0826,8.2493","07/08/2020 00:00:00",15.9,15.9,15.9,7.4,57.02,,4.0,,311.0,,0.0,,0.0,10.0,0.0,1017.6,"",50.0826,8.2493,"50.0826,8.2493","50.0826,8.2493","","Clear"
"50.0826,8.2493","07/08/2020 01:00:00",15.7,15.7,15.7,7.9,59.54,,3.9,,260.0,,0.0,,0.0,10.0,0.0,1017.6,"",50.0826,8.2493,"50.0826,8.2493","50.0826,8.2493","","Clear"
"50.0826,8.2493","07/08/2020 02:00:00",15.5,15.5,15.5,8.0,60.9,,4.0,,240.0,,0.0,,0.0,10.0,0.0,1017.6,"",50.0826,8.2493,"50.0826,8.2493","50.0826,8.2493","","Clear"
"50.0826,8.2493","07/08/2020 03:00:00",14.5,14.5,14.5,8.4,66.66,,5.5,,219.0,,0.0,,0.0,10.0,0.0,1017.0,"",50.0826,8.2493,"50.0826,8.2493","50.0826,8.2493","","Clear"
"50.0826,8.2493","07/08/2020 04:00:00",14.6,14.6,14.6,8.2,65.5,,9.5,,229.0,,0.0,,0.0,10.0,0.0,1016.5,"",50.0826,8.2493,"50.0826,8.2493","50.0826,8.2493","","Clear"
"50.0826,8.2493","07/08/2020 05:00:00",15.1,15.1,15.1,8.7,65.63,,9.9,,224.0,,0.0,,0.0,10.0,0.0,1016.0,"",50.0826,8.2493,"50.0826,8.2493","50.0826,8.2493","","Clear"
"50.0826,8.2493","07/08/2020 06:00:00",14.6,14.6,14.6,9.1,69.51,,9.3,,273.0,,0.0,,0.0,14.2,0.0,1015.7,"Light Rain",50.0826,8.2493,"50.0826,8.2493","50.0826,8.2493","","Clear"
"50.0826,8.2493","07/08/2020 07:00:00",14.6,14.6,14.6,10.2,75.11,,5.9,,266.0,,0.01,,0.0,12.3,0.0,1015.9,"",50.0826,8.2493,"50.0826,8.2493","50.0826,8.2493","","Rain"
"50.0826,8.2493","07/08/2020 08:00:00",15.3,15.3,15.3,10.0,70.85,,1.2,,244.0,,0.01,,0.0,14.5,0.0,1015.8,"",50.0826,8.2493,"50.0826,8.2493","50.0826,8.2493","","Rain"
"50.0826,8.2493","07/08/2020 09:00:00",16.0,16.0,16.0,9.3,64.51,,5.9,,282.0,,0.0,,0.0,14.4,0.0,1016.1,"",50.0826,8.2493,"50.0826,8.2493","50.0826,8.2493","","Clear"
"50.0826,8.2493","07/08/2020 10:00:00",15.6,15.6,15.6,9.4,66.58,,10.4,,8.0,,0.0,,0.0,13.0,0.0,1016.2,"",50.0826,8.2493,"50.0826,8.2493","50.0826,8.2493","","Clear"
"50.0826,8.2493","07/08/2020 11:00:00",15.3,15.3,15.3,9.7,69.08,,6.1,,315.0,,0.12,,0.0,11.8,0.0,1016.9,"",50.0826,8.2493,"50.0826,8.2493","50.0826,8.2493","","Rain"
"50.0826,8.2493","07/08/2020 12:00:00",14.3,14.3,14.3,10.9,79.83,,8.2,,298.0,,0.07,,0.0,10.5,0.0,1017.3,"Light Rain",50.0826,8.2493,"50.0826,8.2493","50.0826,8.2493","","Rain"
"50.0826,8.2493","07/08/2020 13:00:00",14.3,14.3,14.3,11.3,82.24,,7.8,,351.0,,0.54,,0.0,10.9,0.0,1017.3,"Light Rain",50.0826,8.2493,"50.0826,8.2493","50.0826,8.2493","","Rain"
"50.0826,8.2493","07/08/2020 14:00:00",14.3,14.3,14.3,11.9,85.77,,1.2,,326.0,,0.93,,0.0,9.4,0.0,1017.5,"Rain",50.0826,8.2493,"50.0826,8.2493","50.0826,8.2493","","Rain"
"50.0826,8.2493","07/08/2020 15:00:00",14.7,14.7,14.7,12.6,87.02,,1.0,,331.0,,0.64,,0.0,9.9,0.0,1017.5,"Light Rain",50.0826,8.2493,"50.0826,8.2493","50.0826,8.2493","","Rain"
"50.0826,8.2493","07/08/2020 16:00:00",15.0,15.0,15.0,13.1,88.39,,7.7,,161.0,,0.36,,0.0,10.3,0.0,1017.5,"",50.0826,8.2493,"50.0826,8.2493","50.0826,8.2493","","Rain"
"50.0826,8.2493","07/08/2020 17:00:00",15.7,15.7,15.7,12.8,83.17,,1.4,,275.0,,0.03,,0.0,10.9,0.0,1017.3,"",50.0826,8.2493,"50.0826,8.2493","50.0826,8.2493","","Rain"
"50.0826,8.2493","07/08/2020 18:00:00",16.0,16.0,16.0,13.4,84.42,,6.0,,256.0,,0.13,,0.0,11.8,0.0,1017.3,"",50.0826,8.2493,"50.0826,8.2493","50.0826,8.2493","","Rain"
"50.0826,8.2493","07/08/2020 19:00:00",16.3,16.3,16.3,13.7,84.64,,9.1,,256.0,,0.07,,0.0,11.3,0.0,1017.3,"",50.0826,8.2493,"50.0826,8.2493","50.0826,8.2493","","Rain"
"50.0826,8.2493","07/08/2020 20:00:00",16.0,16.0,16.0,14.4,90.35,,5.9,,163.0,,0.01,,0.0,11.3,0.0,1017.3,"",50.0826,8.2493,"50.0826,8.2493","50.0826,8.2493","","Rain"
"50.0826,8.2493","07/08/2020 21:00:00",15.7,15.7,15.7,14.9,95.03,,7.4,,187.0,,0.0,,0.0,10.5,0.0,1017.3,"Light Rain",50.0826,8.2493,"50.0826,8.2493","50.0826,8.2493","","Clear"
"50.0826,8.2493","07/08/2020 22:00:00",15.4,15.4,15.4,15.1,98.23,,7.6,,171.0,,0.2,,0.0,9.0,0.0,1017.7,"",50.0826,8.2493,"50.0826,8.2493","50.0826,8.2493","","Rain"
"50.0826,8.2493","07/08/2020 23:00:00",15.3,15.3,15.3,15.1,98.58,,7.6,,183.0,,0.11,,0.0,10.5,0.0,1017.7,"",50.0826,8.2493,"50.0826,8.2493","50.0826,8.2493","","Rain"
"50.0826,8.2493","07/09/2020 00:00:00",15.3,15.3,15.3,15.1,98.55,,1.3,,200.0,,0.0,,0.0,10.0,0.0,1017.7,"",50.0826,8.2493,"50.0826,8.2493","50.0826,8.2493","","Clear"
