Address,Date time,Minimum Temperature,Maximum Temperature,Temperature,Dew Point,Relative Humidity,Heat Index,Wind Speed,Wind Gust,Wind Direction,Wind Chill,Precipitation,Precipitation Cover,Snow Depth,Visibility,Cloud Cover,Sea Level Pressure,Weather Type,Latitude,Longitude,Resolved Address,Name,Info,Conditions
"50.0826,8.2493","11/01/2021 00:00:00",13.0,13.0,13.0,10.3,83.68,,3.0,,210.0,,0.0,,,11.6,0.0,1001.2,"",50.0826,8.2493,"50.0826,8.2493","50.0826,8.2493","","Clear"
"50.0826,8.2493","11/01/2021 01:00:00",13.3,13.3,13.3,9.5,77.97,,14.9,,283.0,,0.0,,,10.9,0.0,1001.4,"",50.0826,8.2493,"50.0826,8.2493","50.0826,8.2493","","Clear"
"50.0826,8.2493","11/01/2021 02:00:00",12.4,12.4,12.4,8.0,74.56,,11.4,,275.0,,0.02,,,11.7,0.0,1002.2,"",50.0826,8.2493,"50.0826,8.2493","50.0826,8.2493","","Rain"
"50.0826,8.2493","11/01/2021 03:00:00",11.1,11.1,11.1,5.9,70.65,,8.5,,287.0,,0.19,,,11.7,0.0,1002.5,"Light Rain",50.0826,8.2493,"50.0826,8.2493","50.0826,8.2493","","Rain"
"50.0826,8.2493","11/01/2021 04:00:00",9.7,9.7,9.7,6.8,82.33,,5.9,,147.0,9.1,1.75,,,10.7,0.0,1002.3,"Light Rain",50.0826,8.2493,"50.0826,8.2493","50.0826,8.2493","","Rain"
"50.0826,8.2493","11/01/2021 05:00:00",9.6,9.6,9.6,7.2,84.93,,8.3,,177.0,8.5,0.72,,,10.9,0.0,1003.0,"",50.0826,8.2493,"50.0826,8.2493","50.0826,8.2493","","Rain"
"50.0826,8.2493","11/01/2021 06:00:00",9.7,9.7,9.7,7.4,85.22,,8.7,,226.0,8.5,0.0,,,10.7,50.0,1003.0,"",50.0826,8.2493,"50.0826,8.2493","50.0826,8.2493","","Partially cloudy"
"50.0826,8.2493","11/01/2021 07:00:00",9.8,9.8,9.8,7.4,84.93,,17.0,,202.0,7.4,0.0,,,11.8,50.0,1003.3,"",50.0826,8.2493,"50.0826,8.2493","50.0826,8.2493","","Partially cloudy"
"50.0826,8.2493","11/01/2021 08:00:00",9.6,9.6,9.6,7.0,84.04,,12.6,,210.0,7.8,0.0,,,12.2,0.0,1003.7,"",50.0826,8.2493,"50.0826,8.2493","50.0826,8.2493","","Clear"
"50.0826,8.2493","11/01/2021 09:00:00",9.8,9.8,9.8,7.3,83.9,,12.7,,202.0,8.0,0.0,,,11.8,0.0,1004.7,"",50.0826,8.2493,"50.0826,8.2493","50.0826,8.2493","","Clear"
"50.0826,8.2493","11/01/2021 10:00:00",9.9,9.9,9.9,7.1,82.78,,10.5,,186.0,8.5,0.0,,,11.8,0.0,1004.0,"",50.0826,8.2493,"50.0826,8.2493","50.0826,8.2493","","Clear"
"50.0826,8.2493","11/01/2021 11:00:00",10.3,10.3,10.3,7.2,81.35,,10.9,,177.0,,0.0,,,11.8,0.0,1004.0,"",50.0826,8.2493,"50.0826,8.2493","50.0826,8.2493","","Clear"
"50.0826,8.2493","11/01/2021 12:00:00",10.9,10.9,10.9,7.6,80.01,,13.6,,185.0,,0.0,,,11.8,0.0,1003.7,"",50.0826,8.2493,"50.0826,8.2493","50.0826,8.2493","","Clear"
"50.0826,8.2493","11/01/2021 13:00:00",11.3,11.3,11.3,7.1,75.61,,16.8,,184.0,,0.0,,,12.3,0.0,1003.6,"",50.0826,8.2493,"50.0826,8.2493","50.0826,8.2493","","Clear"
"50.0826,8.2493","11/01/2021 14:00:00",11.0,11.0,11.0,7.5,79.12,,17.8,,192.0,,0.1,,,9.0,0.0,1003.0,"",50.0826,8.2493,"50.0826,8.2493","50.0826,8.2493","","Rain"
"50.0826,8.2493","11/01/2021 15:00:00",10.9,10.9,10.9,6.9,76.15,,13.3,,226.0,,1.04,,,9.7,0.0,1003.0,"",50.0826,8.2493,"50.0826,8.2493","50.0826,8.2493","","Rain"
"50.0826,8.2493","11/01/2021 16:00:00",11.0,11.0,11.0,5.3,67.59,,19.2,,243.0,,0.06,,,12.9,0.0,1002.8,"",50.0826,8.2493,"50.0826,8.2493","50.0826,8.2493","","Rain"
"50.0826,8.2493","11/01/2021 17:00:00",8.8,8.8,8.8,5.4,79.05,,9.6,,189.0,7.3,0.0,,,10.8,0.0,1003.1,"",50.0826,8.2493,"50.0826,8.2493","50.0826,8.2493","","Clear"
"50.0826,8.2493","11/01/2021 18:00:00",7.6,7.6,7.6,4.9,82.94,,6.1,,144.0,6.7,0.0,,,11.3,0.0,1003.5,"",50.0826,8.2493,"50.0826,8.2493","50.0826,8.2493","","Clear"
"50.0826,8.2493","11/01/2021 19:00:00",7.2,7.2,7.2,4.5,83.21,,1.9,,200.0,,0.0,,,11.8,0.0,1003.8,"",50.0826,8.2493,"50.0826,8.2493","50.0826,8.2493","","Clear"
"50.0826,8.2493","11/01/2021 20:00:00",6.2,6.2,6.2,3.8,84.52,,1.3,,163.0,,0.0,,,11.3,0.0,1003.9,"",50.0826,8.2493,"50.0826,8.2493","50.0826,8.2493","","Clear"
"50.0826,8.2493","11/01/2021 21:00:00",5.4,5.4,5.4,3.4,87.01,,1.3,,143.0,,0.0,,,11.3,1.2,1003.6,"",50.0826,8.2493,"50.0826,8.2493","50.0826,8.2493","","Clear"
"50.0826,8.2493","11/01/2021 22:00:00",5.0,5.0,5.0,3.0,87.19,,5.6,,101.0,3.8,0.0,,,8.6,50.0,1003.6,"",50.0826,8.2493,"50.0826,8.2493","50.0826,8.2493","","Partially cloudy"
"50.0826,8.2493","11/01/2021 23:00:00",6.0,6.0,6.0,4.0,87.35,,6.2,,112.0,4.8,0.0,,,8.7,0.0,1003.2,"",50.0826,8.2493,"50.0826,8.2493","50.0826,8.2493","","Clear"
"50.0826,8.2493","11/02/2021 00:00:00",6.2,6.2,6.2,4.4,88.33,,9.0,,153.0,4.3,0.0,,,1.2,0.0,1002.8,"Smoke Or Haze",50.0826,8.2493,"50.0826,8.2493","50.0826,8.2493","","Clear"
"50.0826,8.2493","11/02/2021 01:00:00",6.4,6.4,6.4,4.8,89.7,,6.2,,152.0,5.3,0.0,,,1.4,0.0,1002.5,"Smoke Or Haze",50.0826,8.2493,"50.0826,8.2493","50.0826,8.2493","","Clear"
"50.0826,8.2493","11/02/2021 02:00:00",6.5,6.5,6.5,4.7,88.49,,1.2,,138.0,,0.0,,,1.3,50.0,1002.1,"Smoke Or Haze",50.0826,8.2493,"50.0826,8.2493","50.0826,8.2493","","Partially cloudy"
"50.0826,8.2493","11/02/2021 03:00:00",6.5,6.5,6.5,4.7,88.81,,0.9,,261.0,,0.0,,,1.3,30.0,1002.1,"Smoke Or Haze",50.0826,8.2493,"50.0826,8.2493","50.0826,8.2493","","Partially cloudy"
"50.0826,8.2493","11/02/2021 04:00:00",6.6,6.6,6.6,4.8,88.74,,1.7,,240.0,,0.06,,,2.2,0.0,1002.1,"Smoke Or Haze",50.0826,8.2493,"50.0826,8.2493","50.0826,8.2493","","Rain"
"50.0826,8.2493","11/02/2021 05:00:00",6.5,6.5,6.5,4.9,89.15,,1.6,,245.0,,0.0,,,1.3,30.0,1002.2,"Smoke Or Haze",50.0826,8.2493,"50.0826,8.2493","50.0826,8.2493","","Partially cloudy"
"50.0826,8.2493","11/02/2021 06:00:00",6.4,6.4,6.4,4.8,89.4,,1.0,,255.0,,0.0,,,5.5,0.0,1001.9,"Mist",50.0826,8.2493,"50.0826,8.2493","50.0826,8.2493","","Clear"
"50.0826,8.2493","11/02/2021 07:00:00",6.2,6.2,6.2,4.6,89.81,,1.7,,235.0,,0.0,,,7.3,0.0,1001.9,"Mist",50.0826,8.2493,"50.0826,8.2493","50.0826,8.2493","","Clear"
"50.0826,8.2493","11/02/2021 08:00:00",6.2,6.2,6.2,4.6,89.39,,1.8,,240.0,,0.0,,,7.3,0.0,1002.3,"Smoke Or Haze",50.0826,8.2493,"50.0826,8.2493","50.0826,8.2493","","Clear"
"50.0826,8.2493","11/02/2021 09:00:00",7.1,7.1,7.1,5.2,87.4,,6.0,,227.0,6.2,0.0,,,8.9,50.0,1002.6,"",50.0826,8.2493,"50.0826,8.2493","50.0826,8.2493","","Partially cloudy"
"50.0826,8.2493","11/02/2021 10:00:00",7.6,7.6,7.6,5.7,87.75,,1.6,,225.0,,0.0,,,9.6,0.0,1002.7,"",50.0826,8.2493,"50.0826,8.2493","50.0826,8.2493","","Clear"
"50.0826,8.2493","11/02/2021 11:00:00",8.5,8.5,8.5,6.8,89.04,,1.5,,215.0,,0.0,,,9.4,0.0,1002.2,"Mist",50.0826,8.2493,"50.0826,8.2493","50.0826,8.2493","","Clear"
"50.0826,8.2493","11/02/2021 12:00:00",8.7,8.7,8.7,5.3,79.23,,2.1,,215.0,,0.19,,,11.0,0.0,1001.9,"Light Rain",50.0826,8.2493,"50.0826,8.2493","50.0826,8.2493","","Rain"
"50.0826,8.2493","11/02/2021 13:00:00",8.1,8.1,8.1,5.2,81.68,,13.2,,193.0,5.9,1.94,,,10.0,0.0,1001.9,"Light Rain",50.0826,8.2493,"50.0826,8.2493","50.0826,8.2493","","Rain"
"50.0826,8.2493","11/02/2021 14:00:00",7.7,7.7,7.7,4.7,81.46,,11.8,,228.0,5.5,1.66,,,7.7,0.0,1001.9,"Rain",50.0826,8.2493,"50.0826,8.2493","50.0826,8.2493","","Rain"
"50.0826,8.2493","11/02/2021 15:00:00",7.5,7.5,7.5,4.5,81.37,,10.1,,244.0,5.6,0.82,,,9.5,0.0,1001.9,"Light Rain",50.0826,8.2493,"50.0826,8.2493","50.0826,8.2493","","Rain"
"50.0826,8.2493","11/02/2021 16:00:00",7.4,7.4,7.4,4.8,83.57,,11.5,,222.0,5.2,0.58,,,9.6,0.0,1001.9,"Light Rain",50.0826,8.2493,"50.0826,8.2493","50.0826,8.2493","","Rain"
"50.0826,8.2493","11/02/2021 17:00:00",7.2,7.2,7.2,4.5,82.87,,8.2,,247.0,5.7,0.42,,,9.9,0.0,1002.3,"",50.0826,8.2493,"50.0826,8.2493","50.0826,8.2493","","Rain"
"50.0826,8.2493","11/02/2021 18:00:00",6.7,6.7,6.7,4.1,83.16,,1.4,,224.0,,0.0,,,10.5,0.0,1002.6,"",50.0826,8.2493,"50.0826,8.2493","50.0826,8.2493","","Clear"
"50.0826,8.2493","11/02/2021 19:00:00",7.2,7.2,7.2,4.6,83.53,,1.7,,210.0,,0.0,,,10.5,0.0,1003.0,"",50.0826,8.2493,"50.0826,8.2493","50.0826,8.2493","","Clear"
"50.0826,8.2493","11/02/2021 20:00:00",7.2,7.2,7.2,4.7,84.44,,8.2,,237.0,5.6,0.06,,,10.5,0.0,1003.3,"",50.0826,8.2493,"50.0826,8.2493","50.0826,8.2493","","Rain"
"50.0826,8.2493","11/02/2021 21:00:00",6.4,6.4,6.4,3.9,83.81,,6.4,,263.0,5.3,0.0,,,10.9,0.0,1003.3,"",50.0826,8.2493,"50.0826,8.2493","50.0826,8.2493","","Clear"
"50.0826,8.2493","11/02/2021 22:00:00",6.0,6.0,6.0,3.6,84.8,,6.2,,237.0,4.8,0.0,,,10.9,0.0,1003.9,"",50.0826,8.2493,"50.0826,8.2493","50.0826,8.2493","","Clear"
"50.0826,8.2493","11/02/2021 23:00:00",6.2,6.2,6.2,4.0,85.58,,1.5,,224.0,,0.0,,,11.3,0.0,1003.6,"",50.0826,8.2493,"50.0826,8.2493","50.0826,8.2493","","Clear"
"50.0826,8.2493","11/03/2021 00:00:00",5.5,5.5,5.5,3.4,86.36,,7.5,,171.0,3.9,0.0,,,11.3,0.0,1002.9,"",50.0826,8.2493,"50.0826,8.2493","50.0826,8.2493","","Clear"
"50.0826,8.2493","11/03/2021 01:00:00",5.6,5.6,5.6,3.5,86.45,,1.1,,210.0,,0.0,,,10.9,0.0,1003.3,"",50.0826,8.2493,"50.0826,8.2493","50.0826,8.2493","","Clear"
"50.0826,8.2493","11/03/2021 02:00:00",5.4,5.4,5.4,3.3,86.35,,5.0,,65.0,4.6,0.0,,,10.7,0.0,1002.6,"",50.0826,8.2493,"50.0826,8.2493","50.0826,8.2493","","Clear"
"50.0826,8.2493","11/03/2021 03:00:00",5.3,5.3,5.3,3.3,86.85,,5.7,,90.0,4.2,0.0,,,9.7,0.0,1001.9,"",50.0826,8.2493,"50.0826,8.2493","50.0826,8.2493","","Clear"
"50.0826,8.2493","11/03/2021 04:00:00",5.3,5.3,5.3,3.5,88.49,,6.2,,127.0,4.0,0.0,,,9.0,0.0,1001.9,"Smoke Or Haze",50.0826,8.2493,"50.0826,8.2493","50.0826,8.2493","","Clear"
"50.0826,8.2493","11/03/2021 05:00:00",6.0,6.0,6.0,4.2,88.58,,8.2,,75.0,4.2,0.01,,,9.0,50.0,1001.9,"Light Rain",50.0826,8.2493,"50.0826,8.2493","50.0826,8.2493","","Rain, Partially cloudy"
"50.0826,8.2493","11/03/2021 06:00:00",6.1,6.1,6.1,4.1,87.33,,9.9,,100.0,4.0,0.49,,,9.5,0.0,1001.3,"Light Rain",50.0826,8.2493,"50.0826,8.2493","50.0826,8.2493","","Rain"
"50.0826,8.2493","11/03/2021 07:00:00",6.0,6.0,6.0,4.0,86.78,,11.1,,74.0,3.7,0.29,,,9.2,30.0,1000.8,"Light Rain",50.0826,8.2493,"50.0826,8.2493","50.0826,8.2493","","Rain, Partially cloudy"
"50.0826,8.2493","11/03/2021 08:00:00",6.2,6.2,6.2,4.2,86.79,,16.2,,74.0,3.1,0.49,,,9.1,50.0,1000.2,"Light Rain",50.0826,8.2493,"50.0826,8.2493","50.0826,8.2493","","Rain, Partially cloudy"
"50.0826,8.2493","11/03/2021 09:00:00",6.4,6.4,6.4,4.3,85.86,,13.4,,74.0,3.8,0.1,,,9.6,0.0,1000.2,"Light Rain",50.0826,8.2493,"50.0826,8.2493","50.0826,8.2493","","Rain"
"50.0826,8.2493","11/03/2021 10:00:00",6.6,6.6,6.6,4.3,84.78,,20.1,,82.0,3.1,0.54,,,9.6,0.0,1000.2,"Light Rain",50.0826,8.2493,"50.0826,8.2493","50.0826,8.2493","","Rain"
"50.0826,8.2493","11/03/2021 11:00:00",6.8,6.8,6.8,4.2,83.32,,12.8,,111.0,4.3,1.18,,,9.2,0.0,1000.6,"Light Rain",50.0826,8.2493,"50.0826,8.2493","50.0826,8.2493","","Rain"
"50.0826,8.2493","11/03/2021 12:00:00",7.1,7.1,7.1,4.7,84.61,,9.4,,106.0,5.4,1.53,,,9.4,0.0,1000.6,"Light Rain",50.0826,8.2493,"50.0826,8.2493","50.0826,8.2493","","Rain"
"50.0826,8.2493","11/03/2021 13:00:00",7.4,7.4,7.4,6.8,96.4,,9.1,,113.0,5.7,0.55,,,15.4,,1000.2,"",50.0826,8.2493,"50.0826,8.2493","50.0826,8.2493","","Rain"
"50.0826,8.2493","11/03/2021 14:00:00",7.8,7.8,7.8,5.3,84.28,,10.5,,137.0,5.9,0.17,,,10.0,50.0,1000.2,"Light Rain",50.0826,8.2493,"50.0826,8.2493","50.0826,8.2493","","Rain, Partially cloudy"
"50.0826,8.2493","11/03/2021 15:00:00",8.1,8.1,8.1,5.5,83.83,,12.4,,127.0,6.0,0.28,,,10.5,0.0,1000.2,"",50.0826,8.2493,"50.0826,8.2493","50.0826,8.2493","","Rain"
"50.0826,8.2493","11/03/2021 16:00:00",7.8,7.8,7.8,5.3,84.32,,8.9,,134.0,6.2,0.39,,,10.0,0.0,999.9,"Light Rain",50.0826,8.2493,"50.0826,8.2493","50.0826,8.2493","","Rain"
"50.0826,8.2493","11/03/2021 17:00:00",7.8,7.8,7.8,5.4,85.01,,7.6,,162.0,6.5,0.12,,,10.9,0.0,1000.6,"",50.0826,8.2493,"50.0826,8.2493","50.0826,8.2493","","Rain"
"50.0826,8.2493","11/03/2021 18:00:00",7.7,7.7,7.7,5.4,85.75,,9.0,,145.0,6.1,0.0,,,11.3,0.0,1000.6,"",50.0826,8.2493,"50.0826,8.2493","50.0826,8.2493","","Clear"
"50.0826,8.2493","11/03/2021 19:00:00",7.6,7.6,7.6,5.5,86.45,,7.4,,162.0,6.3,0.0,,,10.5,0.0,1001.3,"",50.0826,8.2493,"50.0826,8.2493","50.0826,8.2493","","Clear"
"50.0826,8.2493","11/03/2021 20:00:00",7.4,7.4,7.4,5.3,86.57,,7.4,,126.0,6.1,0.0,,,10.5,0.0,1000.9,"",50.0826,8.2493,"50.0826,8.2493","50.0826,8.2493","","Clear"
"50.0826,8.2493","11/03/2021 21:00:00",7.5,7.5,7.5,5.5,87.11,,7.4,,147.0,6.2,0.0,,,10.5,0.0,1001.5,"",50.0826,8.2493,"50.0826,8.2493","50.0826,8.2493","","Clear"
"50.0826,8.2493","11/03/2021 22:00:00",7.5,7.5,7.5,5.5,87.34,,0.6,,297.0,,0.0,,,10.5,0.0,1001.9,"Light Rain",50.0826,8.2493,"50.0826,8.2493","50.0826,8.2493","","Clear"
"50.0826,8.2493","11/03/2021 23:00:00",7.3,7.3,7.3,5.3,87.17,,0.8,,123.0,,0.5,,,6.7,0.0,1001.9,"Smoke Or Haze",50.0826,8.2493,"50.0826,8.2493","50.0826,8.2493","","Rain"
"50.0826,8.2493","11/04/2021 00:00:00",7.3,7.3,7.3,5.2,86.9,,0.6,,139.0,,0.85,,,7.6,0.0,1002.2,"Smoke Or Haze",50.0826,8.2493,"50.0826,8.2493","50.0826,8.2493","","Rain"
"50.0826,8.2493","11/04/2021 01:00:00",7.1,7.1,7.1,5.1,87.62,,0.5,,173.0,,0.04,,,7.9,0.0,1002.2,"Mist",50.0826,8.2493,"50.0826,8.2493","50.0826,8.2493","","Rain"
"50.0826,8.2493","11/04/2021 02:00:00",7.0,7.0,7.0,5.1,87.95,,0.7,,356.0,,0.0,,,7.3,0.0,1001.2,"Mist",50.0826,8.2493,"50.0826,8.2493","50.0826,8.2493","","Clear"
"50.0826,8.2493","11/04/2021 03:00:00",6.6,6.6,6.6,5.0,88.97,,0.9,,263.0,,0.0,,,5.4,0.0,1001.5,"Mist",50.0826,8.2493,"50.0826,8.2493","50.0826,8.2493","","Clear"
"50.0826,8.2493","11/04/2021 04:00:00",6.6,6.6,6.6,4.7,87.8,,7.4,,305.0,5.2,0.0,,,8.8,0.0,1001.2,"",50.0826,8.2493,"50.0826,8.2493","50.0826,8.2493","","Clear"
"50.0826,8.2493","11/04/2021 05:00:00",6.6,6.6,6.6,4.5,86.63,,7.5,,304.0,5.1,0.01,,,8.6,0.0,1001.9,"",50.0826,8.2493,"50.0826,8.2493","50.0826,8.2493","","Rain"
"50.0826,8.2493","11/04/2021 06:00:00",6.6,6.6,6.6,4.1,84.56,,7.7,,318.0,5.1,0.0,,,10.5,0.0,1001.9,"",50.0826,8.2493,"50.0826,8.2493","50.0826,8.2493","","Clear"
"50.0826,8.2493","11/04/2021 07:00:00",6.6,6.6,6.6,3.7,81.8,,11.5,,311.0,4.3,0.02,,,10.9,0.0,1001.9,"",50.0826,8.2493,"50.0826,8.2493","50.0826,8.2493","","Rain"
"50.0826,8.2493","11/04/2021 08:00:00",6.5,6.5,6.5,3.5,81.04,,13.0,,319.0,3.9,0.01,,,10.9,0.0,1003.3,"",50.0826,8.2493,"50.0826,8.2493","50.0826,8.2493","","Rain"
"50.0826,8.2493","11/04/2021 09:00:00",6.4,6.4,6.4,3.1,79.17,,14.7,,320.0,3.6,0.03,,,9.4,0.0,1004.2,"",50.0826,8.2493,"50.0826,8.2493","50.0826,8.2493","","Rain"
"50.0826,8.2493","11/04/2021 10:00:00",6.6,6.6,6.6,3.0,77.83,,16.1,,310.0,3.6,0.08,,,10.0,0.0,1004.6,"",50.0826,8.2493,"50.0826,8.2493","50.0826,8.2493","","Rain"
"50.0826,8.2493","11/04/2021 11:00:00",6.6,6.6,6.6,2.6,75.41,,20.1,,317.0,3.1,0.06,,,10.5,0.0,1005.7,"",50.0826,8.2493,"50.0826,8.2493","50.0826,8.2493","","Rain"
"50.0826,8.2493","11/04/2021 12:00:00",7.0,7.0,7.0,2.5,72.7,,15.2,,292.0,4.2,0.0,,,10.5,0.0,1005.9,"",50.0826,8.2493,"50.0826,8.2493","50.0826,8.2493","","Clear"
"50.0826,8.2493","11/04/2021 13:00:00",7.3,7.3,7.3,2.5,71.55,,17.0,,282.0,4.3,0.0,,,10.5,0.0,1006.3,"",50.0826,8.2493,"50.0826,8.2493","50.0826,8.2493","","Clear"
"50.0826,8.2493","11/04/2021 14:00:00",7.5,7.5,7.5,2.5,70.2,,20.5,,281.0,4.2,0.0,,,10.5,0.0,1007.3,"",50.0826,8.2493,"50.0826,8.2493","50.0826,8.2493","","Clear"
"50.0826,8.2493","11/04/2021 15:00:00",8.0,8.0,8.0,2.7,69.33,,11.9,,288.0,5.9,0.0,,,10.9,0.0,1007.5,"",50.0826,8.2493,"50.0826,8.2493","50.0826,8.2493","","Clear"
"50.0826,8.2493","11/04/2021 16:00:00",7.2,7.2,7.2,2.6,72.62,,14.5,,278.0,4.6,0.38,,,10.0,0.0,1008.6,"Light Rain",50.0826,8.2493,"50.0826,8.2493","50.0826,8.2493","","Rain"
"50.0826,8.2493","11/04/2021 17:00:00",7.0,7.0,7.0,3.1,76.36,,9.7,,270.0,5.1,0.05,,,9.6,0.0,1009.8,"",50.0826,8.2493,"50.0826,8.2493","50.0826,8.2493","","Rain"
"50.0826,8.2493","11/04/2021 18:00:00",6.0,6.0,6.0,2.8,80.14,,2.0,,260.0,,0.0,,,10.5,0.0,1010.1,"",50.0826,8.2493,"50.0826,8.2493","50.0826,8.2493","","Clear"
"50.0826,8.2493","11/04/2021 19:00:00",6.2,6.2,6.2,3.0,80.07,,11.0,,266.0,3.9,0.35,,,10.0,0.0,1011.3,"",50.0826,8.2493,"50.0826,8.2493","50.0826,8.2493","","Rain"
"50.0826,8.2493","11/04/2021 20:00:00",6.7,6.7,6.7,3.1,77.91,,9.9,,250.0,4.7,0.27,,,10.5,0.0,1011.5,"",50.0826,8.2493,"50.0826,8.2493","50.0826,8.2493","","Rain"
"50.0826,8.2493","11/04/2021 21:00:00",6.5,6.5,6.5,2.9,77.64,,11.6,,275.0,4.2,0.0,,,10.5,0.0,1012.5,"",50.0826,8.2493,"50.0826,8.2493","50.0826,8.2493","","Clear"
"50.0826,8.2493","11/04/2021 22:00:00",6.3,6.3,6.3,2.9,78.53,,10.1,,275.0,4.3,0.01,,,10.5,0.0,1013.2,"",50.0826,8.2493,"50.0826,8.2493","50.0826,8.2493","","Rain"
"50.0826,8.2493","11/04/2021 23:00:00",6.3,6.3,6.3,2.9,78.84,,11.3,,266.0,4.0,0.06,,,10.5,0.0,1013.5,"Light Rain",50.0826,8.2493,"50.0826,8.2493","50.0826,8.2493","","Rain"
"50.0826,8.2493","11/05/2021 00:00:00",5.8,5.8,5.8,3.0,82.06,,1.6,,254.0,,0.04,,,10.5,0.0,1014.2,"",50.0826,8.2493,"50.0826,8.2493","50.0826,8.2493","","Rain"
"50.0826,8.2493","11/05/2021 01:00:00",6.0,6.0,6.0,3.2,82.47,,5.9,,251.0,4.9,0.0,,,10.5,0.0,1014.8,"",50.0826,8.2493,"50.0826,8.2493","50.0826,8.2493","","Clear"
"50.0826,8.2493","11/05/2021 02:00:00",5.5,5.5,5.5,2.8,82.83,,5.8,,277.0,4.4,0.0,,,10.0,0.0,1015.5,"",50.0826,8.2493,"50.0826,8.2493","50.0826,8.2493","","Clear"
"50.0826,8.2493","11/05/2021 03:00:00",5.1,5.1,5.1,2.6,83.89,,1.4,,259.0,,0.0,,,10.0,0.0,1016.0,"",50.0826,8.2493,"50.0826,8.2493","50.0826,8.2493","","Clear"
"50.0826,8.2493","11/05/2021 04:00:00",5.5,5.5,5.5,2.9,83.76,,7.5,,320.0,3.8,0.0,,,10.0,0.0,1016.8,"",50.0826,8.2493,"50.0826,8.2493","50.0826,8.2493","","Clear"
"50.0826,8.2493","11/05/2021 05:00:00",4.9,4.9,4.9,2.3,83.69,,1.2,,269.0,,0.0,,,10.0,30.0,1017.6,"",50.0826,8.2493,"50.0826,8.2493","50.0826,8.2493","","Partially cloudy"
"50.0826,8.2493","11/05/2021 06:00:00",4.9,4.9,4.9,2.2,82.8,,6.2,,294.0,3.5,0.0,,,9.9,50.0,1018.5,"",50.0826,8.2493,"50.0826,8.2493","50.0826,8.2493","","Partially cloudy"
"50.0826,8.2493","11/05/2021 07:00:00",4.7,4.7,4.7,2.2,83.39,,1.4,,284.0,,0.0,,,9.9,0.0,1019.2,"",50.0826,8.2493,"50.0826,8.2493","50.0826,8.2493","","Clear"
"50.0826,8.2493","11/05/2021 08:00:00",5.6,5.6,5.6,2.8,81.78,,1.9,,279.0,,0.0,,,9.9,0.0,1020.2,"",50.0826,8.2493,"50.0826,8.2493","50.0826,8.2493","","Clear"
"50.0826,8.2493","11/05/2021 09:00:00",6.5,6.5,6.5,3.1,79.06,,8.0,,272.0,4.9,0.0,,,9.9,0.0,1021.3,"",50.0826,8.2493,"50.0826,8.2493","50.0826,8.2493","","Clear"
"50.0826,8.2493","11/05/2021 10:00:00",7.8,7.8,7.8,3.4,73.77,,9.5,,286.0,6.1,0.0,,,9.8,30.0,1022.3,"",50.0826,8.2493,"50.0826,8.2493","50.0826,8.2493","","Partially cloudy"
"50.0826,8.2493","11/05/2021 11:00:00",8.4,8.4,8.4,2.8,67.79,,9.4,,302.0,6.8,0.0,,,9.9,0.0,1023.3,"",50.0826,8.2493,"50.0826,8.2493","50.0826,8.2493","","Clear"
"50.0826,8.2493","11/05/2021 12:00:00",9.0,9.0,9.0,2.7,64.31,,8.0,,278.0,7.9,0.0,,,10.0,0.0,1023.6,"",50.0826,8.2493,"50.0826,8.2493","50.0826,8.2493","","Clear"
"50.0826,8.2493","11/05/2021 13:00:00",9.6,9.6,9.6,2.3,60.54,,7.8,,288.0,8.6,0.0,,,10.8,0.0,1023.9,"",50.0826,8.2493,"50.0826,8.2493","50.0826,8.2493","","Clear"
"50.0826,8.2493","11/05/2021 14:00:00",9.9,9.9,9.9,2.2,58.75,,7.6,,312.0,9.0,0.0,,,11.1,0.0,1024.2,"",50.0826,8.2493,"50.0826,8.2493","50.0826,8.2493","","Clear"
"50.0826,8.2493","11/05/2021 15:00:00",9.4,9.4,9.4,2.7,62.61,,7.5,,314.0,8.5,0.0,,,11.8,0.0,1025.0,"",50.0826,8.2493,"50.0826,8.2493","50.0826,8.2493","","Clear"
"50.0826,8.2493","11/05/2021 16:00:00",9.2,9.2,9.2,2.9,64.53,,7.9,,339.0,8.1,0.0,,,12.6,0.0,1025.7,"",50.0826,8.2493,"50.0826,8.2493","50.0826,8.2493","","Clear"
"50.0826,8.2493","11/05/2021 17:00:00",7.9,7.9,7.9,2.8,70.31,,5.9,,326.0,7.0,0.0,,,13.2,50.0,1026.1,"",50.0826,8.2493,"50.0826,8.2493","50.0826,8.2493","","Partially cloudy"
"50.0826,8.2493","11/05/2021 18:00:00",6.8,6.8,6.8,2.8,75.48,,6.1,,350.0,5.8,0.0,,,12.6,0.0,1026.8,"",50.0826,8.2493,"50.0826,8.2493","50.0826,8.2493","","Clear"
"50.0826,8.2493","11/05/2021 19:00:00",6.4,6.4,6.4,3.0,78.84,,1.6,,300.0,,0.0,,,11.8,0.0,1027.5,"",50.0826,8.2493,"50.0826,8.2493","50.0826,8.2493","","Clear"
"50.0826,8.2493","11/05/2021 20:00:00",6.0,6.0,6.0,3.0,80.7,,5.3,,340.0,5.1,0.0,,,11.8,0.0,1027.8,"",50.0826,8.2493,"50.0826,8.2493","50.0826,8.2493","","Clear"
"50.0826,8.2493","11/05/2021 21:00:00",5.2,5.2,5.2,2.3,81.66,,5.3,,322.0,4.2,0.0,,,10.9,30.0,1028.5,"",50.0826,8.2493,"50.0826,8.2493","50.0826,8.2493","","Partially cloudy"
"50.0826,8.2493","11/05/2021 22:00:00",6.2,6.2,6.2,3.2,80.93,,7.5,,306.0,4.7,0.0,,,10.5,0.0,1028.7,"",50.0826,8.2493,"50.0826,8.2493","50.0826,8.2493","","Clear"
"50.0826,8.2493","11/05/2021 23:00:00",6.4,6.4,6.4,3.3,80.19,,10.5,,291.0,4.3,0.0,,,10.0,0.0,1029.0,"Light Rain",50.0826,8.2493,"50.0826,8.2493","50.0826,8.2493","","Clear"
"50.0826,8.2493","11/06/2021 00:00:00",6.3,6.3,6.3,3.5,82.35,,5.8,,266.0,5.3,0.0,,,10.0,0.0,1029.3,"",50.0826,8.2493,"50.0826,8.2493","50.0826,8.2493","","Clear"
"50.0826,8.2493","11/06/2021 01:00:00",6.2,6.2,6.2,3.6,83.24,,1.2,,269.0,,0.0,,,9.7,0.0,1029.7,"",50.0826,8.2493,"50.0826,8.2493","50.0826,8.2493","","Clear"
"50.0826,8.2493","11/06/2021 02:00:00",6.0,6.0,6.0,3.6,84.54,,1.2,,269.0,,0.0,,,10.3,0.0,1029.7,"",50.0826,8.2493,"50.0826,8.2493","50.0826,8.2493","","Clear"
"50.0826,8.2493","11/06/2021 03:00:00",6.1,6.1,6.1,3.7,84.48,,1.3,,279.0,,0.0,,,9.5,0.0,1030.1,"",50.0826,8.2493,"50.0826,8.2493","50.0826,8.2493","","Clear"
"50.0826,8.2493","11/06/2021 04:00:00",5.2,5.2,5.2,2.7,83.83,,1.3,,269.0,,0.0,,,9.4,30.0,1029.7,"",50.0826,8.2493,"50.0826,8.2493","50.0826,8.2493","","Partially cloudy"
"50.0826,8.2493","11/06/2021 05:00:00",4.3,4.3,4.3,2.0,84.88,,1.5,,279.0,,0.0,,,8.8,50.0,1030.1,"",50.0826,8.2493,"50.0826,8.2493","50.0826,8.2493","","Partially cloudy"
"50.0826,8.2493","11/06/2021 06:00:00",3.0,3.0,3.0,0.9,85.78,,1.5,,254.0,,0.0,,,5.3,28.4,1030.2,"Smoke Or Haze",50.0826,8.2493,"50.0826,8.2493","50.0826,8.2493","","Partially cloudy"
"50.0826,8.2493","11/06/2021 07:00:00",2.8,2.8,2.8,0.8,86.36,,1.2,,253.0,,0.0,,,8.4,0.0,1030.6,"",50.0826,8.2493,"50.0826,8.2493","50.0826,8.2493","","Clear"
"50.0826,8.2493","11/06/2021 08:00:00",2.5,2.5,2.5,0.7,87.64,,1.3,,259.0,,0.0,,,0.0,0.0,1031.3,"Smoke Or Haze",50.0826,8.2493,"50.0826,8.2493","50.0826,8.2493","","Clear"
"50.0826,8.2493","11/06/2021 09:00:00",3.6,3.6,3.6,1.2,84.01,,5.6,,291.0,2.3,0.0,,,0.8,0.0,1031.6,"Smoke Or Haze",50.0826,8.2493,"50.0826,8.2493","50.0826,8.2493","","Clear"
"50.0826,8.2493","11/06/2021 10:00:00",5.5,5.5,5.5,2.2,79.29,,1.1,,249.0,,0.0,,,0.0,0.0,1031.6,"Smoke Or Haze",50.0826,8.2493,"50.0826,8.2493","50.0826,8.2493","","Clear"
"50.0826,8.2493","11/06/2021 11:00:00",6.9,6.9,6.9,4.0,82.12,,1.4,,220.0,,0.0,,,9.0,0.0,1031.8,"",50.0826,8.2493,"50.0826,8.2493","50.0826,8.2493","","Clear"
"50.0826,8.2493","11/06/2021 12:00:00",7.5,7.5,7.5,4.8,82.71,,1.9,,215.0,,0.0,,,8.6,0.0,1031.2,"",50.0826,8.2493,"50.0826,8.2493","50.0826,8.2493","","Clear"
"50.0826,8.2493","11/06/2021 13:00:00",7.8,7.8,7.8,5.0,82.79,,12.6,,161.0,5.5,0.0,,,11.2,0.0,1030.5,"",50.0826,8.2493,"50.0826,8.2493","50.0826,8.2493","","Clear"
"50.0826,8.2493","11/06/2021 14:00:00",7.3,7.3,7.3,5.1,85.87,,9.7,,178.0,5.5,0.0,,,5.3,0.0,1029.8,"Smoke Or Haze",50.0826,8.2493,"50.0826,8.2493","50.0826,8.2493","","Clear"
"50.0826,8.2493","11/06/2021 15:00:00",7.1,7.1,7.1,5.0,86.44,,9.7,,179.0,5.2,0.0,,,3.8,0.0,1029.1,"Smoke Or Haze",50.0826,8.2493,"50.0826,8.2493","50.0826,8.2493","","Clear"
"50.0826,8.2493","11/06/2021 16:00:00",6.7,6.7,6.7,4.9,88.28,,8.5,,171.0,5.0,0.0,,,4.3,0.0,1028.5,"Smoke Or Haze",50.0826,8.2493,"50.0826,8.2493","50.0826,8.2493","","Clear"
"50.0826,8.2493","11/06/2021 17:00:00",6.1,6.1,6.1,4.3,88.04,,6.6,,163.0,4.9,0.0,,,3.1,0.0,1027.9,"Smoke Or Haze",50.0826,8.2493,"50.0826,8.2493","50.0826,8.2493","","Clear"
"50.0826,8.2493","11/06/2021 18:00:00",5.4,5.4,5.4,3.5,87.73,,6.8,,131.0,3.9,0.0,,,2.1,30.0,1028.0,"Smoke Or Haze",50.0826,8.2493,"50.0826,8.2493","50.0826,8.2493","","Partially cloudy"
"50.0826,8.2493","11/06/2021 19:00:00",5.2,5.2,5.2,3.2,86.97,,2.3,,220.0,,0.0,,,5.4,0.0,1028.0,"Smoke Or Haze",50.0826,8.2493,"50.0826,8.2493","50.0826,8.2493","","Clear"
"50.0826,8.2493","11/06/2021 20:00:00",4.7,4.7,4.7,2.6,86.48,,9.1,,136.0,2.5,0.0,,,0.3,0.0,1027.3,"Light Rain",50.0826,8.2493,"50.0826,8.2493","50.0826,8.2493","","Clear"
"50.0826,8.2493","11/06/2021 21:00:00",4.4,4.4,4.4,2.6,87.81,,2.5,,215.0,,0.0,,,0.3,0.0,1026.9,"Smoke Or Haze",50.0826,8.2493,"50.0826,8.2493","50.0826,8.2493","","Clear"
"50.0826,8.2493","11/06/2021 22:00:00",4.2,4.2,4.2,2.3,87.77,,7.3,,163.0,2.3,0.0,,,3.3,30.0,1026.9,"Smoke Or Haze",50.0826,8.2493,"50.0826,8.2493","50.0826,8.2493","","Partially cloudy"
"50.0826,8.2493","11/06/2021 23:00:00",4.2,4.2,4.2,2.5,88.37,,6.9,,188.0,2.5,0.0,,,9.0,0.0,1026.2,"Smoke Or Haze",50.0826,8.2493,"50.0826,8.2493","50.0826,8.2493","","Clear"
"50.0826,8.2493","11/07/2021 00:00:00",4.2,4.2,4.2,2.2,86.96,,2.8,,225.0,,0.0,,,10.1,0.0,1025.5,"Smoke Or Haze",50.0826,8.2493,"50.0826,8.2493","50.0826,8.2493","","Clear"
"50.0826,8.2493","11/07/2021 01:00:00",4.1,4.1,4.1,2.2,87.19,,2.7,,240.0,,0.0,,,7.8,0.0,1025.1,"Smoke Or Haze",50.0826,8.2493,"50.0826,8.2493","50.0826,8.2493","","Clear"
"50.0826,8.2493","11/07/2021 02:00:00",4.1,4.1,4.1,1.9,85.56,,9.1,,189.0,1.8,0.0,,,5.7,0.0,1024.1,"Smoke Or Haze",50.0826,8.2493,"50.0826,8.2493","50.0826,8.2493","","Clear"
"50.0826,8.2493","11/07/2021 03:00:00",4.0,4.0,4.0,2.1,87.09,,10.7,,197.0,1.3,0.0,,,8.3,0.0,1023.8,"Smoke Or Haze",50.0826,8.2493,"50.0826,8.2493","50.0826,8.2493","","Clear"
"50.0826,8.2493","11/07/2021 04:00:00",3.8,3.8,3.8,2.1,88.51,,12.7,,213.0,0.7,0.0,,,9.2,0.0,1022.8,"",50.0826,8.2493,"50.0826,8.2493","50.0826,8.2493","","Clear"
"50.0826,8.2493","11/07/2021 05:00:00",4.1,4.1,4.1,2.6,89.67,,9.4,,203.0,1.7,0.0,,,9.2,0.0,1022.1,"",50.0826,8.2493,"50.0826,8.2493","50.0826,8.2493","","Clear"
"50.0826,8.2493","11/07/2021 06:00:00",4.3,4.3,4.3,2.5,88.15,,9.9,,211.0,1.9,0.0,,,9.0,0.0,1021.1,"",50.0826,8.2493,"50.0826,8.2493","50.0826,8.2493","","Clear"
"50.0826,8.2493","11/07/2021 07:00:00",4.8,4.8,4.8,2.9,87.55,,13.3,,228.0,1.8,0.09,,,9.4,0.0,1020.4,"",50.0826,8.2493,"50.0826,8.2493","50.0826,8.2493","","Rain"
"50.0826,8.2493","11/07/2021 08:00:00",5.2,5.2,5.2,2.4,82.44,,14.7,,246.0,2.0,0.0,,,9.4,0.0,1020.1,"",50.0826,8.2493,"50.0826,8.2493","50.0826,8.2493","","Clear"
"50.0826,8.2493","11/07/2021 09:00:00",5.4,5.4,5.4,2.5,81.8,,17.7,,239.0,1.9,0.0,,,8.8,0.0,1019.7,"",50.0826,8.2493,"50.0826,8.2493","50.0826,8.2493","","Clear"
"50.0826,8.2493","11/07/2021 10:00:00",5.9,5.9,5.9,2.7,79.88,,17.3,,247.0,2.6,0.13,,,8.9,0.0,1019.7,"",50.0826,8.2493,"50.0826,8.2493","50.0826,8.2493","","Rain"
"50.0826,8.2493","11/07/2021 11:00:00",6.4,6.4,6.4,2.6,76.51,,20.0,,245.0,2.9,0.0,,,9.9,0.0,1019.3,"",50.0826,8.2493,"50.0826,8.2493","50.0826,8.2493","","Clear"
"50.0826,8.2493","11/07/2021 12:00:00",6.8,6.8,6.8,2.7,75.13,,20.9,,263.0,3.3,0.0,,,10.5,0.0,1019.7,"",50.0826,8.2493,"50.0826,8.2493","50.0826,8.2493","","Clear"
"50.0826,8.2493","11/07/2021 13:00:00",7.1,7.1,7.1,3.0,75.05,,17.0,,249.0,4.1,0.1,,,10.9,0.0,1019.0,"",50.0826,8.2493,"50.0826,8.2493","50.0826,8.2493","","Rain"
"50.0826,8.2493","11/07/2021 14:00:00",7.5,7.5,7.5,3.4,75.2,,21.3,,258.0,4.1,0.18,,,12.2,0.0,1018.3,"",50.0826,8.2493,"50.0826,8.2493","50.0826,8.2493","","Rain"
"50.0826,8.2493","11/07/2021 15:00:00",7.7,7.7,7.7,3.7,75.56,,16.7,,250.0,4.9,0.0,,,12.6,0.0,1018.0,"",50.0826,8.2493,"50.0826,8.2493","50.0826,8.2493","","Clear"
"50.0826,8.2493","11/07/2021 16:00:00",7.9,7.9,7.9,3.7,75.19,,14.9,,250.0,5.3,0.0,,,12.6,0.0,1018.0,"",50.0826,8.2493,"50.0826,8.2493","50.0826,8.2493","","Clear"
"50.0826,8.2493","11/07/2021 17:00:00",7.2,7.2,7.2,3.4,77.17,,14.8,,241.0,4.5,0.0,,,12.6,50.0,1018.3,"",50.0826,8.2493,"50.0826,8.2493","50.0826,8.2493","","Partially cloudy"
"50.0826,8.2493","11/07/2021 18:00:00",6.2,6.2,6.2,2.9,79.23,,9.8,,258.0,4.1,0.0,,,13.1,50.0,1018.7,"",50.0826,8.2493,"50.0826,8.2493","50.0826,8.2493","","Partially cloudy"
"50.0826,8.2493","11/07/2021 19:00:00",6.1,6.1,6.1,2.9,79.79,,2.1,,254.0,,0.0,,,14.3,0.0,1019.0,"",50.0826,8.2493,"50.0826,8.2493","50.0826,8.2493","","Clear"
"50.0826,8.2493","11/07/2021 20:00:00",5.3,5.3,5.3,2.2,80.54,,14.6,,245.0,2.2,0.0,,,13.5,0.0,1019.4,"",50.0826,8.2493,"50.0826,8.2493","50.0826,8.2493","","Clear"
"50.0826,8.2493","11/07/2021 21:00:00",4.7,4.7,4.7,1.7,80.95,,2.3,,249.0,,0.0,,,12.9,1.2,1019.7,"",50.0826,8.2493,"50.0826,8.2493","50.0826,8.2493","","Clear"
"50.0826,8.2493","11/07/2021 22:00:00",4.6,4.6,4.6,1.5,80.17,,8.8,,279.0,2.5,0.0,,,11.8,0.0,1020.3,"",50.0826,8.2493,"50.0826,8.2493","50.0826,8.2493","","Clear"
"50.0826,8.2493","11/07/2021 23:00:00",5.4,5.4,5.4,1.7,77.18,,10.1,,290.0,3.1,0.07,,,11.8,0.0,1020.7,"",50.0826,8.2493,"50.0826,8.2493","50.0826,8.2493","","Rain"
"50.0826,8.2493","11/08/2021 00:00:00",5.1,5.1,5.1,1.4,77.01,,9.9,,308.0,2.8,0.09,,,11.3,0.0,1021.0,"",50.0826,8.2493,"50.0826,8.2493","50.0826,8.2493","","Rain"
"50.0826,8.2493","11/08/2021 01:00:00",4.0,4.0,4.0,0.4,77.24,,8.3,,58.0,1.9,0.0,,,11.3,0.0,1021.0,"",50.0826,8.2493,"50.0826,8.2493","50.0826,8.2493","","Clear"
"50.0826,8.2493","11/08/2021 02:00:00",3.6,3.6,3.6,0.5,80.14,,6.0,,64.0,2.1,0.0,,,10.9,50.0,1021.4,"",50.0826,8.2493,"50.0826,8.2493","50.0826,8.2493","","Partially cloudy"
"50.0826,8.2493","11/08/2021 03:00:00",3.5,3.5,3.5,0.6,81.2,,1.5,,269.0,,0.0,,,10.9,0.0,1021.7,"",50.0826,8.2493,"50.0826,8.2493","50.0826,8.2493","","Clear"
"50.0826,8.2493","11/08/2021 04:00:00",3.6,3.6,3.6,0.9,82.15,,1.6,,269.0,,0.0,,,10.9,0.0,1022.0,"",50.0826,8.2493,"50.0826,8.2493","50.0826,8.2493","","Clear"
"50.0826,8.2493","11/08/2021 05:00:00",3.8,3.8,3.8,1.0,82.07,,1.3,,274.0,,0.0,,,10.9,0.0,1022.4,"",50.0826,8.2493,"50.0826,8.2493","50.0826,8.2493","","Clear"
"50.0826,8.2493","11/08/2021 06:00:00",4.1,4.1,4.1,1.4,82.37,,6.1,,321.0,2.7,0.0,,,9.9,0.0,1022.8,"",50.0826,8.2493,"50.0826,8.2493","50.0826,8.2493","","Clear"
"50.0826,8.2493","11/08/2021 07:00:00",4.3,4.3,4.3,1.5,81.79,,5.9,,185.0,3.0,0.0,,,9.9,0.0,1022.7,"",50.0826,8.2493,"50.0826,8.2493","50.0826,8.2493","","Clear"
"50.0826,8.2493","11/08/2021 08:00:00",4.4,4.4,4.4,1.8,83.19,,1.1,,249.0,,0.0,,,9.9,0.0,1023.5,"",50.0826,8.2493,"50.0826,8.2493","50.0826,8.2493","","Clear"
"50.0826,8.2493","11/08/2021 09:00:00",5.4,5.4,5.4,2.5,81.93,,5.8,,276.0,4.2,0.0,,,10.5,0.0,1024.2,"",50.0826,8.2493,"50.0826,8.2493","50.0826,8.2493","","Clear"
"50.0826,8.2493","11/08/2021 10:00:00",5.9,5.9,5.9,2.5,78.5,,5.9,,270.0,4.9,0.01,,,10.5,50.0,1024.2,"",50.0826,8.2493,"50.0826,8.2493","50.0826,8.2493","","Rain, Partially cloudy"
"50.0826,8.2493","11/08/2021 11:00:00",7.2,7.2,7.2,3.0,74.52,,1.0,,259.0,,0.0,,,11.2,0.0,1024.4,"",50.0826,8.2493,"50.0826,8.2493","50.0826,8.2493","","Clear"
"50.0826,8.2493","11/08/2021 12:00:00",8.7,8.7,8.7,3.1,68.19,,0.9,,254.0,,0.0,,,11.5,50.0,1024.4,"",50.0826,8.2493,"50.0826,8.2493","50.0826,8.2493","","Partially cloudy"
"50.0826,8.2493","11/08/2021 13:00:00",8.8,8.8,8.8,2.7,65.59,,1.4,,274.0,,0.0,,,11.2,0.0,1024.0,"",50.0826,8.2493,"50.0826,8.2493","50.0826,8.2493","","Clear"
"50.0826,8.2493","11/08/2021 14:00:00",9.2,9.2,9.2,2.7,63.75,,0.8,,228.0,,0.0,,,12.9,0.0,1024.0,"",50.0826,8.2493,"50.0826,8.2493","50.0826,8.2493","","Clear"
"50.0826,8.2493","11/08/2021 15:00:00",9.1,9.1,9.1,2.9,65.16,,5.6,,191.0,8.5,0.0,,,12.7,0.0,1024.0,"",50.0826,8.2493,"50.0826,8.2493","50.0826,8.2493","","Clear"
"50.0826,8.2493","11/08/2021 16:00:00",8.6,8.6,8.6,3.3,69.18,,5.6,,196.0,8.0,0.0,,,12.8,30.0,1024.1,"",50.0826,8.2493,"50.0826,8.2493","50.0826,8.2493","","Partially cloudy"
"50.0826,8.2493","11/08/2021 17:00:00",8.0,8.0,8.0,3.2,72.03,,1.0,,264.0,,0.0,,,13.4,0.0,1024.4,"",50.0826,8.2493,"50.0826,8.2493","50.0826,8.2493","","Clear"
"50.0826,8.2493","11/08/2021 18:00:00",7.6,7.6,7.6,3.1,72.79,,0.7,,189.0,,0.0,,,11.6,0.0,1024.7,"",50.0826,8.2493,"50.0826,8.2493","50.0826,8.2493","","Clear"
"50.0826,8.2493","11/08/2021 19:00:00",7.4,7.4,7.4,3.0,73.72,,0.5,,204.0,,0.0,,,11.1,0.0,1025.4,"",50.0826,8.2493,"50.0826,8.2493","50.0826,8.2493","","Clear"
"50.0826,8.2493","11/08/2021 20:00:00",7.1,7.1,7.1,3.0,75.46,,0.7,,209.0,,0.0,,,13.2,0.0,1026.1,"",50.0826,8.2493,"50.0826,8.2493","50.0826,8.2493","","Clear"
"50.0826,8.2493","11/08/2021 21:00:00",6.7,6.7,6.7,2.9,76.63,,0.7,,184.0,,0.0,,,11.2,0.0,1026.1,"",50.0826,8.2493,"50.0826,8.2493","50.0826,8.2493","","Clear"
"50.0826,8.2493","11/08/2021 22:00:00",7.0,7.0,7.0,3.1,76.15,,0.5,,352.0,,0.0,,,12.5,0.0,1026.4,"",50.0826,8.2493,"50.0826,8.2493","50.0826,8.2493","","Clear"
"50.0826,8.2493","11/08/2021 23:00:00",6.6,6.6,6.6,3.2,78.65,,0.4,,208.0,,0.0,,,12.7,0.0,1026.4,"",50.0826,8.2493,"50.0826,8.2493","50.0826,8.2493","","Clear"
"50.0826,8.2493","11/09/2021 00:00:00",6.7,6.7,6.7,3.2,78.26,,0.6,,67.0,,0.0,,,12.6,0.0,1026.3,"",50.0826,8.2493,"50.0826,8.2493","50.0826,8.2493","","Clear"
"50.0826,8.2493","11/09/2021 01:00:00",6.4,6.4,6.4,2.8,78.14,,0.9,,76.0,,0.0,,,13.8,0.0,1026.7,"",50.0826,8.2493,"50.0826,8.2493","50.0826,8.2493","","Clear"
"50.0826,8.2493","11/09/2021 02:00:00",6.3,6.3,6.3,3.0,79.14,,1.3,,40.0,,0.0,,,10.9,0.0,1026.6,"",50.0826,8.2493,"50.0826,8.2493","50.0826,8.2493","","Clear"
"50.0826,8.2493","11/09/2021 03:00:00",5.2,5.2,5.2,1.9,79.23,,5.5,,53.0,4.2,0.0,,,10.6,0.0,1026.7,"",50.0826,8.2493,"50.0826,8.2493","50.0826,8.2493","","Clear"
"50.0826,8.2493","11/09/2021 04:00:00",4.0,4.0,4.0,1.1,81.44,,1.6,,80.0,,0.0,,,12.7,0.0,1027.1,"",50.0826,8.2493,"50.0826,8.2493","50.0826,8.2493","","Clear"
"50.0826,8.2493","11/09/2021 05:00:00",2.7,2.7,2.7,0.0,82.38,,1.2,,84.0,,0.0,,,11.8,0.0,1027.6,"",50.0826,8.2493,"50.0826,8.2493","50.0826,8.2493","","Clear"
"50.0826,8.2493","11/09/2021 06:00:00",2.5,2.5,2.5,-0.1,83.12,,1.4,,79.0,,0.0,,,11.2,0.0,1027.5,"",50.0826,8.2493,"50.0826,8.2493","50.0826,8.2493","","Clear"
"50.0826,8.2493","11/09/2021 07:00:00",2.1,2.1,2.1,-0.5,83.35,,1.4,,94.0,,0.0,,,11.4,0.0,1027.9,"",50.0826,8.2493,"50.0826,8.2493","50.0826,8.2493","","Clear"
"50.0826,8.2493","11/09/2021 08:00:00",2.6,2.6,2.6,0.0,83.37,,1.6,,89.0,,0.0,,,12.2,0.0,1028.6,"",50.0826,8.2493,"50.0826,8.2493","50.0826,8.2493","","Clear"
"50.0826,8.2493","11/09/2021 09:00:00",4.4,4.4,4.4,1.4,81.0,,1.8,,89.0,,0.0,,,12.4,0.0,1029.2,"",50.0826,8.2493,"50.0826,8.2493","50.0826,8.2493","","Clear"
"50.0826,8.2493","11/09/2021 10:00:00",7.1,7.1,7.1,2.2,70.94,,8.3,,98.0,5.6,0.0,,,13.5,0.0,1029.1,"",50.0826,8.2493,"50.0826,8.2493","50.0826,8.2493","","Clear"
"50.0826,8.2493","11/09/2021 11:00:00",8.4,8.4,8.4,2.1,64.5,,11.3,,83.0,6.5,0.0,,,14.1,0.0,1029.4,"",50.0826,8.2493,"50.0826,8.2493","50.0826,8.2493","","Clear"
"50.0826,8.2493","11/09/2021 12:00:00",9.4,9.4,9.4,1.6,58.41,,11.4,,97.0,7.6,0.0,,,15.8,1.2,1029.0,"",50.0826,8.2493,"50.0826,8.2493","50.0826,8.2493","","Clear"
"50.0826,8.2493","11/09/2021 13:00:00",10.2,10.2,10.2,0.3,50.31,,8.8,,87.0,,0.0,,,13.7,0.0,1028.7,"",50.0826,8.2493,"50.0826,8.2493","50.0826,8.2493","","Clear"
"50.0826,8.2493","11/09/2021 14:00:00",10.1,10.1,10.1,-1.0,46.18,,18.0,,75.0,,0.0,,,13.7,0.0,1027.6,"",50.0826,8.2493,"50.0826,8.2493","50.0826,8.2493","","Clear"
"50.0826,8.2493","11/09/2021 15:00:00",9.8,9.8,9.8,-1.2,46.08,,13.1,,101.0,8.0,0.0,,,10.0,0.0,1027.7,"",50.0826,8.2493,"50.0826,8.2493","50.0826,8.2493","","Clear"
"50.0826,8.2493","11/09/2021 16:00:00",9.0,9.0,9.0,0.6,55.66,,9.3,,93.0,7.6,0.0,,,12.0,0.0,1027.8,"",50.0826,8.2493,"50.0826,8.2493","50.0826,8.2493","","Clear"
"50.0826,8.2493","11/09/2021 17:00:00",6.9,6.9,6.9,0.7,64.61,,12.2,,92.0,4.5,0.0,,,13.3,0.0,1027.6,"",50.0826,8.2493,"50.0826,8.2493","50.0826,8.2493","","Clear"
"50.0826,8.2493","11/09/2021 18:00:00",6.1,6.1,6.1,0.1,65.34,,12.1,,65.0,3.6,0.0,,,16.3,1.2,1027.2,"",50.0826,8.2493,"50.0826,8.2493","50.0826,8.2493","","Clear"
"50.0826,8.2493","11/09/2021 19:00:00",5.6,5.6,5.6,-0.1,66.69,,2.6,,79.0,,0.0,,,15.9,0.0,1027.3,"",50.0826,8.2493,"50.0826,8.2493","50.0826,8.2493","","Clear"
"50.0826,8.2493","11/09/2021 20:00:00",4.9,4.9,4.9,0.1,71.22,,7.0,,40.0,3.3,0.0,,,15.9,0.0,1027.6,"",50.0826,8.2493,"50.0826,8.2493","50.0826,8.2493","","Clear"
"50.0826,8.2493","11/09/2021 21:00:00",4.7,4.7,4.7,0.2,72.37,,7.0,,42.0,3.1,0.0,,,15.3,1.1,1027.6,"",50.0826,8.2493,"50.0826,8.2493","50.0826,8.2493","","Clear"
"50.0826,8.2493","11/09/2021 22:00:00",4.5,4.5,4.5,0.3,74.26,,8.5,,51.0,2.4,0.0,,,15.5,0.0,1027.2,"",50.0826,8.2493,"50.0826,8.2493","50.0826,8.2493","","Clear"
"50.0826,8.2493","11/09/2021 23:00:00",4.5,4.5,4.5,0.4,74.51,,11.8,,67.0,1.7,0.0,,,12.8,1.2,1027.1,"",50.0826,8.2493,"50.0826,8.2493","50.0826,8.2493","","Clear"
"50.0826,8.2493","11/10/2021 00:00:00",4.0,4.0,4.0,-0.2,73.98,,7.1,,41.0,2.3,0.0,,,15.3,0.0,1027.1,"",50.0826,8.2493,"50.0826,8.2493","50.0826,8.2493","","Clear"
"50.0826,8.2493","11/10/2021 01:00:00",3.9,3.9,3.9,0.0,76.12,,9.1,,67.0,1.5,0.0,,,15.2,0.0,1026.7,"",50.0826,8.2493,"50.0826,8.2493","50.0826,8.2493","","Clear"
"50.0826,8.2493","11/10/2021 02:00:00",2.6,2.6,2.6,-0.7,78.74,,2.8,,94.0,,0.0,,,11.9,0.0,1026.5,"",50.0826,8.2493,"50.0826,8.2493","50.0826,8.2493","","Clear"
"50.0826,8.2493","11/10/2021 03:00:00",1.9,1.9,1.9,-1.0,80.82,,2.8,,89.0,,0.0,,,14.6,0.0,1026.5,"",50.0826,8.2493,"50.0826,8.2493","50.0826,8.2493","","Clear"
"50.0826,8.2493","11/10/2021 04:00:00",1.3,1.3,1.3,-1.5,81.86,,2.5,,99.0,,0.0,,,14.3,1.2,1026.2,"",50.0826,8.2493,"50.0826,8.2493","50.0826,8.2493","","Clear"
"50.0826,8.2493","11/10/2021 05:00:00",1.5,1.5,1.5,-1.3,81.46,,2.4,,89.0,,0.0,,,13.9,0.0,1025.6,"",50.0826,8.2493,"50.0826,8.2493","50.0826,8.2493","","Clear"
"50.0826,8.2493","11/10/2021 06:00:00",1.0,1.0,1.0,-1.4,83.8,,2.2,,84.0,,0.0,,,13.7,0.0,1025.3,"",50.0826,8.2493,"50.0826,8.2493","50.0826,8.2493","","Clear"
"50.0826,8.2493","11/10/2021 07:00:00",0.6,0.6,0.6,-1.9,83.39,,1.6,,100.0,,0.0,,,12.6,0.0,1025.9,"",50.0826,8.2493,"50.0826,8.2493","50.0826,8.2493","","Clear"
"50.0826,8.2493","11/10/2021 08:00:00",1.0,1.0,1.0,-1.6,82.63,,1.6,,79.0,,0.0,,,11.9,0.0,1025.9,"",50.0826,8.2493,"50.0826,8.2493","50.0826,8.2493","","Clear"
"50.0826,8.2493","11/10/2021 09:00:00",2.1,2.1,2.1,-0.8,81.43,,6.4,,273.0,0.2,0.0,,,13.2,0.0,1026.3,"",50.0826,8.2493,"50.0826,8.2493","50.0826,8.2493","","Clear"
"50.0826,8.2493","11/10/2021 10:00:00",4.3,4.3,4.3,0.7,77.32,,5.9,,199.0,2.9,0.0,,,13.2,0.0,1026.2,"",50.0826,8.2493,"50.0826,8.2493","50.0826,8.2493","","Clear"
"50.0826,8.2493","11/10/2021 11:00:00",6.0,6.0,6.0,0.7,68.8,,9.1,,91.0,4.0,0.0,,,14.0,0.0,1026.5,"",50.0826,8.2493,"50.0826,8.2493","50.0826,8.2493","","Clear"
"50.0826,8.2493","11/10/2021 12:00:00",6.4,6.4,6.4,0.7,67.02,,5.7,,124.0,5.4,0.0,,,13.8,0.0,1026.1,"",50.0826,8.2493,"50.0826,8.2493","50.0826,8.2493","","Clear"
"50.0826,8.2493","11/10/2021 13:00:00",6.3,6.3,6.3,0.9,68.62,,5.4,,166.0,5.4,0.0,,,13.4,30.0,1025.9,"",50.0826,8.2493,"50.0826,8.2493","50.0826,8.2493","","Partially cloudy"
"50.0826,8.2493","11/10/2021 14:00:00",6.5,6.5,6.5,1.1,68.35,,1.1,,258.0,,0.0,,,12.9,0.0,1025.2,"",50.0826,8.2493,"50.0826,8.2493","50.0826,8.2493","","Clear"
"50.0826,8.2493","11/10/2021 15:00:00",6.6,6.6,6.6,1.1,67.92,,0.9,,214.0,,0.0,,,13.0,0.0,1025.6,"",50.0826,8.2493,"50.0826,8.2493","50.0826,8.2493","","Clear"
"50.0826,8.2493","11/10/2021 16:00:00",6.1,6.1,6.1,1.1,69.94,,0.8,,161.0,,0.0,,,12.2,0.0,1025.2,"",50.0826,8.2493,"50.0826,8.2493","50.0826,8.2493","","Clear"
"50.0826,8.2493","11/10/2021 17:00:00",4.7,4.7,4.7,0.8,75.79,,0.9,,274.0,,0.0,,,13.6,0.0,1025.3,"",50.0826,8.2493,"50.0826,8.2493","50.0826,8.2493","","Clear"
"50.0826,8.2493","11/10/2021 18:00:00",3.6,3.6,3.6,0.2,78.3,,1.1,,225.0,,0.0,,,11.9,0.0,1025.7,"",50.0826,8.2493,"50.0826,8.2493","50.0826,8.2493","","Clear"
"50.0826,8.2493","11/10/2021 19:00:00",2.7,2.7,2.7,-0.2,81.25,,0.6,,274.0,,0.0,,,11.7,0.0,1026.1,"",50.0826,8.2493,"50.0826,8.2493","50.0826,8.2493","","Clear"
"50.0826,8.2493","11/10/2021 20:00:00",2.7,2.7,2.7,-0.2,81.14,,5.1,,44.0,1.4,0.0,,,12.1,0.0,1025.6,"",50.0826,8.2493,"50.0826,8.2493","50.0826,8.2493","","Clear"
"50.0826,8.2493","11/10/2021 21:00:00",1.7,1.7,1.7,-1.0,82.64,,1.2,,89.0,,0.0,,,12.3,1.2,1025.7,"",50.0826,8.2493,"50.0826,8.2493","50.0826,8.2493","","Clear"
"50.0826,8.2493","11/10/2021 22:00:00",1.1,1.1,1.1,-1.4,83.38,,0.9,,114.0,,0.0,,,10.7,0.0,1026.1,"Smoke Or Haze",50.0826,8.2493,"50.0826,8.2493","50.0826,8.2493","","Clear"
"50.0826,8.2493","11/10/2021 23:00:00",1.0,1.0,1.0,-1.5,83.55,,0.5,,98.0,,0.0,,,12.2,0.0,1025.6,"",50.0826,8.2493,"50.0826,8.2493","50.0826,8.2493","","Clear"
"50.0826,8.2493","11/11/2021 00:00:00",0.5,0.5,0.5,-1.9,83.77,,1.2,,69.0,,0.0,,,12.9,0.0,1025.3,"",50.0826,8.2493,"50.0826,8.2493","50.0826,8.2493","","Clear"
"50.0826,8.2493","11/11/2021 01:00:00",0.1,0.1,0.1,-2.1,85.16,,0.9,,134.0,,0.0,,,12.0,0.0,1025.0,"Mist",50.0826,8.2493,"50.0826,8.2493","50.0826,8.2493","","Clear"
"50.0826,8.2493","11/11/2021 02:00:00",0.1,0.1,0.1,-2.1,85.19,,5.5,,331.0,-1.7,0.0,,,11.5,0.0,1025.0,"Mist",50.0826,8.2493,"50.0826,8.2493","50.0826,8.2493","","Clear"
"50.0826,8.2493","11/11/2021 03:00:00",-0.1,-0.1,-0.1,-2.1,86.51,,0.8,,25.0,,0.0,,,10.7,0.0,1024.6,"Mist",50.0826,8.2493,"50.0826,8.2493","50.0826,8.2493","","Clear"
"50.0826,8.2493","11/11/2021 04:00:00",-0.4,-0.4,-0.4,-2.7,85.01,,0.4,,188.0,,0.0,,,4.0,0.0,1025.0,"Fog",50.0826,8.2493,"50.0826,8.2493","50.0826,8.2493","","Clear"
"50.0826,8.2493","11/11/2021 05:00:00",-0.7,-0.7,-0.7,-2.8,85.79,,5.3,,337.0,-2.5,0.0,,,8.1,0.0,1025.0,"Mist",50.0826,8.2493,"50.0826,8.2493","50.0826,8.2493","","Clear"
"50.0826,8.2493","11/11/2021 06:00:00",-1.0,-1.0,-1.0,-3.0,86.68,,0.5,,31.0,,0.0,,,8.2,0.0,1024.8,"Mist",50.0826,8.2493,"50.0826,8.2493","50.0826,8.2493","","Clear"
"50.0826,8.2493","11/11/2021 07:00:00",-1.1,-1.1,-1.1,-3.1,86.23,,1.1,,203.0,,0.0,,,3.7,0.0,1025.1,"Mist",50.0826,8.2493,"50.0826,8.2493","50.0826,8.2493","","Clear"
"50.0826,8.2493","11/11/2021 08:00:00",-0.8,-0.8,-0.8,-2.8,86.65,,0.8,,204.0,,0.0,,,0.0,0.0,1025.8,"Fog",50.0826,8.2493,"50.0826,8.2493","50.0826,8.2493","","Clear"
"50.0826,8.2493","11/11/2021 09:00:00",0.1,0.1,0.1,-2.5,83.2,,1.0,,331.0,,0.0,,,2.8,0.0,1026.5,"Fog",50.0826,8.2493,"50.0826,8.2493","50.0826,8.2493","","Clear"
"50.0826,8.2493","11/11/2021 10:00:00",1.7,1.7,1.7,-0.8,83.71,,0.7,,31.0,,0.0,,,3.2,0.0,1026.1,"Fog",50.0826,8.2493,"50.0826,8.2493","50.0826,8.2493","","Clear"
"50.0826,8.2493","11/11/2021 11:00:00",2.9,2.9,2.9,0.8,85.79,,5.3,,230.0,1.7,0.0,,,3.8,0.0,1026.5,"Fog",50.0826,8.2493,"50.0826,8.2493","50.0826,8.2493","","Clear"
"50.0826,8.2493","11/11/2021 12:00:00",2.8,2.8,2.8,1.5,90.8,,0.6,,6.0,,0.0,,,3.4,0.0,1026.5,"Fog",50.0826,8.2493,"50.0826,8.2493","50.0826,8.2493","","Clear"
"50.0826,8.2493","11/11/2021 13:00:00",3.3,3.3,3.3,2.5,94.84,,0.6,,67.0,,0.0,,,3.8,0.0,1025.8,"Fog",50.0826,8.2493,"50.0826,8.2493","50.0826,8.2493","","Clear"
"50.0826,8.2493","11/11/2021 14:00:00",3.6,3.6,3.6,2.7,93.99,,0.7,,87.0,,0.0,,,2.6,0.0,1025.8,"Fog",50.0826,8.2493,"50.0826,8.2493","50.0826,8.2493","","Clear"
"50.0826,8.2493","11/11/2021 15:00:00",3.1,3.1,3.1,2.6,96.41,,0.7,,268.0,,0.0,,,2.5,0.0,1025.7,"Fog",50.0826,8.2493,"50.0826,8.2493","50.0826,8.2493","","Clear"
"50.0826,8.2493","11/11/2021 16:00:00",3.0,3.0,3.0,2.7,97.93,,1.1,,278.0,,0.0,,,1.9,0.0,1025.8,"Fog",50.0826,8.2493,"50.0826,8.2493","50.0826,8.2493","","Clear"
"50.0826,8.2493","11/11/2021 17:00:00",2.5,2.5,2.5,2.0,96.34,,1.2,,137.0,,0.0,,,0.0,0.0,1025.8,"Fog",50.0826,8.2493,"50.0826,8.2493","50.0826,8.2493","","Clear"
"50.0826,8.2493","11/11/2021 18:00:00",2.3,2.3,2.3,1.8,96.64,,1.6,,142.0,,0.0,,,0.0,0.0,1026.1,"Fog",50.0826,8.2493,"50.0826,8.2493","50.0826,8.2493","","Clear"
"50.0826,8.2493","11/11/2021 19:00:00",2.1,2.1,2.1,1.6,96.6,,1.7,,147.0,,0.0,,,0.0,0.0,1026.5,"Fog",50.0826,8.2493,"50.0826,8.2493","50.0826,8.2493","","Clear"
"50.0826,8.2493","11/11/2021 20:00:00",1.8,1.8,1.8,1.4,97.15,,1.7,,121.0,,0.0,,,0.0,0.0,1026.5,"Fog",50.0826,8.2493,"50.0826,8.2493","50.0826,8.2493","","Clear"
"50.0826,8.2493","11/11/2021 21:00:00",1.5,1.5,1.5,1.1,97.37,,1.4,,100.0,,0.0,,,2.4,0.0,1026.1,"Fog",50.0826,8.2493,"50.0826,8.2493","50.0826,8.2493","","Clear"
"50.0826,8.2493","11/11/2021 22:00:00",1.1,1.1,1.1,0.8,98.07,,1.8,,70.0,,0.0,,,2.3,45.5,1025.7,"Fog",50.0826,8.2493,"50.0826,8.2493","50.0826,8.2493","","Partially cloudy"
"50.0826,8.2493","11/11/2021 23:00:00",0.5,0.5,0.5,0.3,98.66,,1.7,,70.0,,0.0,,,1.6,0.0,1025.7,"Fog",50.0826,8.2493,"50.0826,8.2493","50.0826,8.2493","","Clear"
"50.0826,8.2493","11/12/2021 00:00:00",0.3,0.3,0.3,0.1,98.93,,1.7,,131.0,,0.0,,,1.6,0.0,1025.4,"Fog",50.0826,8.2493,"50.0826,8.2493","50.0826,8.2493","","Clear"
"50.0826,8.2493","11/12/2021 01:00:00",0.4,0.4,0.4,0.3,99.09,,6.0,,12.0,-1.6,0.0,,,2.1,0.0,1024.7,"Fog",50.0826,8.2493,"50.0826,8.2493","50.0826,8.2493","","Clear"
"50.0826,8.2493","11/12/2021 02:00:00",0.4,0.4,0.4,0.1,97.42,,5.9,,358.0,-1.5,0.0,,,3.0,0.0,1024.4,"Fog",50.0826,8.2493,"50.0826,8.2493","50.0826,8.2493","","Clear"
"50.0826,8.2493","11/12/2021 03:00:00",0.5,0.5,0.5,0.3,98.68,,7.4,,2.0,-1.9,0.0,,,3.4,0.0,1024.0,"Fog",50.0826,8.2493,"50.0826,8.2493","50.0826,8.2493","","Clear"
"50.0826,8.2493","11/12/2021 04:00:00",0.7,0.7,0.7,0.3,97.3,,0.8,,104.0,,0.0,,,1.0,0.0,1023.7,"Fog",50.0826,8.2493,"50.0826,8.2493","50.0826,8.2493","","Clear"
"50.0826,8.2493","11/12/2021 05:00:00",0.9,0.9,0.9,0.7,99.0,,1.4,,120.0,,0.0,,,2.8,27.3,1023.7,"Mist",50.0826,8.2493,"50.0826,8.2493","50.0826,8.2493","","Partially cloudy"
"50.0826,8.2493","11/12/2021 06:00:00",1.1,1.1,1.1,0.7,96.91,,1.1,,124.0,,0.0,,,1.0,0.0,1023.0,"Mist",50.0826,8.2493,"50.0826,8.2493","50.0826,8.2493","","Clear"
"50.0826,8.2493","11/12/2021 07:00:00",1.2,1.2,1.2,0.9,97.89,,1.4,,104.0,,0.0,,,2.8,27.3,1022.7,"Mist",50.0826,8.2493,"50.0826,8.2493","50.0826,8.2493","","Partially cloudy"
"50.0826,8.2493","11/12/2021 08:00:00",1.2,1.2,1.2,1.0,99.0,,8.0,,149.0,-1.4,0.0,,,0.4,45.5,1022.7,"Fog",50.0826,8.2493,"50.0826,8.2493","50.0826,8.2493","","Partially cloudy"
"50.0826,8.2493","11/12/2021 09:00:00",1.3,1.3,1.3,1.2,99.15,,6.4,,165.0,-0.6,0.0,,,0.1,30.0,1022.7,"Fog",50.0826,8.2493,"50.0826,8.2493","50.0826,8.2493","","Partially cloudy"
"50.0826,8.2493","11/12/2021 10:00:00",1.6,1.6,1.6,1.3,97.48,,1.9,,124.0,,0.0,,,1.8,0.0,1022.3,"Fog",50.0826,8.2493,"50.0826,8.2493","50.0826,8.2493","","Clear"
"50.0826,8.2493","11/12/2021 11:00:00",1.8,1.8,1.8,1.5,97.58,,6.2,,187.0,0.0,0.0,,,1.8,0.0,1022.0,"Fog",50.0826,8.2493,"50.0826,8.2493","50.0826,8.2493","","Clear"
"50.0826,8.2493","11/12/2021 12:00:00",1.8,1.8,1.8,1.5,97.78,,6.1,,168.0,0.1,0.0,,,1.6,0.0,1021.3,"Fog",50.0826,8.2493,"50.0826,8.2493","50.0826,8.2493","","Clear"
"50.0826,8.2493","11/12/2021 13:00:00",1.8,1.8,1.8,1.5,98.42,,8.5,,208.0,-0.8,0.0,,,1.9,45.5,1020.6,"Fog",50.0826,8.2493,"50.0826,8.2493","50.0826,8.2493","","Partially cloudy"
"50.0826,8.2493","11/12/2021 14:00:00",1.8,1.8,1.8,1.5,97.61,,6.4,,154.0,-0.1,0.0,,,2.6,27.3,1020.3,"Fog",50.0826,8.2493,"50.0826,8.2493","50.0826,8.2493","","Partially cloudy"
"50.0826,8.2493","11/12/2021 15:00:00",1.7,1.7,1.7,1.2,96.7,,5.6,,190.0,0.1,0.0,,,1.0,0.0,1020.0,"Mist",50.0826,8.2493,"50.0826,8.2493","50.0826,8.2493","","Clear"
"50.0826,8.2493","11/12/2021 16:00:00",1.6,1.6,1.6,1.2,97.1,,7.8,,197.0,-0.7,0.0,,,2.8,0.0,1019.6,"Mist",50.0826,8.2493,"50.0826,8.2493","50.0826,8.2493","","Clear"
"50.0826,8.2493","11/12/2021 17:00:00",1.6,1.6,1.6,1.1,96.74,,6.1,,202.0,-0.2,0.0,,,1.0,0.0,1019.6,"Fog",50.0826,8.2493,"50.0826,8.2493","50.0826,8.2493","","Clear"
"50.0826,8.2493","11/12/2021 18:00:00",1.6,1.6,1.6,1.2,96.61,,1.9,,234.0,,0.0,,,1.0,0.0,1019.6,"Mist",50.0826,8.2493,"50.0826,8.2493","50.0826,8.2493","","Clear"
"50.0826,8.2493","11/12/2021 19:00:00",1.7,1.7,1.7,1.4,97.47,,8.0,,257.0,-0.7,0.0,,,5.6,0.0,1019.6,"Mist",50.0826,8.2493,"50.0826,8.2493","50.0826,8.2493","","Clear"
"50.0826,8.2493","11/12/2021 20:00:00",1.8,1.8,1.8,1.4,96.96,,11.1,,197.0,-1.3,0.0,,,4.7,30.0,1018.9,"Mist",50.0826,8.2493,"50.0826,8.2493","50.0826,8.2493","","Partially cloudy"
"50.0826,8.2493","11/12/2021 21:00:00",1.6,1.6,1.6,1.2,97.0,,9.7,,197.0,-1.3,0.0,,,7.4,0.0,1018.9,"Mist",50.0826,8.2493,"50.0826,8.2493","50.0826,8.2493","","Clear"
"50.0826,8.2493","11/12/2021 22:00:00",1.6,1.6,1.6,1.2,97.35,,9.7,,200.0,-1.3,0.0,,,5.6,27.3,1018.6,"Mist",50.0826,8.2493,"50.0826,8.2493","50.0826,8.2493","","Partially cloudy"
"50.0826,8.2493","11/12/2021 23:00:00",1.5,1.5,1.5,1.2,97.55,,8.4,,196.0,-1.1,0.0,,,5.6,45.5,1018.2,"Mist",50.0826,8.2493,"50.0826,8.2493","50.0826,8.2493","","Partially cloudy"
"50.0826,8.2493","11/13/2021 00:00:00",1.6,1.6,1.6,1.2,97.43,,8.2,,197.0,-0.9,0.0,,,4.8,0.0,1018.2,"Mist",50.0826,8.2493,"50.0826,8.2493","50.0826,8.2493","","Clear"
"50.0826,8.2493","11/13/2021 01:00:00",1.5,1.5,1.5,1.3,98.08,,9.6,,197.0,-1.4,0.0,,,5.6,30.0,1018.0,"Mist",50.0826,8.2493,"50.0826,8.2493","50.0826,8.2493","","Partially cloudy"
"50.0826,8.2493","11/13/2021 02:00:00",1.5,1.5,1.5,1.3,98.41,,11.3,,177.0,-1.8,0.0,,,3.0,0.0,1017.2,"Mist",50.0826,8.2493,"50.0826,8.2493","50.0826,8.2493","","Clear"
"50.0826,8.2493","11/13/2021 03:00:00",1.4,1.4,1.4,1.3,99.31,,9.9,,204.0,-1.6,0.0,,,4.8,30.0,1017.2,"Mist",50.0826,8.2493,"50.0826,8.2493","50.0826,8.2493","","Partially cloudy"
"50.0826,8.2493","11/13/2021 04:00:00",1.5,1.5,1.5,1.3,98.93,,11.6,,228.0,-1.9,0.0,,,4.7,0.0,1016.9,"Mist",50.0826,8.2493,"50.0826,8.2493","50.0826,8.2493","","Clear"
"50.0826,8.2493","11/13/2021 05:00:00",1.4,1.4,1.4,1.2,98.87,,13.8,,220.0,-2.4,0.0,,,6.9,0.0,1016.5,"Mist",50.0826,8.2493,"50.0826,8.2493","50.0826,8.2493","","Clear"
"50.0826,8.2493","11/13/2021 06:00:00",1.5,1.5,1.5,1.4,99.23,,8.3,,200.0,-1.1,0.0,,,1.8,30.0,1016.2,"Mist",50.0826,8.2493,"50.0826,8.2493","50.0826,8.2493","","Partially cloudy"
"50.0826,8.2493","11/13/2021 07:00:00",1.5,1.5,1.5,1.4,99.23,,7.3,,211.0,-0.7,0.0,,,6.7,50.0,1016.2,"Mist",50.0826,8.2493,"50.0826,8.2493","50.0826,8.2493","","Partially cloudy"
"50.0826,8.2493","11/13/2021 08:00:00",1.8,1.8,1.8,1.7,99.25,,11.3,,193.0,-1.5,0.0,,,6.7,0.0,1016.5,"Mist",50.0826,8.2493,"50.0826,8.2493","50.0826,8.2493","","Clear"
"50.0826,8.2493","11/13/2021 09:00:00",2.2,2.2,2.2,2.1,99.24,,7.0,,192.0,0.2,0.0,,,5.1,0.0,1016.5,"Mist",50.0826,8.2493,"50.0826,8.2493","50.0826,8.2493","","Clear"
"50.0826,8.2493","11/13/2021 10:00:00",2.6,2.6,2.6,2.4,98.34,,2.6,,215.0,,0.08,,,5.2,0.0,1016.5,"Mist",50.0826,8.2493,"50.0826,8.2493","50.0826,8.2493","","Rain"
"50.0826,8.2493","11/13/2021 11:00:00",3.1,3.1,3.1,3.0,98.76,,2.6,,215.0,,0.04,,,7.0,0.0,1016.5,"Mist",50.0826,8.2493,"50.0826,8.2493","50.0826,8.2493","","Rain"
"50.0826,8.2493","11/13/2021 12:00:00",3.5,3.5,3.5,3.2,97.72,,2.3,,235.0,,0.17,,,3.0,0.0,1015.8,"Mist",50.0826,8.2493,"50.0826,8.2493","50.0826,8.2493","","Rain"
"50.0826,8.2493","11/13/2021 13:00:00",3.9,3.9,3.9,3.7,98.45,,2.2,,235.0,,0.5,,,5.3,0.0,1015.8,"Mist",50.0826,8.2493,"50.0826,8.2493","50.0826,8.2493","","Rain"
"50.0826,8.2493","11/13/2021 14:00:00",4.1,4.1,4.1,4.0,99.57,,1.3,,230.0,,0.12,,,7.9,0.0,1015.4,"Mist",50.0826,8.2493,"50.0826,8.2493","50.0826,8.2493","","Rain"
"50.0826,8.2493","11/13/2021 15:00:00",4.5,4.5,4.5,4.3,98.57,,1.2,,220.0,,0.0,,,7.2,0.0,1015.1,"Mist",50.0826,8.2493,"50.0826,8.2493","50.0826,8.2493","","Clear"
"50.0826,8.2493","11/13/2021 16:00:00",4.8,4.8,4.8,4.6,99.04,,0.8,,229.0,,0.12,,,7.1,0.0,1015.4,"Mist",50.0826,8.2493,"50.0826,8.2493","50.0826,8.2493","","Rain"
"50.0826,8.2493","11/13/2021 17:00:00",4.9,4.9,4.9,4.5,97.09,,1.3,,169.0,,0.0,,,4.6,0.0,1015.4,"Mist",50.0826,8.2493,"50.0826,8.2493","50.0826,8.2493","","Clear"
"50.0826,8.2493","11/13/2021 18:00:00",5.1,5.1,5.1,5.0,99.11,,1.1,,139.0,,0.21,,,2.0,0.0,1015.7,"Mist",50.0826,8.2493,"50.0826,8.2493","50.0826,8.2493","","Rain"
"50.0826,8.2493","11/13/2021 19:00:00",5.4,5.4,5.4,5.3,99.44,,5.6,,96.0,4.3,0.22,,,3.7,0.0,1016.1,"Mist",50.0826,8.2493,"50.0826,8.2493","50.0826,8.2493","","Rain"
"50.0826,8.2493","11/13/2021 20:00:00",5.6,5.6,5.6,5.5,99.12,,5.5,,101.0,4.6,0.11,,,4.6,0.0,1016.4,"Mist, Light Rain",50.0826,8.2493,"50.0826,8.2493","50.0826,8.2493","","Rain"
"50.0826,8.2493","11/13/2021 21:00:00",5.9,5.9,5.9,5.7,98.56,,5.5,,86.0,4.9,0.99,,,2.9,0.0,1016.3,"Mist, Light Rain",50.0826,8.2493,"50.0826,8.2493","50.0826,8.2493","","Rain"
"50.0826,8.2493","11/13/2021 22:00:00",6.0,6.0,6.0,5.9,98.92,,0.9,,109.0,,0.97,,,5.3,0.0,1016.3,"Mist",50.0826,8.2493,"50.0826,8.2493","50.0826,8.2493","","Rain"
"50.0826,8.2493","11/13/2021 23:00:00",6.0,6.0,6.0,5.8,98.77,,1.1,,89.0,,0.43,,,7.9,0.0,1016.3,"Mist",50.0826,8.2493,"50.0826,8.2493","50.0826,8.2493","","Rain"
"50.0826,8.2493","11/14/2021 00:00:00",6.2,6.2,6.2,6.0,98.74,,5.6,,90.0,5.2,0.1,,,8.8,0.0,1016.7,"",50.0826,8.2493,"50.0826,8.2493","50.0826,8.2493","","Rain"
"50.0826,8.2493","11/14/2021 01:00:00",6.3,6.3,6.3,6.3,99.32,,5.5,,90.0,5.4,0.0,,,7.0,0.0,1016.6,"Mist",50.0826,8.2493,"50.0826,8.2493","50.0826,8.2493","","Clear"
"50.0826,8.2493","11/14/2021 02:00:00",6.4,6.4,6.4,6.2,98.6,,9.2,,68.0,4.6,0.02,,,3.7,30.0,1016.9,"Mist",50.0826,8.2493,"50.0826,8.2493","50.0826,8.2493","","Rain, Partially cloudy"
"50.0826,8.2493","11/14/2021 03:00:00",6.5,6.5,6.5,6.4,99.38,,6.0,,76.0,5.5,0.0,,,8.8,0.0,1017.3,"",50.0826,8.2493,"50.0826,8.2493","50.0826,8.2493","","Clear"
"50.0826,8.2493","11/14/2021 04:00:00",6.7,6.7,6.7,5.4,91.16,,10.6,,96.0,4.6,0.07,,,8.8,0.0,1017.3,"",50.0826,8.2493,"50.0826,8.2493","50.0826,8.2493","","Rain"
"50.0826,8.2493","11/14/2021 05:00:00",6.7,6.7,6.7,5.8,93.8,,6.4,,102.0,5.5,0.01,,,8.9,0.0,1018.0,"",50.0826,8.2493,"50.0826,8.2493","50.0826,8.2493","","Rain"
"50.0826,8.2493","11/14/2021 06:00:00",6.8,6.8,6.8,5.1,89.18,,11.4,,77.0,4.5,0.0,,,9.2,0.0,1018.3,"",50.0826,8.2493,"50.0826,8.2493","50.0826,8.2493","","Clear"
"50.0826,8.2493","11/14/2021 07:00:00",6.7,6.7,6.7,3.9,82.6,,13.0,,69.0,4.1,0.0,,,10.0,0.0,1018.6,"",50.0826,8.2493,"50.0826,8.2493","50.0826,8.2493","","Clear"
"50.0826,8.2493","11/14/2021 08:00:00",6.7,6.7,6.7,3.8,81.73,,14.3,,77.0,3.9,0.0,,,10.0,0.0,1019.9,"",50.0826,8.2493,"50.0826,8.2493","50.0826,8.2493","","Clear"
"50.0826,8.2493","11/14/2021 09:00:00",7.0,7.0,7.0,3.6,78.5,,14.5,,68.0,4.4,0.0,,,10.2,0.0,1020.6,"",50.0826,8.2493,"50.0826,8.2493","50.0826,8.2493","","Clear"
"50.0826,8.2493","11/14/2021 10:00:00",7.5,7.5,7.5,3.5,75.9,,9.9,,78.0,5.7,0.0,,,10.2,0.0,1021.0,"",50.0826,8.2493,"50.0826,8.2493","50.0826,8.2493","","Clear"
"50.0826,8.2493","11/14/2021 11:00:00",8.1,8.1,8.1,3.3,71.84,,11.7,,61.0,6.0,0.0,,,10.5,0.0,1021.2,"",50.0826,8.2493,"50.0826,8.2493","50.0826,8.2493","","Clear"
"50.0826,8.2493","11/14/2021 12:00:00",8.5,8.5,8.5,3.0,68.46,,11.5,,44.0,6.6,0.0,,,10.5,0.0,1021.6,"",50.0826,8.2493,"50.0826,8.2493","50.0826,8.2493","","Clear"
"50.0826,8.2493","11/14/2021 13:00:00",8.8,8.8,8.8,3.1,67.28,,13.4,,33.0,6.7,0.0,,,10.5,0.0,1021.6,"",50.0826,8.2493,"50.0826,8.2493","50.0826,8.2493","","Clear"
"50.0826,8.2493","11/14/2021 14:00:00",9.1,9.1,9.1,3.2,66.56,,10.2,,34.0,7.5,0.0,,,10.5,0.0,1021.9,"",50.0826,8.2493,"50.0826,8.2493","50.0826,8.2493","","Clear"
"50.0826,8.2493","11/14/2021 15:00:00",9.1,9.1,9.1,3.1,66.26,,8.7,,43.0,7.8,0.0,,,10.5,0.0,1021.9,"",50.0826,8.2493,"50.0826,8.2493","50.0826,8.2493","","Clear"
"50.0826,8.2493","11/14/2021 16:00:00",9.0,9.0,9.0,3.1,66.47,,10.4,,17.0,7.3,0.0,,,10.5,46.6,1022.2,"",50.0826,8.2493,"50.0826,8.2493","50.0826,8.2493","","Partially cloudy"
"50.0826,8.2493","11/14/2021 17:00:00",8.0,8.0,8.0,2.8,69.83,,10.8,,350.0,6.1,0.0,,,10.5,50.0,1022.6,"",50.0826,8.2493,"50.0826,8.2493","50.0826,8.2493","","Partially cloudy"
"50.0826,8.2493","11/14/2021 18:00:00",7.8,7.8,7.8,2.9,71.09,,9.6,,22.0,6.2,0.0,,,10.5,50.0,1023.3,"",50.0826,8.2493,"50.0826,8.2493","50.0826,8.2493","","Partially cloudy"
"50.0826,8.2493","11/14/2021 19:00:00",8.0,8.0,8.0,3.0,70.58,,11.5,,7.0,6.0,0.0,,,10.5,0.0,1024.0,"",50.0826,8.2493,"50.0826,8.2493","50.0826,8.2493","","Clear"
"50.0826,8.2493","11/14/2021 20:00:00",7.3,7.3,7.3,2.7,72.61,,9.7,,32.0,5.5,0.0,,,10.5,50.0,1024.3,"",50.0826,8.2493,"50.0826,8.2493","50.0826,8.2493","","Partially cloudy"
"50.0826,8.2493","11/14/2021 21:00:00",7.8,7.8,7.8,2.2,67.65,,11.1,,15.0,5.9,0.0,,,10.3,0.0,1025.0,"",50.0826,8.2493,"50.0826,8.2493","50.0826,8.2493","","Clear"
"50.0826,8.2493","11/14/2021 22:00:00",8.1,8.1,8.1,2.0,65.82,,13.9,,41.0,5.7,0.0,,,10.3,0.0,1024.9,"",50.0826,8.2493,"50.0826,8.2493","50.0826,8.2493","","Clear"
"50.0826,8.2493","11/14/2021 23:00:00",7.8,7.8,7.8,1.8,65.82,,13.8,,33.0,5.4,0.0,,,10.0,0.0,1025.3,"",50.0826,8.2493,"50.0826,8.2493","50.0826,8.2493","","Clear"
"50.0826,8.2493","11/15/2021 00:00:00",7.7,7.7,7.7,1.7,66.14,,11.0,,24.0,5.7,0.0,,,10.0,0.0,1025.3,"",50.0826,8.2493,"50.0826,8.2493","50.0826,8.2493","","Clear"
"50.0826,8.2493","11/15/2021 01:00:00",7.5,7.5,7.5,2.0,68.02,,10.4,,26.0,5.6,0.0,,,10.0,0.0,1024.9,"",50.0826,8.2493,"50.0826,8.2493","50.0826,8.2493","","Clear"
"50.0826,8.2493","11/15/2021 02:00:00",7.6,7.6,7.6,1.9,67.07,,9.2,,26.0,5.9,0.0,,,10.0,0.0,1024.9,"",50.0826,8.2493,"50.0826,8.2493","50.0826,8.2493","","Clear"
"50.0826,8.2493","11/15/2021 03:00:00",7.6,7.6,7.6,1.7,66.21,,10.5,,33.0,5.7,0.0,,,9.9,0.0,1024.9,"",50.0826,8.2493,"50.0826,8.2493","50.0826,8.2493","","Clear"
"50.0826,8.2493","11/15/2021 04:00:00",7.6,7.6,7.6,1.9,67.02,,13.3,,33.0,5.2,0.0,,,9.9,0.0,1024.6,"",50.0826,8.2493,"50.0826,8.2493","50.0826,8.2493","","Clear"
"50.0826,8.2493","11/15/2021 05:00:00",7.6,7.6,7.6,2.0,67.7,,10.5,,67.0,5.7,0.0,,,9.8,0.0,1024.3,"",50.0826,8.2493,"50.0826,8.2493","50.0826,8.2493","","Clear"
"50.0826,8.2493","11/15/2021 06:00:00",7.5,7.5,7.5,2.0,68.34,,13.7,,58.0,5.0,0.0,,,9.7,0.0,1024.3,"",50.0826,8.2493,"50.0826,8.2493","50.0826,8.2493","","Clear"
"50.0826,8.2493","11/15/2021 07:00:00",7.4,7.4,7.4,1.9,67.89,,10.8,,50.0,5.4,0.0,,,9.7,0.0,1024.3,"",50.0826,8.2493,"50.0826,8.2493","50.0826,8.2493","","Clear"
"50.0826,8.2493","11/15/2021 08:00:00",7.3,7.3,7.3,1.8,68.03,,11.8,,67.0,5.1,0.0,,,9.9,0.0,1024.6,"",50.0826,8.2493,"50.0826,8.2493","50.0826,8.2493","","Clear"
"50.0826,8.2493","11/15/2021 09:00:00",7.2,7.2,7.2,1.8,68.56,,10.2,,68.0,5.2,0.0,,,10.0,0.0,1025.0,"",50.0826,8.2493,"50.0826,8.2493","50.0826,8.2493","","Clear"
"50.0826,8.2493","11/15/2021 10:00:00",7.1,7.1,7.1,1.5,67.84,,11.6,,58.0,4.9,0.0,,,10.0,0.0,1024.9,"",50.0826,8.2493,"50.0826,8.2493","50.0826,8.2493","","Clear"
"50.0826,8.2493","11/15/2021 11:00:00",7.0,7.0,7.0,1.6,68.27,,13.2,,65.0,4.5,0.0,,,10.0,0.0,1025.0,"",50.0826,8.2493,"50.0826,8.2493","50.0826,8.2493","","Clear"
"50.0826,8.2493","11/15/2021 12:00:00",6.8,6.8,6.8,1.5,68.75,,11.6,,58.0,4.6,0.0,,,10.0,0.0,1024.6,"",50.0826,8.2493,"50.0826,8.2493","50.0826,8.2493","","Clear"
"50.0826,8.2493","11/15/2021 13:00:00",6.9,6.9,6.9,1.6,69.02,,10.2,,58.0,4.9,0.0,,,10.9,0.0,1024.3,"",50.0826,8.2493,"50.0826,8.2493","50.0826,8.2493","","Clear"
"50.0826,8.2493","11/15/2021 14:00:00",7.0,7.0,7.0,1.7,69.15,,10.1,,49.0,5.0,0.0,,,10.9,0.0,1024.0,"",50.0826,8.2493,"50.0826,8.2493","50.0826,8.2493","","Clear"
"50.0826,8.2493","11/15/2021 15:00:00",7.0,7.0,7.0,1.8,69.35,,11.4,,58.0,4.8,0.0,,,10.9,0.0,1023.6,"",50.0826,8.2493,"50.0826,8.2493","50.0826,8.2493","","Clear"
"50.0826,8.2493","11/15/2021 16:00:00",7.0,7.0,7.0,1.8,69.44,,11.5,,59.0,4.8,0.0,,,11.3,0.0,1023.6,"",50.0826,8.2493,"50.0826,8.2493","50.0826,8.2493","","Clear"
"50.0826,8.2493","11/15/2021 17:00:00",6.9,6.9,6.9,1.7,69.53,,10.0,,34.0,5.0,0.0,,,11.3,0.0,1024.0,"",50.0826,8.2493,"50.0826,8.2493","50.0826,8.2493","","Clear"
"50.0826,8.2493","11/15/2021 18:00:00",7.0,7.0,7.0,1.7,69.23,,8.5,,43.0,5.3,0.0,,,11.3,0.0,1024.0,"",50.0826,8.2493,"50.0826,8.2493","50.0826,8.2493","","Clear"
"50.0826,8.2493","11/15/2021 19:00:00",6.8,6.8,6.8,1.7,70.2,,11.3,,62.0,4.6,0.0,,,10.9,0.0,1024.0,"",50.0826,8.2493,"50.0826,8.2493","50.0826,8.2493","","Clear"
"50.0826,8.2493","11/15/2021 20:00:00",6.7,6.7,6.7,2.0,71.81,,8.5,,35.0,5.0,0.0,,,10.5,0.0,1024.0,"",50.0826,8.2493,"50.0826,8.2493","50.0826,8.2493","","Clear"
"50.0826,8.2493","11/15/2021 21:00:00",6.8,6.8,6.8,2.1,71.9,,8.2,,52.0,5.2,0.0,,,10.5,0.0,1024.0,"",50.0826,8.2493,"50.0826,8.2493","50.0826,8.2493","","Clear"
"50.0826,8.2493","11/15/2021 22:00:00",6.7,6.7,6.7,2.0,72.08,,9.4,,42.0,4.8,0.0,,,10.5,0.0,1024.0,"",50.0826,8.2493,"50.0826,8.2493","50.0826,8.2493","","Clear"
"50.0826,8.2493","11/15/2021 23:00:00",6.5,6.5,6.5,2.0,73.13,,7.8,,51.0,4.9,0.0,,,10.5,0.0,1024.3,"",50.0826,8.2493,"50.0826,8.2493","50.0826,8.2493","","Clear"
"50.0826,8.2493","11/16/2021 00:00:00",6.2,6.2,6.2,1.9,74.0,,7.7,,77.0,4.7,0.0,,,10.0,0.0,1024.0,"",50.0826,8.2493,"50.0826,8.2493","50.0826,8.2493","","Clear"
"50.0826,8.2493","11/16/2021 01:00:00",6.1,6.1,6.1,2.1,75.43,,9.0,,76.0,4.2,0.0,,,10.0,0.0,1024.0,"",50.0826,8.2493,"50.0826,8.2493","50.0826,8.2493","","Clear"
"50.0826,8.2493","11/16/2021 02:00:00",5.9,5.9,5.9,2.1,76.6,,5.9,,56.0,4.9,0.0,,,10.0,0.0,1024.0,"",50.0826,8.2493,"50.0826,8.2493","50.0826,8.2493","","Clear"
"50.0826,8.2493","11/16/2021 03:00:00",5.9,5.9,5.9,2.1,77.1,,7.7,,73.0,4.2,0.0,,,9.7,0.0,1024.0,"",50.0826,8.2493,"50.0826,8.2493","50.0826,8.2493","","Clear"
"50.0826,8.2493","11/16/2021 04:00:00",5.7,5.7,5.7,2.1,77.72,,1.2,,54.0,,0.01,,,9.7,0.0,1023.3,"",50.0826,8.2493,"50.0826,8.2493","50.0826,8.2493","","Rain"
"50.0826,8.2493","11/16/2021 05:00:00",5.6,5.6,5.6,2.1,78.39,,5.9,,85.0,4.4,0.0,,,9.5,0.0,1023.0,"",50.0826,8.2493,"50.0826,8.2493","50.0826,8.2493","","Clear"
"50.0826,8.2493","11/16/2021 06:00:00",5.7,5.7,5.7,1.8,76.15,,5.9,,52.0,4.6,0.0,,,9.5,0.0,1022.7,"",50.0826,8.2493,"50.0826,8.2493","50.0826,8.2493","","Clear"
"50.0826,8.2493","11/16/2021 07:00:00",5.7,5.7,5.7,1.9,76.61,,1.5,,74.0,,0.0,,,9.4,0.0,1023.0,"",50.0826,8.2493,"50.0826,8.2493","50.0826,8.2493","","Clear"
"50.0826,8.2493","11/16/2021 08:00:00",5.7,5.7,5.7,1.9,76.4,,1.1,,75.0,,0.0,,,9.1,0.0,1023.3,"",50.0826,8.2493,"50.0826,8.2493","50.0826,8.2493","","Clear"
"50.0826,8.2493","11/16/2021 09:00:00",5.8,5.8,5.8,2.0,76.7,,0.6,,85.0,,0.01,,,9.0,0.0,1023.7,"",50.0826,8.2493,"50.0826,8.2493","50.0826,8.2493","","Rain"
"50.0826,8.2493","11/16/2021 10:00:00",5.9,5.9,5.9,2.2,77.38,,0.8,,84.0,,0.0,,,9.0,0.0,1023.3,"",50.0826,8.2493,"50.0826,8.2493","50.0826,8.2493","","Clear"
"50.0826,8.2493","11/16/2021 11:00:00",6.0,6.0,6.0,2.4,77.48,,0.7,,118.0,,0.0,,,9.0,0.0,1023.3,"",50.0826,8.2493,"50.0826,8.2493","50.0826,8.2493","","Clear"
"50.0826,8.2493","11/16/2021 12:00:00",6.0,6.0,6.0,2.7,79.4,,0.8,,322.0,,0.01,,,9.0,0.0,1023.0,"",50.0826,8.2493,"50.0826,8.2493","50.0826,8.2493","","Rain"
"50.0826,8.2493","11/16/2021 13:00:00",6.0,6.0,6.0,2.7,79.46,,0.6,,6.0,,0.0,,,8.2,0.0,1022.7,"Mist",50.0826,8.2493,"50.0826,8.2493","50.0826,8.2493","","Clear"
"50.0826,8.2493","11/16/2021 14:00:00",6.0,6.0,6.0,2.8,80.37,,5.5,,93.0,5.0,0.02,,,7.4,0.0,1022.3,"Mist, Light Drizzle",50.0826,8.2493,"50.0826,8.2493","50.0826,8.2493","","Rain"
"50.0826,8.2493","11/16/2021 15:00:00",5.7,5.7,5.7,3.4,85.32,,5.3,,86.0,4.8,0.01,,,4.2,0.0,1022.0,"Mist, Light Rain",50.0826,8.2493,"50.0826,8.2493","50.0826,8.2493","","Rain"
"50.0826,8.2493","11/16/2021 16:00:00",5.6,5.6,5.6,3.7,87.44,,0.6,,143.0,,0.02,,,5.1,0.0,1022.0,"Mist",50.0826,8.2493,"50.0826,8.2493","50.0826,8.2493","","Rain"
"50.0826,8.2493","11/16/2021 17:00:00",5.4,5.4,5.4,3.9,89.6,,0.5,,154.0,,0.14,,,5.9,0.0,1021.7,"Mist",50.0826,8.2493,"50.0826,8.2493","50.0826,8.2493","","Rain"
"50.0826,8.2493","11/16/2021 18:00:00",5.3,5.3,5.3,3.7,89.61,,0.5,,163.0,,0.0,,,7.5,0.0,1021.7,"Light Rain",50.0826,8.2493,"50.0826,8.2493","50.0826,8.2493","","Clear"
"50.0826,8.2493","11/16/2021 19:00:00",5.3,5.3,5.3,3.8,90.09,,0.4,,295.0,,0.08,,,7.5,0.0,1021.7,"Light Drizzle",50.0826,8.2493,"50.0826,8.2493","50.0826,8.2493","","Rain"
"50.0826,8.2493","11/16/2021 20:00:00",5.1,5.1,5.1,3.9,91.8,,5.4,,253.0,4.1,0.04,,,7.3,0.0,1021.7,"Mist",50.0826,8.2493,"50.0826,8.2493","50.0826,8.2493","","Rain"
"50.0826,8.2493","11/16/2021 21:00:00",5.1,5.1,5.1,3.7,90.81,,5.7,,278.0,3.9,0.07,,,8.8,0.0,1021.7,"",50.0826,8.2493,"50.0826,8.2493","50.0826,8.2493","","Rain"
"50.0826,8.2493","11/16/2021 22:00:00",5.0,5.0,5.0,2.6,84.83,,1.5,,264.0,,0.02,,,8.9,0.0,1022.0,"",50.0826,8.2493,"50.0826,8.2493","50.0826,8.2493","","Rain"
"50.0826,8.2493","11/16/2021 23:00:00",4.7,4.7,4.7,2.6,86.23,,5.8,,259.0,3.5,0.0,,,9.4,0.0,1021.7,"",50.0826,8.2493,"50.0826,8.2493","50.0826,8.2493","","Clear"
"50.0826,8.2493","11/17/2021 00:00:00",4.7,4.7,4.7,2.9,87.97,,1.0,,259.0,,0.0,,,9.4,0.0,1021.4,"",50.0826,8.2493,"50.0826,8.2493","50.0826,8.2493","","Clear"
"50.0826,8.2493","11/17/2021 01:00:00",4.7,4.7,4.7,3.3,90.85,,5.7,,276.0,3.5,0.0,,,9.6,0.0,1021.4,"Light Rain",50.0826,8.2493,"50.0826,8.2493","50.0826,8.2493","","Clear"
"50.0826,8.2493","11/17/2021 02:00:00",4.6,4.6,4.6,3.4,91.51,,1.4,,249.0,,0.01,,,8.8,0.0,1021.4,"Light Drizzle",50.0826,8.2493,"50.0826,8.2493","50.0826,8.2493","","Rain"
"50.0826,8.2493","11/17/2021 03:00:00",4.6,4.6,4.6,3.5,92.45,,1.3,,244.0,,0.12,,,8.5,0.0,1021.4,"Mist",50.0826,8.2493,"50.0826,8.2493","50.0826,8.2493","","Rain"
"50.0826,8.2493","11/17/2021 04:00:00",4.6,4.6,4.6,3.4,91.84,,6.0,,267.0,3.3,0.0,,,9.1,0.0,1021.4,"",50.0826,8.2493,"50.0826,8.2493","50.0826,8.2493","","Clear"
"50.0826,8.2493","11/17/2021 05:00:00",4.6,4.6,4.6,2.4,85.52,,7.6,,287.0,2.8,0.0,,,9.1,0.0,1021.0,"",50.0826,8.2493,"50.0826,8.2493","50.0826,8.2493","","Clear"
"50.0826,8.2493","11/17/2021 06:00:00",4.4,4.4,4.4,2.2,85.94,,7.8,,279.0,2.5,0.0,,,9.1,0.0,1021.4,"Light Drizzle",50.0826,8.2493,"50.0826,8.2493","50.0826,8.2493","","Clear"
"50.0826,8.2493","11/17/2021 07:00:00",4.4,4.4,4.4,2.1,85.46,,12.2,,288.0,1.5,0.0,,,9.5,0.0,1022.1,"Light Drizzle",50.0826,8.2493,"50.0826,8.2493","50.0826,8.2493","","Clear"
"50.0826,8.2493","11/17/2021 08:00:00",4.3,4.3,4.3,1.8,84.15,,11.1,,281.0,1.6,0.05,,,9.2,0.0,1022.5,"",50.0826,8.2493,"50.0826,8.2493","50.0826,8.2493","","Rain"
"50.0826,8.2493","11/17/2021 09:00:00",4.2,4.2,4.2,1.1,79.96,,9.8,,287.0,1.8,0.0,,,9.4,0.0,1023.1,"",50.0826,8.2493,"50.0826,8.2493","50.0826,8.2493","","Clear"
"50.0826,8.2493","11/17/2021 10:00:00",4.8,4.8,4.8,1.0,76.41,,7.6,,261.0,3.1,0.01,,,11.1,0.0,1023.1,"",50.0826,8.2493,"50.0826,8.2493","50.0826,8.2493","","Rain"
"50.0826,8.2493","11/17/2021 11:00:00",5.3,5.3,5.3,1.4,75.89,,7.8,,261.0,3.5,0.0,,,11.3,0.0,1023.7,"",50.0826,8.2493,"50.0826,8.2493","50.0826,8.2493","","Clear"
"50.0826,8.2493","11/17/2021 12:00:00",5.8,5.8,5.8,1.8,74.97,,11.1,,259.0,3.5,0.0,,,11.3,0.0,1023.7,"",50.0826,8.2493,"50.0826,8.2493","50.0826,8.2493","","Clear"
"50.0826,8.2493","11/17/2021 13:00:00",6.0,6.0,6.0,1.8,74.03,,12.6,,251.0,3.4,0.0,,,11.8,0.0,1023.7,"",50.0826,8.2493,"50.0826,8.2493","50.0826,8.2493","","Clear"
"50.0826,8.2493","11/17/2021 14:00:00",6.5,6.5,6.5,2.1,73.91,,12.7,,249.0,3.9,0.0,,,12.6,0.0,1023.4,"",50.0826,8.2493,"50.0826,8.2493","50.0826,8.2493","","Clear"
"50.0826,8.2493","11/17/2021 15:00:00",6.8,6.8,6.8,2.5,73.85,,11.3,,247.0,4.6,0.0,,,12.6,0.0,1023.7,"",50.0826,8.2493,"50.0826,8.2493","50.0826,8.2493","","Clear"
"50.0826,8.2493","11/17/2021 16:00:00",6.5,6.5,6.5,3.0,78.33,,12.8,,247.0,3.9,0.0,,,10.9,0.0,1024.1,"",50.0826,8.2493,"50.0826,8.2493","50.0826,8.2493","","Clear"
"50.0826,8.2493","11/17/2021 17:00:00",6.1,6.1,6.1,3.8,84.85,,8.4,,222.0,4.4,0.06,,,10.0,0.0,1024.1,"",50.0826,8.2493,"50.0826,8.2493","50.0826,8.2493","","Rain"
"50.0826,8.2493","11/17/2021 18:00:00",6.2,6.2,6.2,3.5,82.76,,8.4,,215.0,4.5,0.0,,,10.0,0.0,1024.8,"",50.0826,8.2493,"50.0826,8.2493","50.0826,8.2493","","Clear"
"50.0826,8.2493","11/17/2021 19:00:00",6.4,6.4,6.4,3.5,81.35,,8.3,,242.0,4.7,0.03,,,10.0,0.0,1025.4,"",50.0826,8.2493,"50.0826,8.2493","50.0826,8.2493","","Rain"
"50.0826,8.2493","11/17/2021 20:00:00",6.4,6.4,6.4,3.9,83.66,,1.8,,249.0,,0.02,,,10.0,0.0,1026.5,"",50.0826,8.2493,"50.0826,8.2493","50.0826,8.2493","","Rain"
"50.0826,8.2493","11/17/2021 21:00:00",6.3,6.3,6.3,4.2,86.22,,1.7,,259.0,,0.03,,,10.5,0.0,1026.8,"Light Rain",50.0826,8.2493,"50.0826,8.2493","50.0826,8.2493","","Rain"
"50.0826,8.2493","11/17/2021 22:00:00",6.1,6.1,6.1,4.4,89.17,,2.0,,254.0,,0.0,,,10.5,0.0,1027.5,"",50.0826,8.2493,"50.0826,8.2493","50.0826,8.2493","","Clear"
"50.0826,8.2493","11/17/2021 23:00:00",5.1,5.1,5.1,4.6,96.61,,10.0,,277.0,2.8,0.0,,,11.8,13.0,1027.9,"",50.0826,8.2493,"50.0826,8.2493","50.0826,8.2493","","Clear"
"50.0826,8.2493","11/18/2021 00:00:00",4.4,4.4,4.4,3.9,96.31,,11.1,,260.0,1.8,0.0,,,11.1,0.0,1028.3,"",50.0826,8.2493,"50.0826,8.2493","50.0826,8.2493","","Clear"
"50.0826,8.2493","11/18/2021 01:00:00",4.1,4.1,4.1,3.7,97.03,,8.3,,259.0,2.1,0.0,,,7.3,,1028.4,"",50.0826,8.2493,"50.0826,8.2493","50.0826,8.2493","","Clear"
"50.0826,8.2493","11/18/2021 02:00:00",4.4,4.4,4.4,4.0,97.38,,8.6,,262.0,2.3,0.0,,,6.7,,1028.7,"",50.0826,8.2493,"50.0826,8.2493","50.0826,8.2493","","Clear"
"50.0826,8.2493","11/18/2021 03:00:00",4.1,4.1,4.1,3.9,98.55,,8.6,,261.0,1.9,0.0,,,4.1,,1028.9,"",50.0826,8.2493,"50.0826,8.2493","50.0826,8.2493","","Clear"
"50.0826,8.2493","11/18/2021 04:00:00",4.1,4.1,4.1,3.6,96.82,,7.8,,272.0,2.1,0.0,,,4.7,,1029.3,"",50.0826,8.2493,"50.0826,8.2493","50.0826,8.2493","","Clear"
"50.0826,8.2493","11/18/2021 05:00:00",3.7,3.7,3.7,3.1,96.11,,6.8,,263.0,2.0,0.0,,,3.0,,1029.6,"",50.0826,8.2493,"50.0826,8.2493","50.0826,8.2493","","Clear"
"50.0826,8.2493","11/18/2021 06:00:00",3.0,3.0,3.0,2.6,96.98,,9.0,,266.0,0.5,0.0,,,2.6,,1030.1,"",50.0826,8.2493,"50.0826,8.2493","50.0826,8.2493","","Clear"
"50.0826,8.2493","11/18/2021 07:00:00",2.6,2.6,2.6,2.2,97.37,,7.7,,268.0,0.4,0.0,,,2.9,,1030.3,"",50.0826,8.2493,"50.0826,8.2493","50.0826,8.2493","","Clear"
"50.0826,8.2493","11/18/2021 08:00:00",2.8,2.8,2.8,2.4,97.28,,8.5,,264.0,0.4,0.0,,,0.3,,1031.0,"",50.0826,8.2493,"50.0826,8.2493","50.0826,8.2493","","Clear"
"50.0826,8.2493","11/18/2021 09:00:00",2.9,2.9,2.9,2.5,97.65,,6.7,,272.0,1.1,0.0,,,0.4,,1031.6,"",50.0826,8.2493,"50.0826,8.2493","50.0826,8.2493","","Clear"
"50.0826,8.2493","11/18/2021 10:00:00",4.0,4.0,4.0,3.3,95.76,,6.4,,235.0,2.4,0.0,,,0.7,,1031.7,"",50.0826,8.2493,"50.0826,8.2493","50.0826,8.2493","","Clear"
"50.0826,8.2493","11/18/2021 11:00:00",5.5,5.5,5.5,4.5,93.66,,7.6,,247.0,3.8,0.0,,,10.5,,1032.0,"",50.0826,8.2493,"50.0826,8.2493","50.0826,8.2493","","Clear"
"50.0826,8.2493","11/18/2021 12:00:00",6.4,6.4,6.4,4.5,87.68,,6.8,,244.0,5.1,0.0,,,16.3,,1031.9,"",50.0826,8.2493,"50.0826,8.2493","50.0826,8.2493","","Clear"
"50.0826,8.2493","11/18/2021 13:00:00",7.3,7.3,7.3,4.9,84.83,,8.5,,232.0,5.7,0.0,,,21.3,,1031.2,"",50.0826,8.2493,"50.0826,8.2493","50.0826,8.2493","","Clear"
"50.0826,8.2493","11/18/2021 14:00:00",7.6,7.6,7.6,4.7,81.85,,10.3,,225.0,5.8,0.0,,,25.9,,1030.8,"",50.0826,8.2493,"50.0826,8.2493","50.0826,8.2493","","Clear"
"50.0826,8.2493","11/18/2021 15:00:00",7.8,7.8,7.8,5.0,82.24,,9.8,,238.0,6.1,0.0,,,17.9,,1030.2,"",50.0826,8.2493,"50.0826,8.2493","50.0826,8.2493","","Clear"
"50.0826,8.2493","11/18/2021 16:00:00",7.5,7.5,7.5,4.8,83.39,,13.5,,253.0,5.0,0.0,,,23.0,,1030.1,"",50.0826,8.2493,"50.0826,8.2493","50.0826,8.2493","","Clear"
"50.0826,8.2493","11/18/2021 17:00:00",6.6,6.6,6.6,4.2,84.39,,9.9,,261.0,4.6,0.0,,,21.2,,1030.9,"",50.0826,8.2493,"50.0826,8.2493","50.0826,8.2493","","Clear"
"50.0826,8.2493","11/18/2021 18:00:00",5.0,5.0,5.0,3.2,87.98,,13.1,,255.0,2.1,0.0,,,20.6,,1031.0,"",50.0826,8.2493,"50.0826,8.2493","50.0826,8.2493","","Clear"
"50.0826,8.2493","11/18/2021 19:00:00",4.9,4.9,4.9,3.2,88.45,,10.4,,267.0,2.5,0.0,,,19.0,,1031.4,"",50.0826,8.2493,"50.0826,8.2493","50.0826,8.2493","","Clear"
"50.0826,8.2493","11/18/2021 20:00:00",4.1,4.1,4.1,2.9,91.62,,12.0,,270.0,1.2,0.0,,,18.7,,1031.7,"",50.0826,8.2493,"50.0826,8.2493","50.0826,8.2493","","Clear"
"50.0826,8.2493","11/18/2021 21:00:00",5.0,5.0,5.0,3.5,90.07,,10.7,,270.0,2.5,0.0,,,16.5,,1031.6,"",50.0826,8.2493,"50.0826,8.2493","50.0826,8.2493","","Clear"
"50.0826,8.2493","11/18/2021 22:00:00",5.1,5.1,5.1,3.6,89.89,,11.5,,267.0,2.5,0.0,,,17.5,,1032.0,"",50.0826,8.2493,"50.0826,8.2493","50.0826,8.2493","","Clear"
"50.0826,8.2493","11/18/2021 23:00:00",4.3,4.3,4.3,3.1,92.04,,14.3,,269.0,1.1,0.0,,,16.1,,1031.9,"",50.0826,8.2493,"50.0826,8.2493","50.0826,8.2493","","Clear"
"50.0826,8.2493","11/19/2021 00:00:00",4.7,4.7,4.7,3.7,93.01,,11.3,,241.0,2.0,0.0,,,15.5,,1031.7,"",50.0826,8.2493,"50.0826,8.2493","50.0826,8.2493","","Clear"
"50.0826,8.2493","11/19/2021 01:00:00",5.0,5.0,5.0,3.9,92.42,,10.9,,259.0,2.5,0.0,,,17.8,,1031.6,"",50.0826,8.2493,"50.0826,8.2493","50.0826,8.2493","","Clear"
"50.0826,8.2493","11/19/2021 02:00:00",5.1,5.1,5.1,4.1,93.22,,9.8,,266.0,2.9,0.0,,,18.3,,1031.6,"",50.0826,8.2493,"50.0826,8.2493","50.0826,8.2493","","Clear"
"50.0826,8.2493","11/19/2021 03:00:00",5.2,5.2,5.2,4.4,94.34,,9.8,,251.0,3.0,0.0,,,16.5,,1031.7,"",50.0826,8.2493,"50.0826,8.2493","50.0826,8.2493","","Clear"
"50.0826,8.2493","11/19/2021 04:00:00",5.3,5.3,5.3,4.6,95.39,,10.6,,280.0,2.9,0.0,,,14.9,,1031.7,"",50.0826,8.2493,"50.0826,8.2493","50.0826,8.2493","","Clear"
"50.0826,8.2493","11/19/2021 05:00:00",5.6,5.6,5.6,4.7,94.11,,11.6,,233.0,3.1,0.0,,,14.7,,1031.6,"",50.0826,8.2493,"50.0826,8.2493","50.0826,8.2493","","Clear"
"50.0826,8.2493","11/19/2021 06:00:00",5.7,5.7,5.7,5.1,95.99,,11.0,,241.0,3.3,0.0,,,13.0,,1031.7,"",50.0826,8.2493,"50.0826,8.2493","50.0826,8.2493","","Clear"
"50.0826,8.2493","11/19/2021 07:00:00",5.8,5.8,5.8,5.3,96.32,,9.6,,233.0,3.8,0.06,,,12.3,,1031.7,"",50.0826,8.2493,"50.0826,8.2493","50.0826,8.2493","","Rain"
"50.0826,8.2493","11/19/2021 08:00:00",5.9,5.9,5.9,5.5,97.26,,10.1,,244.0,3.7,0.13,,,8.8,,1032.1,"",50.0826,8.2493,"50.0826,8.2493","50.0826,8.2493","","Rain"
"50.0826,8.2493","11/19/2021 09:00:00",6.2,6.2,6.2,5.9,97.86,,11.0,,233.0,3.9,0.07,,,7.7,,1032.5,"",50.0826,8.2493,"50.0826,8.2493","50.0826,8.2493","","Rain"
"50.0826,8.2493","11/19/2021 10:00:00",6.7,6.7,6.7,6.2,96.79,,9.2,,231.0,4.8,0.08,,,7.2,,1032.6,"",50.0826,8.2493,"50.0826,8.2493","50.0826,8.2493","","Rain"
"50.0826,8.2493","11/19/2021 11:00:00",7.0,7.0,7.0,6.4,95.67,,13.1,,227.0,4.5,0.07,,,10.9,,1032.6,"",50.0826,8.2493,"50.0826,8.2493","50.0826,8.2493","","Rain"
"50.0826,8.2493","11/19/2021 12:00:00",7.6,7.6,7.6,6.5,92.77,,12.6,,240.0,5.3,0.08,,,17.0,,1032.3,"",50.0826,8.2493,"50.0826,8.2493","50.0826,8.2493","","Rain"
"50.0826,8.2493","11/19/2021 13:00:00",8.0,8.0,8.0,7.0,92.97,,14.7,,234.0,5.6,0.01,,,6.1,,1031.9,"",50.0826,8.2493,"50.0826,8.2493","50.0826,8.2493","","Rain"
"50.0826,8.2493","11/19/2021 14:00:00",8.4,8.4,8.4,7.3,92.59,,15.9,,241.0,5.8,0.08,,,15.4,,1031.3,"",50.0826,8.2493,"50.0826,8.2493","50.0826,8.2493","","Rain"
"50.0826,8.2493","11/19/2021 15:00:00",8.6,8.6,8.6,7.3,91.55,,13.5,,241.0,6.4,0.06,,,23.1,,1030.8,"",50.0826,8.2493,"50.0826,8.2493","50.0826,8.2493","","Rain"
"50.0826,8.2493","11/19/2021 16:00:00",8.5,8.5,8.5,7.3,92.42,,10.9,,239.0,6.6,0.01,,,25.6,,1030.7,"",50.0826,8.2493,"50.0826,8.2493","50.0826,8.2493","","Rain"
"50.0826,8.2493","11/19/2021 17:00:00",8.3,8.3,8.3,7.1,92.26,,10.4,,244.0,6.6,0.0,,,0.0,,1030.6,"",50.0826,8.2493,"50.0826,8.2493","50.0826,8.2493","","Clear"
"50.0826,8.2493","11/19/2021 18:00:00",8.2,8.2,8.2,7.1,93.0,,9.3,,239.0,6.6,0.0,,,26.1,,1030.7,"",50.0826,8.2493,"50.0826,8.2493","50.0826,8.2493","","Clear"
"50.0826,8.2493","11/19/2021 19:00:00",8.2,8.2,8.2,7.0,92.44,,9.9,,248.0,6.5,0.0,,,25.6,,1031.0,"",50.0826,8.2493,"50.0826,8.2493","50.0826,8.2493","","Clear"
"50.0826,8.2493","11/19/2021 20:00:00",8.1,8.1,8.1,7.0,93.21,,9.2,,259.0,6.5,0.0,,,17.9,,1031.0,"",50.0826,8.2493,"50.0826,8.2493","50.0826,8.2493","","Clear"
"50.0826,8.2493","11/19/2021 21:00:00",7.9,7.9,7.9,6.8,92.87,,10.7,,248.0,6.0,0.0,,,12.8,,1031.1,"",50.0826,8.2493,"50.0826,8.2493","50.0826,8.2493","","Clear"
"50.0826,8.2493","11/19/2021 22:00:00",7.8,7.8,7.8,6.8,93.3,,10.3,,264.0,5.9,0.0,,,12.8,,1031.4,"",50.0826,8.2493,"50.0826,8.2493","50.0826,8.2493","","Clear"
"50.0826,8.2493","11/19/2021 23:00:00",7.6,7.6,7.6,6.6,93.81,,10.0,,249.0,5.7,0.0,,,10.2,,1031.3,"",50.0826,8.2493,"50.0826,8.2493","50.0826,8.2493","","Clear"
"50.0826,8.2493","11/20/2021 00:00:00",7.4,7.4,7.4,6.6,94.92,,8.3,,270.0,5.9,0.0,,,6.7,,1031.1,"",50.0826,8.2493,"50.0826,8.2493","50.0826,8.2493","","Clear"
"50.0826,8.2493","11/20/2021 01:00:00",8.0,8.0,8.0,5.0,81.35,,0.0,,0.0,,0.0,,,10.0,100.0,1030.5,"",50.0826,8.2493,"50.0826,8.2493","50.0826,8.2493","","Overcast"
"50.0826,8.2493","11/20/2021 02:00:00",7.0,7.0,7.0,6.0,93.35,,5.4,,120.0,6.2,0.0,,,10.0,100.0,1030.1,"",50.0826,8.2493,"50.0826,8.2493","50.0826,8.2493","","Overcast"
"50.0826,8.2493","11/20/2021 03:00:00",7.0,7.0,7.0,6.0,93.35,,0.0,,0.0,,0.0,,,9.0,100.0,1029.8,"",50.0826,8.2493,"50.0826,8.2493","50.0826,8.2493","","Overcast"
"50.0826,8.2493","11/20/2021 04:00:00",7.0,7.0,7.0,6.0,93.35,,0.0,,,,0.0,,,9.0,100.0,1029.1,"",50.0826,8.2493,"50.0826,8.2493","50.0826,8.2493","","Overcast"
"50.0826,8.2493","11/20/2021 05:00:00",7.0,7.0,7.0,7.0,100.0,,0.0,,0.0,,0.0,,,8.0,100.0,1028.5,"",50.0826,8.2493,"50.0826,8.2493","50.0826,8.2493","","Overcast"
"50.0826,8.2493","11/20/2021 06:00:00",7.0,7.0,7.0,7.0,100.0,,0.0,,0.0,,0.0,,,6.0,100.0,1028.5,"",50.0826,8.2493,"50.0826,8.2493","50.0826,8.2493","","Overcast"
"50.0826,8.2493","11/20/2021 07:00:00",7.0,7.0,7.0,7.0,100.0,,0.0,,0.0,,0.0,,,6.0,88.0,1028.1,"",50.0826,8.2493,"50.0826,8.2493","50.0826,8.2493","","Overcast"
"50.0826,8.2493","11/20/2021 08:00:00",7.0,7.0,7.0,7.0,100.0,,0.0,,0.0,,0.0,,,4.0,88.0,1028.1,"",50.0826,8.2493,"50.0826,8.2493","50.0826,8.2493","","Overcast"
"50.0826,8.2493","11/20/2021 09:00:00",7.0,7.0,7.0,7.0,100.0,,0.0,,0.0,,0.0,,,4.0,50.0,1028.1,"",50.0826,8.2493,"50.0826,8.2493","50.0826,8.2493","","Partially cloudy"
"50.0826,8.2493","11/20/2021 10:00:00",8.0,8.0,8.0,8.0,100.0,,0.0,,0.0,,0.0,,,5.0,88.0,1027.4,"",50.0826,8.2493,"50.0826,8.2493","50.0826,8.2493","","Overcast"
"50.0826,8.2493","11/20/2021 11:00:00",8.0,8.0,8.0,8.0,100.0,,0.0,,0.0,,0.0,,,6.0,100.0,1027.1,"",50.0826,8.2493,"50.0826,8.2493","50.0826,8.2493","","Overcast"
"50.0826,8.2493","11/20/2021 12:00:00",9.0,9.0,9.0,6.0,81.48,,0.0,,0.0,,0.0,,,8.0,100.0,1026.4,"",50.0826,8.2493,"50.0826,8.2493","50.0826,8.2493","","Overcast"
"50.0826,8.2493","11/20/2021 13:00:00",10.0,10.0,10.0,5.0,71.08,,,,,,0.0,,,10.0,100.0,1025.4,"",50.0826,8.2493,"50.0826,8.2493","50.0826,8.2493","","Overcast"
"50.0826,8.2493","11/20/2021 14:00:00",10.0,10.0,10.0,5.0,71.08,,0.0,,0.0,,0.0,,,10.0,100.0,1024.1,"",50.0826,8.2493,"50.0826,8.2493","50.0826,8.2493","","Overcast"
"50.0826,8.2493","11/20/2021 15:00:00",10.0,10.0,10.0,4.0,66.28,,5.4,,160.0,9.6,0.0,,,10.0,100.0,1023.0,"",50.0826,8.2493,"50.0826,8.2493","50.0826,8.2493","","Overcast"
"50.0826,8.2493","11/20/2021 16:00:00",10.0,10.0,10.0,4.0,66.28,,9.4,,180.0,8.7,0.0,,,10.0,100.0,1022.4,"",50.0826,8.2493,"50.0826,8.2493","50.0826,8.2493","","Overcast"
"50.0826,8.2493","11/20/2021 17:00:00",9.0,9.0,9.0,2.0,61.53,,11.2,,210.0,7.2,0.0,,,10.0,100.0,1021.7,"",50.0826,8.2493,"50.0826,8.2493","50.0826,8.2493","","Overcast"
"50.0826,8.2493","11/20/2021 18:00:00",8.0,8.0,8.0,2.0,65.84,,7.6,,190.0,6.7,0.0,,,10.0,100.0,1021.0,"",50.0826,8.2493,"50.0826,8.2493","50.0826,8.2493","","Overcast"
"50.0826,8.2493","11/20/2021 19:00:00",8.0,8.0,8.0,2.0,65.84,,,,,,0.0,,,10.0,100.0,1020.3,"",50.0826,8.2493,"50.0826,8.2493","50.0826,8.2493","","Overcast"
"50.0826,8.2493","11/20/2021 20:00:00",8.0,8.0,8.0,2.0,65.84,,5.4,,200.0,7.3,0.0,,,10.0,100.0,1019.7,"",50.0826,8.2493,"50.0826,8.2493","50.0826,8.2493","","Overcast"
"50.0826,8.2493","11/20/2021 21:00:00",7.0,7.0,7.0,2.0,70.49,,7.6,,220.0,5.5,0.0,,,10.0,100.0,1019.3,"",50.0826,8.2493,"50.0826,8.2493","50.0826,8.2493","","Overcast"
"50.0826,8.2493","11/20/2021 22:00:00",6.0,6.0,6.0,2.0,75.51,,5.4,,200.0,5.0,0.0,,,10.0,100.0,1018.3,"",50.0826,8.2493,"50.0826,8.2493","50.0826,8.2493","","Overcast"
"50.0826,8.2493","11/20/2021 23:00:00",6.0,6.0,6.0,2.0,75.51,,9.4,,230.0,3.9,0.0,,,10.0,100.0,1018.0,"",50.0826,8.2493,"50.0826,8.2493","50.0826,8.2493","","Overcast"
